agency,county,town,address,X,Y,O_ABC,Serve,fax,mail,name,data
桃園市都市原住民老人會,桃園市,蘆竹區,桃園市蘆竹區內厝里東溪路28號,121.2797546,25.06368446,C,巷弄長照站,03-4802337,ccchungdaw@mohw.gov.tw,待補,20190903 17:08:04
社團法人中華民國士林靈糧堂社會福利協會附設桃園市私立龜山陸光社區長照機構,桃園市,龜山區,桃園市龜山區陸光里029鄰自強西路240號1樓,121.331749,24.99531937,B,小規模多機能服務,03-2132050,ksdaycare@slsc.org.tw,劉群茂,20230426 13:20:07
沙爾德聖保祿修女會醫療財團法人附設聖保祿居家護理所,桃園市,桃園區,桃園市桃園區建新街123號,121.3120041,24.98231697,B,專業照護服務,03 3613141,tecogi6@mail.sph.org.tw,陳佳鈴,20230221 11:33:17
職物語居家職能治療所,桃園市,蘆竹區,桃園市蘆竹區南崁路2段83號18樓之3(1826室),121.2781143,25.05712509,B,專業照護服務,0913-820528,ops1080322@gmail.com,李柏毅,20230118 15:08:40
桃園市八德區榮光服務協會,桃園市,八德區,桃園市八德區大信里大興路1025號,121.3025818,24.93620491,C,巷弄長照站,03-3688808,a0985908411@gmail.com,王國棟,20210127 16:05:58
桃園市中壢區仁祥里辦公處,桃園市,中壢區,桃園市中壢區龍平里華祥一街21號,121.254158,24.92928886,C,巷弄長照站,03-4658837,ant3515@yahoo.com.tw,陳秀菁,20210127 16:37:26
桃園市中壢區永福社區發展協會,桃園市,中壢區,桃園市中壢區忠福里南園二路90號,121.2311249,24.9716301,C,巷弄長照站,03-4615485,h935258767@gmail.com,黃寶貞,20210127 16:39:31
桃園市八德區瑞祥里辦公處,桃園市,八德區,桃園市八德區瑞祥里介壽路二段1233巷46-1號,121.2991028,24.930233,C,巷弄長照站,03-4615485,a0927581675@yahoo.com.tw,張是華,20210128 10:54:31
社團法人台灣樂活服務發展協會(豐收據點),桃園市,中壢區,桃園市中壢區龍慈里後寮一路320號1樓,121.2464066,24.93601608,C,巷弄長照站,0982-985298,top.church@ymail.com,林淑萍,20210127 15:29:19
桃園市私立?駿居家長照機構,桃園市,楊梅區,桃園市楊梅區瑞溪里中山北路二段265巷94號1樓,121.1755753,24.90805626,B,居家服務,03-4820769,Longjun2021@gmail.com,邱?峰,20220628 18:49:42
桃園市私立家悅老人長期照顧中心(養護型),桃園市,桃園區,桃園市桃園區新生路165號5樓之2,121.3077774,24.99611855,B,喘息服務,03-3342139,c09985183@gmail.com,楊閎升,20230221 15:29:49
社團法人台灣樂活服務發展協會(行道會據點),桃園市,平鎮區,桃園市平鎮區北勢里莒光路1號2樓,121.2223358,24.94704247,C,巷弄長照站,0982-985298,top.church@gmail.com,馬瑞辰,20210127 15:33:37
社團法人中華雲鵬展弘協會,桃園市,楊梅區,桃園市楊梅區中山里中山北路一段319號,121.1572952,24.90833855,C,巷弄長照站,03-4881300,yumnpp.ltcc@gmail.com,李鈺璽,20210128 11:00:56
姜博文診所,桃園市,楊梅區,桃園市楊梅區永寧里永美路335號3樓,121.1820221,24.91717148,C,巷弄長照站,03-4826241#322,4826241@gmail.com,姜博文,20210127 14:58:50
桃園市蘆竹區新興社區發展協會,桃園市,蘆竹區,桃園市蘆竹區新興里大竹路一巷336號,121.2762604,25.00576973,C,巷弄長照站,0913-000-338,j095230309158@gmail.com,呂書言,20210201 16:55:13
財團法人天下為公社會福利慈善事業基金會中壢區,桃園市,中壢區,桃園市中壢區中正路257號9F,121.2232437,24.9568367,A,個案管理服務,03-4260176,leoleo987321@gmail.com,胡世賢,20230125 19:29:57
桃園市私立安安居家長照機構,桃園市,中壢區,桃園市中壢區中央里延平路429號10樓之一,121.2245255,24.9586277,B,居家服務,03-4265391,ananhomecare@gmail.com,蔣建宇,20201116 13:58:17
財團法人天主教德來會附設桃園市私立德來綜合長照機構,桃園市,桃園區,桃園市桃園區三民里三民路一段2號2樓,121.3233032,24.99634743,B,日間照顧服務,03-3317226,joannahsieh9102005@yahoo.com,蔡宜芬,20210201 15:14:38
桃園市楊梅區永平里辦公處,桃園市,楊梅區,桃園市楊梅區永平里中山北路二段２６８巷１６號,121.1735001,24.91124535,C,巷弄長照站,0936-923067,80017360@mail.tycg.gov.tw,陶其瑞,20191231 18:11:25
桃園市大溪區中興社區發展協會,桃園市,大溪區,桃園市大溪區中新里16鄰大鶯路1450巷26號,121.3165054,24.92902756,C,巷弄長照站,0960-638268,maiaaa2003@yahoo.com.tw,張傳,20210127 16:12:53
擁晴居家職能治療所,桃園市,中壢區,桃園市中壢區興農路80號3樓B室,121.2569275,24.97328377,B,專業照護服務,0918-291491,yongqing4522618@gmail.com,李幸樺,20230203 10:48:06
高揚威家醫科診所,桃園市,復興區,桃園市復興區忠孝路32號,121.3515778,24.81482887,B,居家失能個案家庭醫師照護服務,03-3822839,alicewang19891030@gmail.com,高揚威,20230720 13:07:47
高揚威家醫科診所,桃園市,復興區,桃園市復興區忠孝路32號,121.3515778,24.81482887,B,專業照護服務,03-3822839,alicewang19891030@gmail.com,高揚威,20230203 10:58:07
桃園市龍潭區上華里辦公處,桃園市,龍潭區,桃園市龍潭區上華里大順路209號,121.2178192,24.8507576,C,巷弄長照站,03-4703681,lungrr@hotmail.com,龍畇慈,20210127 17:02:59
桃園市平鎮區守望相助推廣協會,桃園市,平鎮區,桃園市平鎮區新勢里新德街9號,121.2168198,24.94801331,C,巷弄長照站,03-49306070933080683,h0933080683@yahoo.com.tw,范勝郎,20210127 18:01:50
國軍退除役官兵輔導委員會桃園榮譽國民之家附設悅來社區長照機構,桃園市,八德區,桃園市八德區大信里興豐路1217號,121.3083572,24.93862343,B,喘息服務,03-3681140分機370、371林秦玲,vhtyu0129@mail5.vac.gov.tw,陳平,20230118 16:07:43
財團法人桃園市私立國宏老人長期照顧中心(養護型),桃園市,平鎮區,桃園市平鎮區北貴里關爺東路19-5號,121.2206116,24.9292984,B,喘息服務,03-4582977,chang7716@gmail.com,吳黃玉英,20230822 08:28:09
福安居家物理治療所,桃園市,八德區,桃園市八德區樹仁三街601號1樓,121.3095551,24.97520638,B,專業照護服務,0965-667316,tommy830316@gmail.com,朱曉英,20230207 07:25:32
世豪小客車租賃有限公司,桃園市,桃園區,桃園市桃園區永安路223號3樓,121.3035049,24.99825668,B,交通接送服務,03-331-6367,peggyhuang6924@gmail.com,舒茂松,20220609 14:14:56
姜博文診所楊梅區,桃園市,楊梅區,桃園市楊梅區永美路335號2樓,121.1081314,24.91166115,A,個案管理服務,03-4826251,4826241@gmail.com,姜博文,20230125 19:44:09
桃園市私立福安居家長照機構,桃園市,大園區,桃園市大園區南港里大觀路1156巷6弄28號六樓之3,121.1585999,25.0556736,B,居家服務,033-868-700,tommy830316@gmail.com,陳昱全,20230201 16:24:07
桃園市龍潭區衛生所附設居家護理所,桃園市,龍潭區,桃園市龍潭區中正路210號2樓,121.2165298,24.86404419,B,專業照護服務,,10031386@mail.tycg.gov.tw,李桂芬,20230220 14:38:26
桃園市復興區衛生所,桃園市,復興區,桃園市復興區澤仁里中正路25號,121.3509827,24.81507111,B,居家失能個案家庭醫師照護服務,03-3822325,10029778@mail.tycg.gov.tw,林德文,20230720 13:21:30
福樂居家物理治療所,桃園市,平鎮區,桃園市平鎮區文化街236巷5號1樓,121.1855545,24.94808769,B,專業照護服務,0928-631872,fufupt@gmail.com,羅苡綾,20230220 16:45:15
桃園市私立惜老社區長照機構,桃園市,楊梅區,桃園市楊梅區瑞坪里瑞溪路二段156號2樓,121.1817169,24.90903091,B,日間照顧服務,03-4817779,ivy08206@gmail.com,陳佳瑩,20201201 18:05:07
桃園市私立雲隼居家長照機構,桃園市,楊梅區,桃園市楊梅區中山里中山北路一段319號,121.1573563,24.90837669,B,營養餐飲服務,034-881-300,yunpp.ltcc@gmail.com,李鈺堂,20210107 14:30:42
桃園市私立旭登居家式服務類長期照顧服務機構,桃園市,八德區,桃園市八德區大強里樹仁三街601號3樓,121.3095551,24.97520638,B,到宅沐浴車服務,03-2181190,rr0329@yahoo.com.tw,李昆璋,20201209 13:10:05
桃園市私立旭登居家式服務類長期照顧服務機構,桃園市,八德區,桃園市八德區大強里樹仁三街601號3樓,121.3095551,24.97520638,B,喘息服務,03-2181190,rr0329@yahoo.com.tw,李昆璋,20220302 11:51:13
桃園市私立宜適康居家長照機構,桃園市,平鎮區,桃園市平鎮區平興里桃園市平鎮區平興里延平路二段350之3號1樓,121.2073669,24.94401169,B,居家服務,032-757-872,in851@usc.edu,林峻?,20230201 16:06:41
財團法人桃園市私立怡德老人長期照顧中心(養護型)附設桃園市私立怡德綜合長照機構,桃園市,桃園區,桃園市桃園區西門里005鄰和興街17號,121.3068466,24.99479294,B,喘息服務,03-3373488,wg27520@yahoo.com.tw,林哲弘,20230223 09:19:41
博善健康股份有限公司附設桃園市私立博樂居家長照機構,桃園市,桃園區,桃園市桃園區永安路445號,121.2976608,25.00242805,B,喘息服務,03-216-0026,boshan052021@gmail.com,陳諺弘,20230223 09:41:39
金色年代長照社團法人附設桃園市私立天慈綜合長照機構,桃園市,龍潭區,桃園市龍潭區中山里010鄰北龍路311巷35弄20號1樓,121.2185898,24.86953926,B,日間照顧服務,03-4802022,daycare01@tcmg.com.tw,徐向謙,20230201 10:30:33
恩典文化健康站,桃園市,大溪區,桃園市大溪區復興路2號7樓,121.288826,24.88062668,C,巷弄長照站,0980-685733,10019341@mail.tycg.gov.tw,潘玉雯,20200417 19:02:34
桃園市大園區埔心社區發展協會,桃園市,大園區,桃園市大園區埔心里中正東路1段671巷23號,121.2084885,25.05993462,C,巷弄長照站,0933-104386,wang3815295@gmail.com,王麗梅,20210127 16:11:43
桃園市楊梅區瑞原社區發展協會,桃園市,楊梅區,桃園市楊梅區瑞原里民豐路506號,121.1119003,24.92951202,B,喘息服務,03-4728951,muhshan@ms79.hinet.net,葉國桂,20201228 11:04:22
財團法人桃園市私立怡德老人長期照顧中心(養護型)附設桃園市私立中壢新明社區長照機構,桃園市,中壢區,桃園市中壢區舊明里008鄰明德路60號3樓,121.2161484,24.95632172,B,喘息服務,03-3373488,qwert741753@gmail.com,林哲弘,20230118 16:50:34
桃園市蘆竹區山腳社區發展協會,桃園市,蘆竹區,桃園市蘆竹區山腳里南山路三段357巷10號,121.2861404,25.08685303,C,巷弄長照站,0966-841793,lichegn1123@yahoo.com.tw,戴鉑釗,20210128 10:13:31
歡喜學堂推廣協會附設桃園市私立歡喜到宅居家長照機構,桃園市,蘆竹區,桃園市蘆竹區羊稠里中山路12號2樓,121.3015137,25.05085182,B,居家服務,03-3222606,happycare3222606@gmail.com,吳忠泰,20220114 09:33:51
桃園市蘆竹區內厝社區發展協會,桃園市,蘆竹區,桃園市蘆竹區內厝里南山路2段394巷67號,121.2872238,25.07135582,C,巷弄長照站,0936-833886,tao34010@gmail.com,游登財,20210128 10:14:41
長榮健康長照社團法人附設桃園市私立榮安居家長照機構,桃園市,中壢區,桃園市中壢區自治里環中東路106巷3弄35號,121.2576675,24.96469688,B,居家服務,03-4515286,ronganltci@gmail.com,謝麗玲,20230201 16:02:24
桃園市大園區橫峰社區發展協會,桃園市,大園區,桃園市大園區橫峰里中山南路二段25鄰435號,121.2127991,25.02934647,C,巷弄長照站,0922-713-143,h810285639@gmail.com,羅志全,20210127 17:57:22
桃園市龍潭區佳安社區發展協會,桃園市,龍潭區,桃園市龍潭區佳安里中正路佳安段403號,121.2442703,24.84897041,C,巷弄長照站,03-4713017,fash403@yahoo.com.tw,江李桂春,20210127 17:15:03
財團法人中華民國佛教慈濟慈善事業基金會八德區,桃園市,八德區,桃園市八德區興豐路1139號,121.3046036,24.93609238,A,個案管理服務,0982-041-736,ltc000181@tzuchi.org.tw,釋證嚴,20230125 19:40:28
財團法人桃園市私立國宏老人長期照顧中心(養護型),桃園市,平鎮區,桃園市平鎮區北貴里關爺東路19-5號,121.2206116,24.9292984,B,喘息服務,03-4582977,chang7716@gmail.com,吳黃玉英,20201228 11:06:34
桃園市私立慈照居家式服務類長期照顧服務機構,桃園市,桃園區,桃園市桃園區東門里中山東路21號4樓B2室,121.3139191,24.99581528,B,居家服務,03-3391181,3391181@gmail.com,曹昌敏,20230201 17:01:02
社團法人台灣樂活服務發展協會(執信據點),桃園市,中壢區,桃園市中壢區林森里執信一街167號,121.2271347,24.94496155,C,巷弄長照站,0982-985298,jinyuhe0327@gmail.com,林淑萍,20210127 15:29:00
大慶護理之家,桃園市,龜山區,桃園市龜山區大華里文化七路182巷9號,121.3678589,25.05110931,B,喘息服務,03-3960035,home9050@hotmail.com,許純毓,20220425 08:34:47
社團法人中華民國紅十字會桃園市分會附設桃園市私立福喜緣社區長照機構,桃園市,楊梅區,桃園市楊梅區楊梅里大模街10號2樓,121.144455,24.91285133,B,小規模多機能服務,03-4855785,yuannjen@tyred.tw,劉志清,20230118 16:00:25
好厝邊長照有限公司附設桃園市私立好厝邊居家長照機構,桃園市,桃園區,桃園市桃園區文明里南華街60號8樓之1,121.3085403,24.99056244,B,喘息服務,0908-231-736,jamiekuan075@gmail.com,薛文翔,20230118 14:23:58
桃園市中壢區復華社區發展協會,桃園市,中壢區,桃園市中壢區復華里復華街188號2樓,121.2482529,24.97293091,C,巷弄長照站,0933-961373,hj48514@yahoo.com.tw,曾榮煥,20210127 18:01:19
桃園市私立厚德老人長期照顧中心(養護型),桃園市,龍潭區,桃園市龍潭區高原里高原路239號(1-2F),121.2011719,24.83269691,B,喘息服務,03-4718866,dfhoude@yahoo.com.tw,謝孟君,20230118 15:18:35
中壢長榮醫院中壢區,桃園市,中壢區,桃園市中壢區環中東路150號,121.1658096,24.9804554,A,個案管理服務,03-4631230,sw@mail.egh.com.tw,謝麗玲,20230125 19:44:47
社團法人中華民國士林靈糧堂社會福利協會附設桃園市私立龜山陸光社區長照機構,桃園市,龜山區,桃園市龜山區陸光里029鄰自強西路240號1樓,121.331749,24.99531937,B,喘息服務,03-2132050,ksdaycare@slsc.org.tw,劉群茂,20230426 13:38:08
社團法人中華民國士林靈糧堂社會福利協會附設桃園市私立龜山陸光社區長照機構,桃園市,龜山區,桃園市龜山區陸光里029鄰自強西路240號1樓,121.331749,24.99531937,B,交通接送服務,03-2132050,ksdaycare@slsc.org.tw,劉群茂,20230426 16:05:57
桃園市私立家慈居家長照機構(八德元福),桃園市,八德區,桃園市八德區福興里長興二路56號,121.2801056,24.93388176,B,居家服務,03-3909835,fu3651901@gmail.com,張建忠,20230201 16:12:07
桃園市龍潭區中山社區發展協會,桃園市,龍潭區,桃園市龍潭區中山里華南路3號,121.1997604,24.84583664,C,巷弄長照站,0936-158225,s4792242@hotmail.com,黃玉春,20210127 17:04:27
桃園市私立惜老社區長照機構,桃園市,楊梅區,桃園市楊梅區瑞坪里瑞溪路二段156號2樓,121.1817169,24.90903091,B,喘息服務,03-4817779,ivy08206@gmail.com,陳佳瑩,20230118 16:00:25
懷寧護理之家,桃園市,中壢區,桃園市中壢區月眉里崇德三路250號1至4樓、252號1至4樓,121.1870956,24.99055862,B,喘息服務,03-4080143,v0989326287@gmail.com,楊少如,20230118 15:33:51
致樂居家物理治療所,桃園市,桃園區,桃園市桃園區仁愛路87巷1號4F之3,121.305542,24.96800804,B,專業照護服務(CC01),03-3700102,chun6354@gmail.com,林怡君,20230802 17:19:14
桃園市平鎮區平鎮社區發展協會,桃園市,平鎮區,桃園市平鎮區平鎮里南平路2段516巷(進去800公尺),121.1973648,24.92713547,C,巷弄長照站,0935-756-036,chuang4043@gmail.com,邱創寶,20210127 18:02:24
桃園市私立明心社區長照機構,桃園市,桃園區,桃園市桃園區龍鳳里國豐三街77-1號,121.2791748,24.9895153,B,日間照顧服務,03-3600773,rknowyou2020@gmail.com,薛明介,20230118 17:05:17
職物語居家職能治療所,桃園市,蘆竹區,桃園市蘆竹區南崁路2段83號18樓之3(1826室),121.2781143,25.05712509,B,專業照護服務(CC01),0913-820528,ops1080322@gmail.com,李柏毅,20230802 17:19:14
桃園市私立明心社區長照機構,桃園市,桃園區,桃園市桃園區龍鳳里國豐三街77-1號,121.2791748,24.9895153,B,喘息服務,03-3600773,rknowyou2020@gmail.com,薛明介,20230118 17:05:17
桃園市私立龍德社區長照機構,桃園市,新屋區,桃園市新屋區新屋里中華路214號,121.4857864,25.01468468,B,喘息服務,03-4970361,2022longde@gmail.com,彭振亮,20230118 17:24:39
平鎮佳醫護理之家,桃園市,平鎮區,桃園市平鎮區新安里東光路23巷18號,121.2541351,24.91793633,B,喘息服務,03-4607277,shosho131420@yahoo.com.tw,黃月秀,20230220 16:11:34
怡仁綜合醫院,桃園市,楊梅區,桃園市楊梅區楊新北路三二一巷三０號,121.155426,24.91695023,B,居家失能個案家庭醫師照護服務,03 4855566,n9343@yeezen.com,林承志,20230720 14:50:19
桃園市德強愛心關懷協會,桃園市,八德區,桃園市八德區大強里東勇街400巷57號,121.3113861,24.96548271,C,巷弄長照站,033-626-557,chunhuang888@yahoo.com.tw,陳春煌,20210127 17:56:02
全齡居家職能治療所,桃園市,桃園區,桃園市桃園區愛三街186號5樓,121.2888947,25.00550652,B,專業照護服務,0989-340673,allagetraining@gmail.com,阮慧琪,20230110 16:36:14
桃園市龍潭區烏林社區發展協會,桃園市,龍潭區,桃園市龍潭區烏林里中豐路401號,121.211525,24.88090134,C,巷弄長照站,0953-001255,maan6882@yahoo.com.tw,曾盛佳,20210127 16:58:05
惠好居家職能治療所,桃園市,楊梅區,桃園市楊梅區校前路254巷55號10樓,121.1485214,24.90137863,B,專業照護服務(CC01),0936-999246,tenglendon@gmail.com,鄧金春,20230802 17:19:14
大慶護理之家,桃園市,龜山區,桃園市龜山區大華里文化七路182巷9號,121.3678589,25.05110931,B,喘息服務,03-3960035,home9050@hotmail.com,許純毓,20230110 13:34:14
桃園市大園區和平社區發展協會,桃園市,大園區,桃園市大園區大園里平南路77巷9號,121.174118,25.04447556,C,巷弄長照站,03-3863795,tallmeifun@yahoo.com,梁垠錄,20210127 17:08:30
桃園市私立慈慧老人長期照顧中心（養護型）,桃園市,龜山區,桃園市龜山區萬壽路二段345號,121.356369,25.00121307,B,喘息服務,03-3194922,siam5039@gmail.com,鍾鳳連,20230905 11:29:47
桃園市龍潭區上林社區發展協會,桃園市,龍潭區,桃園市龍潭區上林里金龍路112巷51號,121.2128601,24.85583687,C,巷弄長照站,0933-967589,hfan2110@ms17.hinet.net,黃承藩,20210128 10:04:06
中華民國崇善社會福利協會,桃園市,復興區,桃園市復興區澤仁里忠孝路84號,121.3515396,24.81566238,C,巷弄長照站,0963-786360,ccchungdaw@mohw.gov.tw,待補,20190903 09:30:37
有限責任桃園市宜興照顧服務勞動合作社附設桃園市私立宜興居家長照機構,桃園市,八德區,桃園市八德區大智里25鄰大智路99號4樓,121.2975235,24.96430016,B,喘息服務,03-3631977,yixingcare@gmail.com,吳建宏,20230529 10:49:48
財團法人桃園市私立怡德老人長期照顧中心(養護型)附設桃園市私立怡德綜合長照機構,桃園市,桃園區,桃園市桃園區西門里005鄰和興街17號,121.3068466,24.99479294,B,居家服務,03-3373488,wg27520@yahoo.com.tw,林哲弘,20230118 16:39:26
護寧居家護理所,桃園市,桃園區,桃園市桃園區中埔二街80號5樓,121.2963181,25.01132965,B,專業照護服務,03-3413355,healthnurse_hn@yahoo.com.tw,朱麗雲,20230221 11:28:27
晴天居家護理所,桃園市,平鎮區,桃園市平鎮區中豐路110號2樓,121.1860657,24.99725914,B,喘息服務,0935-800-983,sd.homecare429@gmail.com,王曉倩,20230406 10:23:54
社團法人中華雲鵬展弘協會,桃園市,楊梅區,桃園市楊梅區中山里中山北路一段319號,121.1572952,24.90833855,B,營養餐飲服務,03-4881300,yumnpp.ltcc@gmail.com,李鈺璽,20201231 22:12:15
聯恩診所,桃園市,平鎮區,桃園市平鎮區平南里開封街88號,121.2042618,24.91104126,C,巷弄長照站,034-395-633,minalu496@gmail.com,洪國泰,20230315 17:36:16
拾全拾美樂齡事業有限公司附設桃園市私立潛龍綜合長照機構,桃園市,龍潭區,桃園市龍潭區烏樹林6鄰中豐路640號之2,121.212616,24.88698959,B,專業照護服務,03-4990906,Perfect9068@gmail.com,王運昌,20230220 14:32:50
活力診所,桃園市,中壢區,桃園市中壢區山東里莊敬路160號2樓,121.2574081,24.96802521,B,居家失能個案家庭醫師照護服務,03-4826241#323,4826241@gmail.com,張聖暉,20230720 13:17:21
桃園市八德區竹霄社區發展協會,桃園市,八德區,桃園市八德區霄裡里廟前1-1號,120.6134033,24.11668968,C,巷弄長照站,0932-933083,monica@abtek.com.tw,鄧旭東,20210201 16:00:12
家馨居家護理所,桃園市,龜山區,桃園市龜山區復興一路230號5樓之3,121.365036,25.05740547,B,專業照護服務,03-2114920,ru8230@hotmail.com,楊淑宜,20230220 14:29:58
桃園市桃園區寶慶里辦公處,桃園市,桃園區,桃園市桃園區寶慶里同德五街281-295號(交誼廳)汝志超,121.2955246,25.01255798,C,巷弄長照站,0933-951708,cichuan@ms35.hinet.net,汝志超,20210128 10:42:48
桃園市私立幸福家居家長照機構,桃園市,平鎮區,桃園市平鎮區金星里大連街43號2樓,121.2069397,24.91445732,B,喘息服務,0931-067-560,blessedhome0816@gmail.com,葉日隆,20230118 14:44:16
好厝邊長照有限公司附設桃園市私立好厝邊居家長照機構,桃園市,桃園區,桃園市桃園區文明里南華街60號8樓之1,121.3085403,24.99056244,B,居家服務,0908-231-736,jamiekuan075@gmail.com,薛文翔,20230201 16:16:10
桃園市私立關懷居家長照機構,桃園市,中壢區,桃園市中壢區過嶺里松信路109號1樓,121.1649933,24.96212578,B,居家服務,03-4905753,care4905753@gmail.com,許良怡,20230201 16:10:43
桃園市中壢區華愛里辦公處,桃園市,中壢區,桃園市中壢區華愛里華勛街37巷11號1樓,121.2578812,24.95181274,C,巷弄長照站,0932-096946,dora10660604@gmail.com,陳能娟,20210128 10:39:23
中華光明之家共生家園(復興據點),桃園市,中壢區,桃園市中壢區復興里長樂街39號,121.2495422,24.97842598,C,巷弄長照站,0932-107-268,80012433@mail.tycg.gov.tw,李素蘭,20191231 14:05:59
活力診所,桃園市,中壢區,桃園市中壢區山東里莊敬路160號2樓,121.2574081,24.96802521,C,巷弄長照站,03-4826241#323,4826241@gmail.com,張聖暉,20210128 10:58:48
正興診所,桃園市,桃園區,桃園市桃園區桃鶯路452號,121.3241119,24.97417259,B,居家失能個案家庭醫師照護服務,03-3635453,s220232@yahoo.com,陳明仁,20230720 13:32:36
桃園市觀音區白玉社區發展會,桃園市,觀音區,桃園市觀音區白玉里玉林路1段180號,121.0877838,25.04044914,C,巷弄長照站,03-4734160,kuang.rong@hotmail.com,張阿琤,20210127 17:17:39
財團法人桃園市私立國宏老人長期照顧中心(養護型),桃園市,平鎮區,桃園市平鎮區北貴里關爺東路19-5號,121.2206116,24.9292984,C,巷弄長照站,03-4582977,chang7716@gmail.com,吳黃玉英,20210128 10:55:16
黃文昌診所,桃園市,中壢區,桃園市中壢區龍岡路二段123號,121.2295303,24.94515991,B,居家失能個案家庭醫師照護服務,03-2841928,coma@mail2000.com.tw,黃文昌,20230720 15:06:40
桃園市中壢區中山里辦公處,桃園市,中壢區,桃園市中壢區中山里榮民路396號,121.2616196,24.96172905,C,巷弄長照站,03-4632760,wwyww6666@yahoo.com.tw,王寧政,20210127 16:39:15
桃園市觀音區廣福社區發展協會,桃園市,觀音區,桃園市觀音區廣福里福山路二段403巷6號,121.15271,25.0232563,C,巷弄長照站,0932-282589,qwerty56@kimo.com,王文進,20210127 17:16:50
桃園市新屋區下埔社區發展協會,桃園市,新屋區,桃園市新屋區下埔里10-3號,121.2047043,24.85390472,C,巷弄長照站,0937-128686,proh99@ms51.hinet.net,黃志材,20210127 17:11:50
社團法人桃園市愛鄰舍協會(新明據點),桃園市,中壢區,桃園市中壢區五福里中正路447號4樓,121.2141113,24.95651627,B,喘息服務,,sphyae683@hotmail.com,林雄堅,20190701 16:26:36
桃園市平鎮區復興里辦公處,桃園市,平鎮區,桃園市平鎮區復興里復興街55號,121.2049561,24.95422745,C,巷弄長照站,0919-992802,kungwei1102@mail2000.com.tw,彭恭偉,20190816 15:07:46
龍和診所,桃園市,桃園區,桃園市桃園區龍安街153號,121.2792816,24.991539,B,居家失能個案家庭醫師照護服務,03-3786145,yujaogjr@gmail.com,楊紹輝,20230720 13:22:08
桃園市私立幸福家居家長照機構,桃園市,平鎮區,桃園市平鎮區金星里大連街43號2樓,121.2069397,24.91445732,B,居家服務,0931-067-560,blessedhome0816@gmail.com,葉日隆,20230201 16:23:36
桃園市龜山區衛生所,桃園市,龜山區,桃園市龜山區自強南路103號,121.3384094,24.99147606,B,專業照護服務,03-3299645,10021351@mail.tycg.gov.tw,陳建安,20201230 11:55:49
龍潭敏盛醫院,桃園市,龍潭區,桃園市龍潭區中豐路168號,121.2136765,24.8750267,B,專業照護服務,03-4794151,P001872@e-ms.com.tw,梁植池,20230301 10:49:28
桃園市大園區海口社區發展協會,桃園市,大園區,桃園市大園區海口里漁港路15號,121.2421875,25.10837173,C,巷弄長照站,0963-074615,haikou87@outlook.com,呂定麟,20210127 16:11:22
財團法人伊甸社會福利基金會桃園市分事務所,桃園市,復興區,桃園市復興區羅浮里4鄰92號,121.367012,24.79517174,C,巷弄長照站,03-3822300,ccchungdaw@mohw.gov.tw,待補,20190903 09:07:45
寬福護理之家蘆竹區,桃園市,桃園區,桃園市桃園區中山路1288巷7號,121.2751236,24.98173714,A,個案管理服務,03-2170092,canfullaunit@gmail.com,周矢綾,20230125 19:26:43
高揚威家醫科診所,桃園市,復興區,桃園市復興區忠孝路32號,121.3515778,24.81482887,A,個案管理服務,03-3822839,alicewang19891030@gmail.com,高揚威,20230125 19:42:26
財團法人臺北市阿瑪社會福利慈善事業基金會(四維據點),桃園市,楊梅區,桃園市楊梅區永寧里四維路118號,121.1811447,24.91302872,C,巷弄長照站,0982-985298,rebecca401010@gmail.com,廖淑彩,20210127 15:11:43
大溪區農會附設護理之家,桃園市,大溪區,桃園市大溪區一德里中華路343號3樓,121.2918015,24.87620163,B,喘息服務,03-3879688,nh0316@yahoo.com.tw,陳玉娟,20230207 07:37:47
金色年代長照社團法人附設桃園市私立金色年華綜合長照機構,桃園市,中壢區,桃園市中壢區普義里立和路58巷66號1樓、68號1至4樓、70號1樓,121.2314148,24.95827866,B,日間照顧服務,03-4623626,med01@tcmg.com.tw,徐向謙,20230118 16:53:01
桃園市平鎮區新榮里辦公處,桃園市,平鎮區,桃園市平鎮區高雙里振興西路112號,121.2143097,24.94585991,C,巷弄長照站,03-4929471,a0932103373@yahoo.com.tw,鄧秀真,20210127 16:40:04
桃園市觀音區樹林社區發展協會,桃園市,觀音區,桃園市觀音區樹林里泰安街209號,121.1231613,25.05068207,C,巷弄長照站,03-4834817,iting166@yahoo.com.tw,袁進益,20210127 17:07:09
天成醫療社團法人天晟醫院中壢區,桃園市,中壢區,桃園市中壢區延平路219號,121.1785126,24.96022606,A,個案管理服務,03-4621952,tcmgjt01@gmail.com, 鄭貴麟,20230125 19:43:14
桃園市觀音區大同里辦公處,桃園市,觀音區,桃園市觀音區大同里新富路一段595號,121.1374054,25.00338364,C,巷弄長照站,03-4989839,h631600@kimo.com.tw,劉秀華,20191231 17:16:49
中華民國紅十字會桃園市分會楊梅區,桃園市,楊梅區,桃園市楊梅區大模街10號2樓,121.144455,24.91285133,A,個案管理服務,03-4855785,tyred3393531@gmail.com,劉志清,20230125 19:35:37
桃園市私立弘成居家長照機構,桃園市,桃園區,桃園市桃園區中山里中平路98號5樓之1,121.2926254,24.98759842,B,居家服務,03-2205627,honchen1002@gmail.com,陳妤榛,20230201 16:22:15
中華民國紅十字會桃園市分會社團法人附設桃園市私立紅十字居家式服務類長期照顧服務機構,桃園市,桃園區,桃園市桃園區泰山里中山路507巷12號6樓,121.2973785,24.9906826,B,喘息服務,03-3327656,ty.red@msa.hinet.net,劉志清,20230221 16:39:47
全能居家職能治療所,桃園市,平鎮區,桃園市平鎮區東社里15鄰社子3之21號2樓,121.1821136,24.96069336,B,專業照護服務,03-4609646,linhunglin1011@gmail.com,林宏霖,20230220 13:42:54
聖傑診所,桃園市,八德區,桃園市八德區桃鶯路85號,121.3278809,24.97044945,B,居家失能個案家庭醫師照護服務,03-3665155,bread3662408@gmail.com,林永庚,20230720 13:34:48
桃園市私立大溪老人長期照顧中心(養護型),桃園市,大溪區,桃園市大溪區一心里慈湖路85號4樓,121.1939468,25.049263,B,喘息服務,,dasi8543870119@gmail.com,謝鴻倫,20230328 16:21:27
桃園市私立睿齡居家長照機構,桃園市,桃園區,桃園市桃園區三民路二段286之3號4樓,121.3095932,24.99971771,B,喘息服務,03-3330912,ltc87334546@gmail.com,楊美雅,20230223 09:17:19
陽明醫院附設護理之家,桃園市,平鎮區,桃園市平鎮區義興里延平路二段56號3樓,121.2123108,24.95008087,B,喘息服務,03-4929929,n0936848505@yahoo.com.tw,袁淑芬,20230505 11:08:03
財團法人台灣基督長老教會泰雅爾中會義興教會,桃園市,復興區,桃園市復興區義盛里義興9鄰7號,121.3651123,24.77852821,C,巷弄長照站,03-3821018,10019341@mail.tycg.gov.tw,王曉貞,20190912 11:55:38
金色年代長照社團法人附設桃園市私立天慈綜合長照機構,桃園市,龍潭區,桃園市龍潭區中山里010鄰北龍路311巷35弄20號1樓,121.2185898,24.86953926,B,喘息服務,03-4802022,daycare01@tcmg.com.tw,徐向謙,20230201 10:30:33
社團法人桃園市社會服務關懷協會附設桃園市私立愈安社區式服務類長期照顧服務機構,桃園市,龜山區,桃園市龜山區新路里陸光路55號1樓,121.3328552,24.99484634,B,日間照顧服務,03-3181946,yujiannursing@gmail.com,賴秋梅,20230222 12:02:59
桃園市中壢區忠義里辦公處,桃園市,中壢區,桃園市中壢區忠義里忠義路69-1號,121.2392197,24.96203995,C,巷弄長照站,0937-404829,ray.jung999@gmail.com,簡秋榮,20210128 10:38:50
拾全拾美樂齡事業有限公司附設桃園市私立潛龍綜合長照機構,桃園市,龍潭區,桃園市龍潭區烏樹林6鄰中豐路640號之2,121.212616,24.88698959,B,居家服務,03-4990906,Perfect9068@gmail.com,王運昌,20230201 10:31:01
桃園市平鎮區平興里辦公處,桃園市,平鎮區,桃園市平鎮區平興里廣泰路85號,121.2045822,24.94553947,C,巷弄長照站,03-4014415,104138@mail.tycg.gov.tw,陳金容,20210129 17:50:25
敬一銀齡事業股份有限公司附設桃園市私立寶平綜合長照機構,桃園市,桃園區,桃園市桃園區寶安里南平路598號1樓,121.2918625,25.01548386,B,居家服務,03-3017188,judy@genuinecare.com.tw,楊宜菁,20230118 17:16:55
社團法人台灣樂活服務發展協會(宣聖堂據點),桃園市,楊梅區,桃園市楊梅區紅梅里校前路32巷25-1號1樓,121.1452713,24.90494347,B,喘息服務,0982-985298,rebecca401010@gmail.com,馬瑞辰,20190626 14:06:34
瑞之盟居家語言治療所,桃園市,桃園區,桃園市桃園區三民路三段28-1號3樓-1,121.3065414,24.99762726,B,專業照護服務,0907-010-671,melanie01201985@gmail.com,王星懿,20230221 11:52:03
桃園市私立龍祥老人長期照顧中心(長期照護型),桃園市,龍潭區,桃園市龍潭區高揚南路97-1號,121.2112274,24.83673286,B,喘息服務,03-4718976,ls4718976@gmail.com,賴庭槐,20210322 16:43:05
承源資業股份有限公司附設桃園市私立聯承居家長照機構,桃園市,八德區,桃園市八德區興仁里中興街8號,121.2832489,24.92723465,B,喘息服務,03-3683328,isabel@thn-buurtzorg.com,張宏庠,20230327 11:37:24
桃園市蘆竹區南興里辦公處,桃園市,蘆竹區,桃園市蘆竹區南興里南福街167號,121.2932358,25.03899384,C,巷弄長照站,0915-100-859,cwt40941@gmail.com,江惠珍,20210201 16:14:44
桃園市平鎮區東勢社區發展協會,桃園市,平鎮區,桃園市平鎮區東勢里金陵路五段55號,121.2314682,24.91046715,C,巷弄長照站,03-4500999,l37117@yahoo.com.tw,游明臺,20210127 18:02:07
桃園市桃園區南門社區發展協會,桃園市,桃園區,桃園市桃園區南門里三民路三段268號,121.3059692,24.99091911,C,巷弄長照站,0918-686979,chang470903@gmail.com,吳宏泰,20191231 15:41:54
智浩企業有限公司附設桃園市私立瑞欣綜合長照機構,桃園市,桃園區,桃園市桃園區龍鳳里龍鳳三街65巷38號,121.2798004,24.98606873,B,日間照顧服務,(03)369-6882,rueishindaycare@gmail.com,陳昱全,20230118 17:04:12
智浩企業有限公司附設桃園市私立瑞欣綜合長照機構,桃園市,桃園區,桃園市桃園區龍鳳里龍鳳三街65巷38號,121.2798004,24.98606873,B,喘息服務,(03)369-6882,rueishindaycare@gmail.com,陳昱全,20230118 14:34:15
晴天居家護理所,桃園市,平鎮區,桃園市平鎮區中豐路110號2樓,121.1860657,24.99725914,B,專業照護服務,0935-800-983,sd.homecare429@gmail.com,王曉倩,20230406 10:23:40
桃園市私立雲鵬老人長期照顧中心(養護型),桃園市,楊梅區,桃園市楊梅區中山北路一段319號,121.1572952,24.90833855,B,喘息服務,03-4881300,yunpp.ltcc@gmail.com,李鈺堂,20230301 10:09:02
桃園市私立同安老人長期照顧中心(養護型),桃園市,桃園區,桃園市桃園區新埔七街101號1樓,121.3009872,25.02059174,B,喘息服務,03-3552546,tongn101@yahoo.com.tw,曾國銘,20230221 16:01:41
致樂居家物理治療所,桃園市,桃園區,桃園市桃園區仁愛路87巷1號4F之3,121.305542,24.96800804,B,專業照護服務,03-3700102,chun6354@gmail.com,林怡君,20230221 11:42:32
惠好居家職能治療所,桃園市,楊梅區,桃園市楊梅區校前路254巷55號10樓,121.1485214,24.90137863,B,專業照護服務,0936-999246,tenglendon@gmail.com,鄧金春,20210303 16:42:20
桃園市私立祥育居家式服務類長期照顧服務機構,桃園市,桃園區,桃園市桃園區成功里中央街26號2樓,121.3176041,24.99581146,B,居家服務,03-3333623,shyang.yu1031@gmail.com,彭清湘,20230201 13:42:39
桃園市中路交流協會,桃園市,桃園區,桃園市桃園區中路里桃園市桃園區中路里中山路710號,121.2935028,24.99146461,C,巷弄長照站,0987-222-548,sales@forcom.com.tw,?麗芳,20210129 15:19:37
財團法人桃園市私立怡德老人長期照顧中心(養護型)附設桃園市私立怡德綜合長照機構,桃園市,桃園區,桃園市桃園區西門里005鄰和興街17號,121.3068466,24.99479294,B,日間照顧服務,03-3373488,wg27520@yahoo.com.tw,林哲弘,20230118 16:39:26
拾全拾美樂齡事業有限公司附設桃園市私立潛龍綜合長照機構,桃園市,龍潭區,桃園市龍潭區烏樹林6鄰中豐路640號之2,121.212616,24.88698959,B,交通接送服務,03-4990906,Perfect9068@gmail.com,王運昌,20230201 10:31:01
愛爾德長者事業有限公司附設桃園市私立喜大人東門社區長照機構,桃園市,桃園區,桃園市桃園區東山里安東街17號2樓,121.31633,24.99124718,B,喘息服務,03-3344062,dongmen@joyelder.org.tw,廖思琪,20230118 17:15:49
桃園市新屋區永安社區發展協會,桃園市,新屋區,桃園市新屋區新屋里保生路55號,121.0280457,24.98815537,C,巷弄長照站,0921-872361,g06172000@yahoo.com.tw,張順佳,20210127 17:11:34
廣元長照社團法人附設桃園市私立元德綜合長照機構,桃園市,桃園區,桃園市桃園區泰山里003鄰潮洲街78號1樓,121.2995758,24.98735619,B,日間照顧服務,03-3322049,maymayteski@yahoo.com.tw,黃晟恆,20230118 16:58:42
財團法人台灣省私立桃園仁愛之家,桃園市,楊梅區,桃園市楊梅區高榮里梅獅路539巷3號,121.1827087,24.9002037,B,喘息服務,03-4643385,tych.service@gmail.com,李建榮,20230117 11:18:45
宜杏居家護理所,桃園市,蘆竹區,桃園市蘆竹區忠孝西路169巷20之6號4樓,121.2899399,25.04007149,B,專業照護服務,,alina1105tw@gmail.com,陳美娟,20230407 11:37:49
惠好居家職能治療所,桃園市,楊梅區,桃園市楊梅區校前路254巷55號10樓,121.1485214,24.90137863,B,專業照護服務,0936-999246,tenglendon@gmail.com,鄧金春,20220209 09:03:41
桃園市私立安安居家長照機構,桃園市,中壢區,桃園市中壢區中央里延平路429號10樓之一,121.2245255,24.9586277,B,喘息服務,03-4265391,ananhomecare@gmail.com,蔣建宇,20230220 16:09:23
桃園市社區文化推廣協會,桃園市,桃園區,桃園市桃園區中埔里天台街一巷7號,121.289772,25.00784874,C,巷弄長照站,0910-910812,a0971248348@gmail.com,黃玉鑾,20210127 18:03:44
桃園市私立好馨情社區長照機構,桃園市,桃園區,桃園市桃園區同安里同安街431號,121.3012238,25.01895332,B,喘息服務,033-461-136,T3461136@hibox.biz,蔡政哲,20230118 17:18:26
億家安居家物理治療所,桃園市,桃園區,桃園市桃園區正康二街36號,121.2945557,24.99601555,B,專業照護服務,03-3363431,wholecarept@gmail.com,李?宇,20230221 11:46:37
世豪小客車租賃有限公司,桃園市,桃園區,桃園市桃園區永安路223號3樓,121.3035049,24.99825668,B,交通接送服務,03-331-6367,peggyhuang6924@gmail.com,舒茂松,20230203 10:39:46
職物語居家職能治療所,桃園市,蘆竹區,桃園市蘆竹區南崁路2段83號18樓之3(1826室),121.2781143,25.05712509,B,專業照護服務(CC01),0913-820528,ops1080322@gmail.com,李柏毅,20230802 17:19:14
桃園市觀音區觀音社區發展協會,桃園市,觀音區,桃園市觀音區觀音里中山路8號,121.0820313,25.03661346,C,巷弄長照站,03-4733519,aa01040608@gmail.com,葉澄淼,20210128 10:27:28
天成醫療社團法人附設桃園市私立金色年代綜合式服務類長期照顧服務機構,桃園市,中壢區,桃園市中壢區新街里006鄰延平路219號,121.227623,24.96177673,B,喘息服務,03-4620085,homecare01@tcmg.com.tw,徐慧伊,20230118 16:48:15
國軍桃園總醫院附設護理之家,桃園市,龍潭區,桃園市龍潭區九龍里中興路九龍段168號,121.2348251,24.87696838,B,喘息服務,03-4799595,nathan@aftygh.gov.tw,王姿婷,20230301 10:58:59
億家安居家物理治療所,桃園市,桃園區,桃園市桃園區正康二街36號,121.2945557,24.99601555,B,專業照護服務,03-3363431,wholecarept@gmail.com,李?宇,20220208 16:46:52
曦優居家護理所,桃園市,龜山區,桃園市龜山區光峰路千禧新城9號1樓,121.3635483,25.06034088,B,專業照護服務,03-2137588,ceonursing09@gmail.com,張佩雯,20230220 13:43:59
敏盛綜合醫院附設護理之家,桃園市,桃園區,桃園市桃園區西門里三民路三段106號6樓,121.3054276,24.99428749,B,喘息服務,03-3379340-620,babybottle2277@gmail.com,葉雅萍,20230221 15:39:50
有限責任桃園市宜興照顧服務勞動合作社附設桃園市私立宜興居家長照機構,桃園市,八德區,桃園市八德區大智里25鄰大智路99號4樓,121.2975235,24.96430016,B,居家服務,03-3631977,yixingcare@gmail.com,吳建宏,20230306 10:40:48
衛生福利部桃園醫院居家式服務類長期照顧服務機構,桃園市,桃園區,桃園市桃園區龍山里中山路1492號,121.2691879,24.97770309,B,居家服務,03-3699721,705001@mail.tygh.gov.tw,陳日昌,20230202 08:48:30
廣元長照社團法人附設桃園市私立元德綜合長照機構,桃園市,桃園區,桃園市桃園區泰山里003鄰潮洲街78號1樓,121.2995758,24.98735619,B,喘息服務,03-3322049,maymayteski@yahoo.com.tw,黃晟恆,20230221 16:35:59
桃園市龜山區長庚里辦公處,桃園市,龜山區,桃園市龜山區長庚里長庚醫護新村80號B1,121.3847656,25.05792618,C,巷弄長照站,0936-221-811,a411126@gmail.com,林俊源,20210128 10:49:29
桃園市私立大溪老人長期照顧中心(養護型),桃園市,大溪區,桃園市大溪區一心里慈湖路85號4樓,121.1939468,25.049263,B,喘息服務,,dasi8543870119@gmail.com,謝鴻倫,20230118 14:53:35
天成醫院楊梅區,桃園市,楊梅區,桃園市楊梅區中山北路1段356號,121.1666641,24.90822411,A,個案管理服務,03-4782350,aunit.tcmg01@gmail.com,徐萬興,20230125 19:47:19
良祺復健科診所,桃園市,桃園區,桃園市桃園區南平路516號2樓,121.2937469,25.01633453,B,專業照護服務,03-3467890,dblinwang@yahoo.com,陳祺賢,20230224 09:39:43
國軍退除役官兵輔導委員會桃園榮譽國民之家附設悅來社區長照機構,桃園市,八德區,桃園市八德區大信里興豐路1217號,121.3083572,24.93862343,B,日間照顧服務,03-3681140分機370、371林秦玲,vhtyu0129@mail5.vac.gov.tw,陳平,20230118 16:07:43
橙莘健康生活有限公司附設桃園市私立橙莘居家長照機構,桃園市,蘆竹區,桃園市蘆竹區羊稠里中山路72號4樓,121.299202,25.05477333,B,居家服務,03-2221256,chengsin2021@gmail.com,高子權,20230201 17:15:00
桃園市私立長祐老人長期照顧中心(養護型),桃園市,中壢區,桃園市中壢區自治里環中東路188、190號二樓,121.2572861,24.96393204,B,喘息服務,03-4356337,hf5755.shen@msa.hinet.net,沈益平,20230207 07:26:01
桃園市私立祥育居家式服務類長期照顧服務機構,桃園市,桃園區,桃園市桃園區成功里中央街26號2樓,121.3176041,24.99581146,B,喘息服務,03-3333623,shyang.yu1031@gmail.com,彭清湘,20230220 14:46:10
桃園市蘆竹區吉祥社區發展協會,桃園市,蘆竹區,桃園市蘆竹區吉祥里吉林路105號,121.2986984,25.04971313,C,巷弄長照站,0939-264626,jamescyu@ms48.hinet.net,游建忠,20210128 10:16:26
大園敏盛醫院附設居家護理所,桃園市,大園區,桃園市大園區華中街2號,121.1959534,25.06231117,B,專業照護服務,03-3867521,n0117151@gmail.com,許月香,20230301 10:59:49
桃園區文化健康站,桃園市,桃園區,桃園市桃園區縣府路1號,121.3009872,24.99305725,C,巷弄長照站,03-3322101#6686,10019341@mail.tycg.gov.tw,溫彧青,20200417 16:48:52
愛爾德長者事業有限公司附設桃園市私立喜大人冠怡社區長照機構,桃園市,蘆竹區,桃園市蘆竹區濱海里海山路14號2樓,121.2862015,25.08615112,B,喘息服務,03-287-3224,jayg1981111108@gmail.com,廖思琪,20230118 17:03:10
博善健康股份有限公司附設桃園市私立博樂居家長照機構,桃園市,桃園區,桃園市桃園區永安路445號,121.2976608,25.00242805,B,居家服務,03-216-0026,boshan052021@gmail.com,陳諺弘,20230201 17:16:10
桃園市私立茂庭社區長照機構,桃園市,桃園區,桃園市桃園區莊敬里中正路1224巷1-1號2樓,121.297699,25.0189209,B,喘息服務,03-3571210分機15,maotingting99@gmail.com,李麗珠,20230118 17:01:42
懷寧護理之家,桃園市,中壢區,桃園市中壢區月眉里崇德三路250號1至4樓、252號1至4樓,121.1870956,24.99055862,B,喘息服務,03-4080143,v0989326287@gmail.com,楊少如,20230118 16:58:34
桃園市中壢區福德里辦公處,桃園市,中壢區,桃園市中壢區福德里9鄰成功路79巷54號,121.2585983,24.97531319,C,巷弄長照站,03-43328752 03-43328873,wang0989467325@yahoo.com.tw,王菁華,20210128 10:39:46
桃園市私立恩澤老人長期照顧中心(養護型),桃園市,桃園區,桃園市桃園區中央街26號1樓,121.3176041,24.99581146,B,喘息服務,03-3333636,enze.center@gmail.com,李靜怡,20230221 14:43:50
桃園市新屋區社子社區發展協會,桃園市,新屋區,桃園市新屋區社子里3-1號,121.0765076,24.96204376,C,巷弄長照站,0988-808582,god020533@yahoo.com.tw,賴清潭,20210127 17:13:14
天成醫療社團法人天晟醫院龍潭區,桃園市,平鎮區,桃園市平鎮區中豐路南勢二段117號三樓B區,121.1991119,24.91446304,A,個案管理服務,03-4397573,tcmgjt05@gmail.com,鄭貴麟,20230125 19:42:56
桃園市桃園區泰山里辦公處,桃園市,桃園區,桃園市桃園區泰山里宏昌六街19巷96號,121.2986221,24.98673058,C,巷弄長照站,03-3339168,80012095@mail.tycg.gov.tw,游輝居,20191231 15:33:04
長榮健康長照社團法人附設桃園市私立榮安居家長照機構,桃園市,中壢區,桃園市中壢區自治里環中東路106巷3弄35號,121.2576675,24.96469688,B,專業照護服務,03-4515286,ronganltci@gmail.com,謝麗玲,20230118 15:27:26
智浩企業有限公司附設桃園市私立瑞欣綜合長照機構,桃園市,桃園區,桃園市桃園區龍鳳里龍鳳三街65巷38號,121.2798004,24.98606873,B,喘息服務,(03)369-6882,rueishindaycare@gmail.com,陳昱全,20230118 17:04:12
新航國際租賃有限公司,桃園市,龍潭區,桃園市龍潭區桃園市龍潭區龍華路369號(1樓),121.2181168,24.87511063,B,交通接送服務,03-4805111,car5111@newroute.com.tw,莊英隆,20230201 09:05:18
桃園市新屋區石磊社區發展協會,桃園市,新屋區,桃園市新屋區石磊里三民路2段276號,121.0879669,24.99666023,C,巷弄長照站,03-4771835,Donshiumei@gmail.com,沈鄧秀梅,20210127 17:11:10
桃園市新屋區石磊社區發展協會,桃園市,新屋區,桃園市新屋區石磊里三民路2段276號,121.0879669,24.99666023,B,營養餐飲服務,03-4771835,Donshiumei@gmail.com,沈鄧秀梅,20201231 17:34:03
桃園市楊梅區高榮社區發展協會,桃園市,楊梅區,桃園市楊梅區高榮里幼獅路2段390-2號,121.1655731,24.93740463,C,巷弄長照站,0933-082698,sungfu@gmail.com,宋傅玉嬌,20210128 10:01:06
財團法人臺北市阿瑪社會福利慈善事業基金會(中山據點),桃園市,楊梅區,桃園市楊梅區梅溪里中山北路2段191號1樓,121.1719818,24.90904427,C,巷弄長照站,0982-985298,rebecca401010@gmail.com,廖淑彩,20210127 15:11:59
財團法人錸德文教基金會附設桃園市私立蘆竹錸工場社區長照機構,桃園市,蘆竹區,桃園市蘆竹區錦中里錦溪路125號3樓,121.2887726,25.05526924,B,喘息服務,03-3280728,yuhuan.chang@ricare.com.tw,楊慰芬,20230118 17:02:09
財團法人台灣省私立桃園仁愛之家,桃園市,楊梅區,桃園市楊梅區高榮里梅獅路539巷3號,121.1827087,24.9002037,B,居家服務,03-4643385,tych.service@gmail.com,李建榮,20221121 08:51:58
桃園市大園區竹圍社區發展協會,桃園市,大園區,桃園市大園區和平里90-6號,121.1739044,25.03530121,C,巷弄長照站,03-3937570,qw033937570@yahoo.com.tw,徐耀德,20210127 17:08:06
桃園市新屋區頭洲社區發展協會,桃園市,新屋區,桃園市新屋區頭洲里中山東路2段668巷48號2樓,121.1440506,24.96254539,B,營養餐飲服務,03-4906688,li.p0920@msa.hinet.net,吳瑞珠,20201231 17:21:50
芯薏企業有限公司附設桃園市私立芯薏居家長照機構,桃園市,桃園區,桃園市桃園區中平路98號19樓之2,121.2926254,24.98759842,B,喘息服務,0917-944-249,sine1101216@gmail.com,曾沛婕,20230223 09:48:07
姜博文診所,桃園市,楊梅區,桃園市楊梅區永寧里永美路335號3樓,121.1820221,24.91717148,B,居家失能個案家庭醫師照護服務,03-4826241#322,4826241@gmail.com,姜博文,20230720 13:20:55
福仁護理之家,桃園市,龜山區,桃園市龜山區大崗里大崗里大湖一路79巷35號,121.3570251,25.05495453,B,喘息服務,03-3281616,f0930130091@gmail.com,劉富美,20230207 07:24:40
龍和診所,桃園市,桃園區,桃園市桃園區龍安街153號,121.2792816,24.991539,B,喘息服務,03-3786145,yujaogjr@gmail.com,楊紹輝,20211027 19:49:51
社團法人台灣樂活服務發展協會(宣聖堂據點),桃園市,楊梅區,桃園市楊梅區紅梅里校前路32巷25-1號1樓,121.1452713,24.90494347,C,巷弄長照站,0982-985298,rebecca401010@gmail.com,馬瑞辰,20210128 11:01:14
職物語居家職能治療所,桃園市,蘆竹區,桃園市蘆竹區南崁路2段83號18樓之3(1826室),121.2781143,25.05712509,B,專業照護服務,0913-820528,ops1080322@gmail.com,李柏毅,20220314 15:44:20
財團法人天下為公社會福利慈善事業基金會大溪區,桃園市,大溪區,桃園市大溪區僑愛一街109號1樓,121.285347,24.90045547,A,個案管理服務,03-3078029,smileyu0930@gmail.com,胡世賢,20230125 19:30:06
社團法人中華民國士林靈糧堂社會福利協會附設桃園市私立龜山陸光社區長照機構,桃園市,龜山區,桃園市龜山區陸光里029鄰自強西路240號1樓,121.331749,24.99531937,B,喘息服務,03-2132050,ksdaycare@slsc.org.tw,劉群茂,20230426 13:20:07
福樂居家物理治療所,桃園市,平鎮區,桃園市平鎮區文化街236巷5號1樓,121.1855545,24.94808769,B,專業照護服務(CC01),0928-631872,fufupt@gmail.com,羅苡綾,20230802 17:19:14
桃園市私立關懷居家長照機構,桃園市,中壢區,桃園市中壢區過嶺里松信路109號1樓,121.1649933,24.96212578,B,喘息服務,03-4905753,care4905753@gmail.com,許良怡,20230220 14:44:10
愛爾德長者事業有限公司附設桃園市私立喜大人晨寶社區長照機構,桃園市,大園區,桃園市大園區橫峰里010鄰中正東路97-2號3樓,121.201149,25.06280899,B,喘息服務,287-3224,jayg1981111108@gmail.com,廖思琪,20230426 13:51:41
財團法人中保關懷社會福利基金會附設桃園市私立觀音石橋社區長照機構,桃園市,觀音區,桃園市觀音區新興里7鄰文化路石橋段453號1樓,121.0965652,25.00687599,B,日間照顧服務,447-7157,elva002004@gmail.com,洪培修,20230426 13:19:03
仁群診所,桃園市,大溪區,桃園市大溪區仁善街222號1樓,121.2812958,24.91018867,B,居家失能個案家庭醫師照護服務,03-3806021,a842250@gmail.com,張維剛,20230720 15:05:58
社團法人桃園市失能老人關懷協會附設桃園市私立日日順居家長照機構,桃園市,八德區,桃園市八德區福國北街220號,121.2968445,24.9631176,B,喘息服務,03-3761383,sss0909636513@gmail.com,許慈育,20230508 09:55:07
桃園市私立萊恩居家長照機構,桃園市,八德區,桃園市八德區廣福路276號,121.2925568,24.95969391,B,居家服務,03-3618622,lionhomecare276@gmail.com,游?文,20230317 15:03:08
社團法人桃園市社會服務關懷協會附設桃園市私立愈安社區式服務類長期照顧服務機構,桃園市,龜山區,桃園市龜山區新路里陸光路55號1樓,121.3328552,24.99484634,B,喘息服務,03-3181946,yujiannursing@gmail.com,賴秋梅,20230222 12:02:59
桃園市大園區圳頭社區發展協會,桃園市,大園區,桃園市大園區圳頭里濱海路二段432號,121.1987305,25.08862305,C,巷弄長照站,0932-371-053,cho0932371053@gmail.com,劉傳德,20210127 17:58:57
桃園市中壢區普仁里辦公處,桃園市,中壢區,桃園市中壢區普仁里桃園市中壢區普仁里日新路20號,121.2374802,24.95732117,C,巷弄長照站,0932-282214,80013932@mail.tycg.gov.tw,張鳳凰里長,20191231 18:00:55
桃園市大園區溪海社區發展協會,桃園市,大園區,桃園市大園區溪海里聖德北路22巷76弄1號,121.1899643,25.04692078,C,巷弄長照站,0910-910865,Minayang0730@gmail.com,賴萬平,20191231 20:20:01
桃園市中壢區龍岡里辦公處,桃園市,中壢區,桃園市中壢區龍岡里龍岡路3段742號,121.243309,24.92624664,C,巷弄長照站,03-4504722,80019016@mail.tycg.gov.tw,吳淑情,20210127 16:38:56
成信樂齡股份有限公司附設桃園市私立成信居家長照機構,桃園市,桃園區,桃園市桃園區中山里中平路102號7樓之3,121.2926788,24.9873333,B,喘息服務,03-2711661,chengxin202205@gmail.com,望安佳,20230327 17:50:00
衛生福利部桃園醫院,桃園市,桃園區,桃園市桃園區中山路1492號,121.2691879,24.97770309,B,專業照護服務,03-3699721,tyghltca@gmail.com,陳日昌,20230302 10:38:11
中華民國紅十字會桃園市分會社團法人附設桃園市私立紅十字居家式服務類長期照顧服務機構,桃園市,桃園區,桃園市桃園區泰山里中山路507巷12號6樓,121.2973785,24.9906826,B,居家服務,03-3327656,ty.red@msa.hinet.net,劉志清,20230201 12:10:03
同心瑞埔診所,桃園市,楊梅區,桃園市楊梅區中興路132號,121.1851273,24.91655159,B,居家失能個案家庭醫師照護服務,034-823-598,tongxinvp@gmail.com,余貴華,20230720 14:55:33
桃園市龍潭區石門社區發展協會,桃園市,龍潭區,桃園市龍潭區大平里永平路80號,121.2459641,24.82894897,C,巷弄長照站,0913-181651,kong51688@yahoo.com.tw,李連宗,20210128 10:03:19
寬福護理之家平鎮區,桃園市,平鎮區,桃園市平鎮區延平路二段350之3號1樓,121.1869278,24.96598434,A,個案管理服務,03-491-0630,canfullaunit@gmail.com,周矢綾,20230125 19:26:52
桃園市龍潭區大中正社區發展協會,桃園市,龍潭區,桃園市龍潭區龍星里中正路204號,121.2168121,24.86464119,C,巷弄長照站,0933-081785,ping1103.tw@yahoo.com.tw,陳金順,20210128 10:04:20
桃園市蘆竹區順興社區發展協會,桃園市,蘆竹區,桃園市蘆竹區順興里南昌路30-1號,121.2879715,25.04184723,C,巷弄長照站,0931-161-275,80020481@mail.tycg.gov.tw,黃錦龍,20191231 14:48:59
中壢長榮醫院平鎮區,桃園市,平鎮區,桃園市平鎮區龍南路200號,121.1984253,24.90699005,A,個案管理服務,03-4631230,sw@mail.egh.com.tw,謝麗玲,20230125 19:44:39
愛爾德長者事業有限公司附設桃園市私立喜大人晨寶社區長照機構,桃園市,大園區,桃園市大園區橫峰里010鄰中正東路97-2號3樓,121.201149,25.06280899,B,喘息服務,287-3224,jayg1981111108@gmail.com,廖思琪,20230426 13:48:39
松林護理之家,桃園市,龜山區,桃園市龜山區文化里復興北路6巷46號,121.3676834,25.0585556,B,喘息服務,03-3180999,87955@cch.org.tw,簡慧足,20230110 13:54:44
世豪小客車租賃有限公司,桃園市,桃園區,桃園市桃園區永安路223號3樓,121.3035049,24.99825668,B,交通接送服務,03-331-6367,peggyhuang6924@gmail.com,舒茂松,20230201 09:05:31
信醫物理治療所,桃園市,平鎮區,桃園市平鎮區金陵路三段197巷1弄21-2號,121.2281494,24.92669487,B,專業照護服務,03-4575777,allen670815@gmail.com,張信駿,20230220 13:37:14
桃園市楊梅區永揚社區發展協會,桃園市,楊梅區,桃園市楊梅區永寧里32鄰校前路324巷148號1樓,121.1482239,24.89798927,C,巷弄長照站,0937-119695,80017360@mail.tycg.gov.tw,張火爐,20191231 18:15:08
桃園市私立惜老社區長照機構,桃園市,楊梅區,桃園市楊梅區瑞坪里瑞溪路二段156號2樓,121.1817169,24.90903091,B,日間照顧服務,03-4817779,ivy08206@gmail.com,陳佳瑩,20230118 16:02:12
全能居家職能治療所,桃園市,平鎮區,桃園市平鎮區東社里15鄰社子3之21號2樓,121.1821136,24.96069336,B,專業照護服務(CC01),03-4609646,linhunglin1011@gmail.com,林宏霖,20230802 17:19:14
桃園市松鶴會,桃園市,中壢區,桃園市中壢區永興里元化路182-2號,121.2274246,24.96010399,C,巷弄長照站,0932-280267,jacyliao660301@gmail.com,周進杉,20210127 16:36:10
惠好居家職能治療所,桃園市,楊梅區,桃園市楊梅區校前路254巷55號10樓,121.1485214,24.90137863,B,專業照護服務(CC01),0936-999246,tenglendon@gmail.com,鄧金春,20230802 17:19:14
桃園市私立康健老人長期照顧中心(養護型),桃園市,桃園區,桃園市桃園區新埔七街101號2、3樓,121.3009872,25.02059174,B,喘息服務,03-3552546,tongn101@yahoo.com.tw,許松峰,20230118 15:05:11
中華民國紅十字會桃園市分會,桃園市,楊梅區,桃園市楊梅區楊梅里大模街10號2樓,121.1445999,24.91292381,C,巷弄長照站,0937-116355,80017360@mail.tycg.gov.tw,劉志清,20191231 18:30:44
桃寶事業有限公司附設桃園市私立桃寶居家長照機構,桃園市,中壢區,桃園市中壢區新街里元化路220號7樓,121.226799,24.96100616,B,喘息服務,0921-302-271,taubau2020@gmail.com,游昌翰,20230118 14:47:22
桃園市觀音區富源社區發展協會,桃園市,觀音區,桃園市觀音區富源里新富路801巷65號,121.1233368,25.05061913,C,巷弄長照站,03-4900430,jung.lingyu@msa.hinet.net,余奕增,20210127 17:06:04
桃園市私立仁德社區長照機構,桃園市,大溪區,桃園市大溪區仁文里5鄰自強街59號1樓,121.2853699,24.90138626,B,家庭托顧服務,03-3072199,cengy052@gmail.com,曾瀧慶,20230206 15:44:30
愛爾德長者事業有限公司附設桃園市私立喜大人冠怡社區長照機構,桃園市,蘆竹區,桃園市蘆竹區濱海里海山路14號2樓,121.2862015,25.08615112,B,日間照顧服務,03-287-3224,jayg1981111108@gmail.com,廖思琪,20230118 17:03:10
桃園市觀音區保障社區發展協會,桃園市,觀音區,桃園市觀音區保障里保障二路562號,121.1511154,25.0580883,C,巷弄長照站,03-4830119,sf3855533@yahoo.com.tw,李秀玉,20210127 17:18:16
財團法人錸德文教基金會附設桃園市私立新屋頭洲社區長照機構,桃園市,新屋區,桃園市新屋區頭洲里福州一街40號1樓,120.2677343,22.7645431,B,喘息服務,03-4900928,ricare.xinwu01@gmail.com,楊慰芬,20230315 09:27:42
美一天居家物理治療所,桃園市,桃園區,桃園市桃園區龍泉一街33號4樓,121.2916336,24.99866104,B,專業照護服務,0922-073672,s9046023@gmail.com,葉茜汶,20230220 13:39:05
天成醫療社團法人附設桃園市私立金色年代綜合式服務類長期照顧服務機構,桃園市,中壢區,桃園市中壢區新街里006鄰延平路219號,121.227623,24.96177673,B,日間照顧服務,03-4620085,homecare01@tcmg.com.tw,徐慧伊,20230118 16:48:15
社團法人台灣樂活服務發展協會(一品據點),桃園市,楊梅區,桃園市楊梅區楊明里新農街429巷32弄2號,121.1575775,24.91320801,C,巷弄長照站,0982-985298,glory4820910@gmail.com,林淑萍,20210127 15:35:48
鼎居護理之家,桃園市,楊梅區,桃園市楊梅區上田里高鐵南路7段178巷16號,121.1311264,24.94824028,B,喘息服務,03-2888666,duj28888666@gmail.com,鄭順意,20230220 16:16:37
福安居家物理治療所,桃園市,八德區,桃園市八德區樹仁三街601號1樓,121.3095551,24.97520638,B,專業照護服務(CC01),0965-667316,tommy830316@gmail.com,朱曉英,20230802 17:19:14
社區式服務交通接送-財團法人桃園市私立國宏老人長期照顧中心(養護型),桃園市,平鎮區,桃園市平鎮區北貴里２０鄰關爺東路１９之５號,121.22052,24.92934036,B,交通接送服務,03-4582977分機199,chang7716@gmail.com,吳黃玉英,20230118 16:59:26
中壢長榮醫院附設居家護理所,桃園市,中壢區,桃園市中壢區環中東路106巷1弄31號,121.2580414,24.96482658,B,專業照護服務,03-4631230,betty680916@gmail.com,徐子喬,20230110 13:27:48
社團法人台灣喜樂家族協會附設桃園市私立冠冕居家長照機構,桃園市,楊梅區,桃園市楊梅區新農街136巷3號1樓,121.1505203,24.90937805,B,喘息服務,03-4881966,crown.lifetao@gmail.com,林黃寶彩,20230321 14:51:01
桃園市私立旭登居家式服務類長期照顧服務機構,桃園市,八德區,桃園市八德區大強里樹仁三街601號3樓,121.3095551,24.97520638,B,到宅沐浴車服務,03-2181190,rr0329@yahoo.com.tw,李昆璋,20230202 15:14:59
社團法人台灣喜樂家族協會附設桃園市私立冠冕居家長照機構,桃園市,楊梅區,桃園市楊梅區新農街136巷3號1樓,121.1505203,24.90937805,B,居家服務,03-4881966,crown.lifetao@gmail.com,林黃寶彩,20230331 13:19:08
顧得樂長照有限公司附設桃園市私立顧得樂居家長照機構,桃園市,平鎮區,桃園市平鎮區環南路18號8樓之五,121.2066498,24.95661926,B,喘息服務,03-4924757,a034259979@gmail.com,張譽籇,20230203 10:59:05
桃園市大溪區永福社區發展協會,桃園市,大溪區,桃園市大溪區永福里信義路1125號,121.324295,24.89468765,C,巷弄長照站,0933-833019,a0933833019@gmail.com,王在義,20210127 17:59:52
桃園市私立旭登居家式服務類長期照顧服務機構,桃園市,八德區,桃園市八德區大強里樹仁三街601號3樓,121.3095551,24.97520638,B,居家服務,03-2181190,rr0329@yahoo.com.tw,李昆璋,20230201 16:07:50
財團法人雙福社會福利慈善事業基金會附設桃園市私立大溪崎頂社區長照機構,桃園市,大溪區,桃園市大溪區仁武里001鄰公園路30號1樓,121.2109985,25.00407791,B,喘息服務,03-3805695,sepen33@gmail.com,吳英賓,20230118 17:01:17
桃園市新屋區下田社區發展協會,桃園市,新屋區,桃園市新屋區下田里中山西路二段780號,121.0581436,24.98334694,C,巷弄長照站,0952-629-402,m0952629402@gmail.com,葉榮清,20210128 09:58:08
桃園市八德區大成社區發展協會,桃園市,八德區,桃園市八德區瑞發里建國路1199號2樓,121.2987518,24.95763779,C,巷弄長照站,0928-122429,zkc0928122429@yahoo.com,曾國政,20210127 16:10:31
桃園市私立民享老人長期照顧中心(養護型),桃園市,桃園區,桃園市桃園區民生路290號,121.3123779,24.99609566,B,喘息服務,03-3350800,ju0317@yahoo.com.tw,黃靜如,20230118 14:35:44
惠好居家職能治療所,桃園市,楊梅區,桃園市楊梅區校前路254巷55號10樓,121.1485214,24.90137863,B,專業照護服務,0936-999246,tenglendon@gmail.com,鄧金春,20220322 09:24:21
財團法人中華民國佛教慈濟慈善事業基金會桃園市私立慈濟居家長照機構,桃園市,桃園區,桃園市桃園區大業路一段307號,121.3136139,25.00992393,A,個案管理服務,03-3586111#202,Ltc000181@tzuchi.org.tw,釋證嚴,20230125 19:32:28
桃園市私立樂齡社區長照機構,桃園市,大溪區,桃園市大溪區仁文里5鄰自強街61號1樓,121.2854156,24.90140915,B,家庭托顧服務,03-3808988,cengy052@gmail.com,郭秋麗,20230206 15:43:42
桃園市大溪區仁義里辦公處,桃園市,大溪區,桃園市大溪區仁義里介壽路211巷2弄32號,121.2946167,24.91918182,C,巷弄長照站,03-3801672,c197518@gmail.com,張振源,20210127 16:12:06
懷寧護理之家,桃園市,中壢區,桃園市中壢區月眉里崇德三路250號1至4樓、252號1至4樓,121.1870956,24.99055862,B,日間照顧服務,03-4080143,v0989326287@gmail.com,楊少如,20230118 16:58:34
桃園市蘆竹區南榮社區發展協會,桃園市,蘆竹區,桃園市蘆竹區南榮里桃園街9號,121.2932281,25.04340172,C,巷弄長照站,0932-068061,chuan.hg95@gmail.com,卓宗賢,20210128 10:12:22
桃園市私立浤益居家長照機構,桃園市,龜山區,桃園市龜山區嶺頂里17鄰萬壽路二段339號3樓,121.3568649,25.00128365,B,居家服務,03-3500625,hongyi.homecare@gmail.com,陳濬豪,20230201 17:15:50
桃園市私立天使居家長照機構,桃園市,中壢區,桃園市中壢區復興路50號7樓,121.2232895,24.95684624,B,喘息服務,03-4263365,b0910334050@gmail.com,翁茂榕,20230207 07:23:07
社團法人台灣立享長照服務教育發展協會附設桃園市私立立享居家長照機構,桃園市,龜山區,桃園市龜山區中和南路22號,121.3397217,24.99524498,B,居家服務,03-3195589,lixiang15588@gmail.com,朱柏霖,20230201 14:26:39
財團法人中保關懷社會福利基金會附設桃園市私立觀音石橋社區長照機構,桃園市,觀音區,桃園市觀音區新興里7鄰文化路石橋段453號1樓,121.0965652,25.00687599,B,喘息服務,447-7157,elva002004@gmail.com,洪培修,20230426 13:39:11
桃園市私立惜老社區長照機構,桃園市,楊梅區,桃園市楊梅區瑞坪里瑞溪路二段156號2樓,121.1817169,24.90903091,B,喘息服務,03-4817779,ivy08206@gmail.com,陳佳瑩,20230118 16:02:12
桃園市桃園區陽明社區發展協會,桃園市,桃園區,桃園市桃園區福林里陽明三街33號2樓,121.3071136,24.97954178,C,巷弄長照站,03-3772986,dryadc15048@gmail.com,陳秀菊,20191231 16:03:52
雲裔居家護理所,桃園市,楊梅區,桃園市楊梅區中山北路一段319號,121.1573563,24.90837669,B,專業照護服務,03-4881300,yunyi1120602@gmail.com,呂雅雯,20230810 08:36:27
瑞之盟居家語言治療所,桃園市,桃園區,桃園市桃園區三民路三段28-1號3樓-1,121.3065414,24.99762726,B,專業照護服務,0907-010-671,melanie01201985@gmail.com,王星懿,20220209 08:56:52
財團法人聯新文教基金會附設私立好棒社區長照機構,桃園市,平鎮區,桃園市平鎮區新富里振興路1號3樓,121.2177734,24.94592857,B,喘息服務,03-4582880,fang1374@gmail.com,張煥禎,20230411 10:50:31
社團法人桃園市失能老人關懷協會附設桃園市私立日日順居家長照機構,桃園市,八德區,桃園市八德區福國北街220號,121.2968445,24.9631176,B,居家服務,03-3761383,sss0909636513@gmail.com,許慈育,20230201 17:25:25
成信樂齡股份有限公司附設桃園市私立成信居家長照機構,桃園市,桃園區,桃園市桃園區中山里中平路102號7樓之3,121.2926788,24.9873333,B,居家服務,03-2711661,chengxin202205@gmail.com,望安佳,20230301 13:31:16
桃園市桃園區西埔社區發展協會,桃園市,桃園區,桃園市桃園區西埔里富國路681巷22號,121.2809448,25.02015686,C,巷弄長照站,03-3013835,moon080680@yahoo.com.tw,陳正義,20210127 16:51:08
桃園市私立群和居家長照機構,桃園市,桃園區,桃園市桃園區中平路102號12樓之1,121.2926788,24.9873333,B,喘息服務,03-2208096,qunhehome@gmail.com,莊麗菲,20230118 15:06:55
社團法人桃園市失能老人關懷協會附設桃園市私立中壢龍福社區長照機構,桃園市,中壢區,桃園市中壢區龍昌里015鄰中山東路四段26號5樓,121.2544556,24.93475914,B,小規模多機能服務,03-4663199,kobe@zhco.com.tw,許慈育,20230118 16:57:59
桃園市私立和沁居家長照機構,桃園市,楊梅區,桃園市楊梅區環南路113號1樓,121.1469574,24.90154648,B,居家服務,03-4752989,ha92541806@gmail.com,陳妤榛,20230109 14:29:38
金色年代長照社團法人附設桃園市私立金色年華綜合長照機構,桃園市,中壢區,桃園市中壢區普義里立和路58巷66號1樓、68號1至4樓、70號1樓,121.2314148,24.95827866,B,喘息服務,03-4623626,med01@tcmg.com.tw,徐向謙,20230220 16:06:51
財團法人桃園市私立怡德老人長期照顧中心(養護型)附設桃園市私立中壢新明社區長照機構,桃園市,中壢區,桃園市中壢區舊明里008鄰明德路60號3樓,121.2161484,24.95632172,B,小規模多機能服務,03-3373488,qwert741753@gmail.com,林哲弘,20230118 16:50:34
衛生福利部桃園醫院,桃園市,桃園區,桃園市桃園區中山路1492號,121.2691879,24.97770309,A,個案管理服務,03-3699721,tyghltca@gmail.com,陳日昌,20230125 19:22:28
桃園市私立台大老人長期照顧中心(養護型),桃園市,桃園區,桃園市桃園區自強里經國路242-1號4樓、244號4樓、246號4樓,121.303978,25.02061081,B,喘息服務,03-3555036,tai_da_168@yahoo.com.tw,鄭淑卿,20230221 11:57:09
社團法人台灣樂活服務發展協會(桃園基督恩典教會),桃園市,桃園區,桃園市桃園區中平里中平路98號18樓,121.2926788,24.98761177,C,巷弄長照站,0982-985298,amy_yu840605@yahoo.com.tw,林淑萍,20210127 15:33:57
華揚醫院,桃園市,中壢區,桃園市中壢區中北路二段316號,121.22995,24.95312119,B,專業照護服務,03-4577200,s712103.mcmg@gmail.com,洪德祥,20230110 13:20:35
桃園市八德區衛生所,桃園市,八德區,桃園市八德區介壽路二段361巷28號,121.2986526,24.94749832,B,專業照護服務,03-3662781,10020126@mail.tycg.gov.tw,李育霖,20201230 14:06:04
財團法人台灣基督長老教會泰雅爾中會三民教會,桃園市,復興區,桃園市復興區三民里19鄰511巷31號,121.1916351,24.93754959,C,巷弄長照站,0926-327581,amuytuba@gmail.com,林蓓茹牧師,20210127 15:08:41
民安診所,桃園市,楊梅區,桃園市楊梅區楊梅里大成路175號1樓,121.1457138,24.9124279,B,喘息服務,03-4757681,4826241@gmail.com,何建翰,20190628 21:04:15
桃園市愛鎮協會,桃園市,大溪區,桃園市大溪區興和里東二路31號,121.2915344,24.88281631,C,巷弄長照站,03-3874210,dahsi.sports@msa.hinet.net,李寶釵,20210127 16:14:53
財團法人桃園市私立怡德老人長期照顧中心(養護型)桃園區,桃園市,桃園區,桃園市桃園區桃園市桃園區和興街17號,121.3175583,24.97143173,A,個案管理服務,03-3373488,amanagement20st@gmail.com,林哲弘,20230125 19:21:49
仁義護理之家,桃園市,龜山區,桃園市龜山區新興里自強南路289號,121.3349762,24.99027634,B,喘息服務,03-3191688,jynh2008@yahoo.com.tw,李素琦,20230207 07:26:31
桃園市私立惜老社區長照機構,桃園市,楊梅區,桃園市楊梅區瑞坪里瑞溪路二段156號2樓,121.1817169,24.90903091,B,喘息服務,03-4817779,ivy08206@gmail.com,陳佳瑩,20201201 18:05:07
桃園市私立晴天居家長照機構,桃園市,平鎮區,桃園市平鎮區中豐路110號2樓,121.2511063,24.91927338,B,喘息服務,0907-950-995,Sd.homecare429@gmail.com,王曉倩,20230915 11:59:10
桃園市私立茂庭社區長照機構,桃園市,桃園區,桃園市桃園區莊敬里中正路1224巷1-1號2樓,121.297699,25.0189209,B,日間照顧服務,03-3571210分機15,maotingting99@gmail.com,李麗珠,20230118 17:01:42
桃園市私立慈庭老人長期照顧中心(長期照護型),桃園市,桃園區,桃園市桃園區西門里新生路165號6樓之2,121.3078766,24.99598312,B,喘息服務,03-3319379,t33311.c55@msa.hinet.net,蕭敦仁,20230221 15:37:43
桃園市私立旭登居家式服務類長期照顧服務機構,桃園市,八德區,桃園市八德區大強里樹仁三街601號3樓,121.3095551,24.97520638,B,喘息服務,03-2181190,rr0329@yahoo.com.tw,李昆璋,20230510 09:55:34
桃園市私立旭登居家式服務類長期照顧服務機構,桃園市,八德區,桃園市八德區大強里樹仁三街601號3樓,121.3095551,24.97520638,B,居家服務,03-2181190,rr0329@yahoo.com.tw,李昆璋,20220302 11:50:17
財團法人雙福社會福利慈善事業基金會附設桃園市私立大溪崎頂社區長照機構,桃園市,大溪區,桃園市大溪區仁武里001鄰公園路30號1樓,121.2109985,25.00407791,B,日間照顧服務,03-3805695,sepen33@gmail.com,吳英賓,20230118 17:01:17
桃園市大園區三石社區發展協會,桃園市,大園區,桃園市大園區三石里三和路5號2樓,121.2582321,25.07299995,C,巷弄長照站,03-3831028,a3831028@gmail.com,楊阿定,20210127 17:08:44
桃園市龜山區南上社區發展協會,桃園市,龜山區,桃園市龜山區南上里民生北路1段386-1號,121.2178192,24.8507576,C,巷弄長照站,03-3252390,yuyun0128@gmail.com,詹有銘,20210127 17:15:47
財團法人桃園市私立國宏老人長期照顧中心(養護型)附設桃園市私立國宏綜合式服務類長期照顧服務機構,桃園市,平鎮區,桃園市平鎮區新富里035鄰環南路二段265號2樓之5,121.2152405,24.94053459,B,日間照顧服務,03-4598838,rih.jhao@gmail.com,吳黃玉英,20230118 14:48:10
懷恩展業有限公司附設桃園市私立懷恩居家長照機構,桃園市,平鎮區,桃園市平鎮區南京路127號2樓,121.2074814,24.91615677,B,居家服務,03-2759569,huaienhs@gmail.com,曾國瑋,20230210 17:36:42
六福居家護理所,桃園市,蘆竹區,桃園市蘆竹區六福路326號3樓,121.2939529,25.06175804,B,專業照護服務,03-3218880,usl0815@hotmail.com,游秀齡,20230203 09:41:39
桃園市私立滿儒居家長照機構,桃園市,桃園區,桃園市桃園區豐林里介壽路154號1樓,121.3097305,24.98394012,B,居家服務,03-3660612,manrhuhome@gmail.com,游雅瑜,20210112 10:07:33
億家安居家物理治療所,桃園市,桃園區,桃園市桃園區正康二街36號,121.2945557,24.99601555,B,專業照護服務(CC01),03-3363431,wholecarept@gmail.com,李?宇,20230802 17:19:14
桃園市新屋區衛生所,桃園市,新屋區,桃園市新屋區中山路239號,121.1065826,24.97253418,B,專業照護服務,03-4772196,10021350@mail.tycg.gov.tw,葉時源,20201230 14:10:39
社團法人中華長照協會附設桃園市私立永樂居家長照機構,桃園市,桃園區,桃園市桃園區南華街60號9樓之三,121.3085327,24.99037361,B,居家服務,03-3393439,syuan@clc5.url.tw,金浩鑫,20221129 17:30:34
桃園市私立仁慈社區長照機構,桃園市,中壢區,桃園市中壢區普義里008鄰溪洲三街70之9號1樓,121.2311554,24.96061897,B,家庭托顧服務,03-4513103,d40301242@yahoo.com.tw,賴品睿,20230821 15:22:03
桃園市桃源銀髮族協會,桃園市,中壢區,桃園市中壢區新街里環北路398號15樓-1,121.2263412,24.96547127,C,巷弄長照站,0928-214392,c0928214392@yahoo.com.tw,吳麗華,20210127 17:20:00
拾全拾美樂齡事業有限公司附設桃園市私立潛龍綜合長照機構,桃園市,龍潭區,桃園市龍潭區烏樹林6鄰中豐路640號之2,121.212616,24.88698959,B,喘息服務,03-4990906,Perfect9068@gmail.com,王運昌,20230220 15:31:44
桃園市桃園區同德社區發展協會,桃園市,桃園區,桃園市桃園區瑞慶里永安北路500號2樓,121.2922821,25.0194931,C,巷弄長照站,03-3021077,huangrachelaw@gmail.com,黃欣韻,20210127 16:50:50
桃園市桃園區龍岡社區發展協會,桃園市,桃園區,桃園市桃園區永興里國豐二街6號2樓,121.2808685,24.98952675,B,喘息服務,03-2174895,csy4643@yahoo.com.tw,簡淑英,20210222 16:27:15
財團法人台灣省私立桃園仁愛之家,桃園市,楊梅區,桃園市楊梅區高榮里梅獅路539巷3號,121.1827087,24.9002037,B,喘息服務,03-4643385,tych.service@gmail.com,李建榮,20230117 11:18:06
財團法人聯新文教基金會附設私立好棒社區長照機構,桃園市,平鎮區,桃園市平鎮區新富里振興路1號3樓,121.2177734,24.94592857,B,日間照顧服務,03-4582880,fang1374@gmail.com,張煥禎,20230411 10:50:31
唯科診所,桃園市,龍潭區,桃園市龍潭區中正路228號1、2樓,121.2169952,24.86348534,B,居家失能個案家庭醫師照護服務,03-4890211,luan6030@yahoo.com.tw,欒同如,20230804 10:02:09
社團法人桃園市全人生命教育協會,桃園市,桃園區,桃園市桃園區文化里中華路49號,121.3104935,24.99073029,C,巷弄長照站,03-3328555,talea200549@gmail.com,游搏宏,20210127 15:28:38
桃園市觀音區廣興社區發展協會,桃園市,觀音區,桃園市觀音區廣興里中山路一段413號,121.0916595,25.0342598,C,巷弄長照站,0938-171717,lin328555@yahoo.com.tw,許更生,20210128 17:43:49
桃園市平鎮區建安社區發展協會,桃園市,平鎮區,桃園市平鎮區建安里平東路688號,121.2387085,24.91246033,C,巷弄長照站,03-4501211,hibo1201@yahoo.com.tw,劉得光,20210201 15:59:36
桃園市私立原生力社區長照機構,桃園市,復興區,桃園市復興區澤仁里中正路184號,121.3515549,24.81857491,B,家庭托顧服務,03-3822770,a0981719058@gmail.com,張鴻明,20230206 09:27:27
尚倫國際租車有限公司,桃園市,蘆竹區,桃園市蘆竹區山腳里山富街171號,121.2902069,25.08309364,B,交通接送服務,0926-336-763,yu675599@gmail.com,游輝清,20230201 09:04:37
中敏居家護理所,桃園市,中壢區,桃園市中壢區至善里後寮一路329號,121.2466507,24.93542862,B,專業照護服務,03-4379688,ms0975081692@gmail.com,李曉媛,20230220 14:34:57
桃園市私立丞安居家長照機構,桃園市,龜山區,桃園市龜山區自強西路230號1樓,121.3328171,24.99639702,B,居家服務,03-2133559,chengan350559@gmail.com,吳佳蓉,20220127 08:47:12
泰千診所,桃園市,復興區,桃園市復興區羅浮里127號,121.3657303,24.79311943,B,居家失能個案家庭醫師照護服務,03-3822748,3822748@gmail.com,楊川世,20230720 13:14:54
桃園市私立慈庭老人長期照顧中心(長期照護型),桃園市,桃園區,桃園市桃園區西門里新生路165號6樓之2,121.3078766,24.99598312,B,交通接送服務,03-3319379,t33311.c55@msa.hinet.net,蕭敦仁,20210422 15:32:16
捷安物理治療所,桃園市,桃園區,桃園市桃園區民富二街97號1樓,121.3079453,25.00581741,B,專業照護服務,03-3369091,yap7193@gmail.com,楊政宏,20230220 14:35:24
桃園市私立龍昌社區長照機構,桃園市,中壢區,桃園市中壢區龍昌里020鄰龍昌路324巷103號1樓,121.246048,24.93367577,B,家庭托顧服務,03-4361585,fykv1428@ms56.hinet.net,楊漢卿,20230419 19:06:28
桃園市明聖社區促進會,桃園市,桃園區,桃園市桃園區中成里中成里永佳街126號B1,121.2814941,25.00602341,C,巷弄長照站,0937-116355,cheng.yih0509@gmail.com,吳致和,20210128 10:35:45
桃園市平鎮區衛生所附設居家護理所,桃園市,平鎮區,桃園市平鎮區振興路1號,121.2177734,24.94592857,B,專業照護服務,03-4576624#219,10027430@mail.tycg.gov.tw,蔡佩芳,20230118 15:38:47
中壢長榮醫院,桃園市,中壢區,桃園市中壢區環中東路150號,121.2578354,24.96447754,B,居家失能個案家庭醫師照護服務,03-4631230,hc@mail.egh.com.tw,謝麗玲,20230726 17:59:40
億家安居家物理治療所,桃園市,桃園區,桃園市桃園區正康二街36號,121.2945557,24.99601555,B,專業照護服務(CC01),03-3363431,wholecarept@gmail.com,李?宇,20230802 17:19:14
桃園市私立?駿居家長照機構,桃園市,楊梅區,桃園市楊梅區瑞溪里中山北路二段265巷94號1樓,121.1755753,24.90805626,B,喘息服務,03-4820769,Longjun2021@gmail.com,邱?峰,20230301 10:45:24
桃園市私立福連居家長照機構,桃園市,中壢區,桃園市中壢區正光二街120號2樓,121.205307,24.9591465,B,喘息服務,03-2850248,fuliancare@gmail.com,袁邦彥,20230203 10:55:44
中華光明之家共生家園協會,桃園市,楊梅區,桃園市楊梅區豐野里中正路265號,121.136673,24.9242115,C,巷弄長照站,0910-655115,taiwanlaoshu@gmail.com,鄭棋憲,20210127 17:14:22
愛爾德長者事業有限公司附設桃園市私立喜大人晨寶社區長照機構,桃園市,大園區,桃園市大園區橫峰里010鄰中正東路97-2號3樓,121.201149,25.06280899,B,日間照顧服務,287-3224,jayg1981111108@gmail.com,廖思琪,20230426 13:50:48
財團法人錸德文教基金會,桃園市,龜山區,桃園市龜山區華亞二路222號,121.3748169,25.04690552,A,個案管理服務,,yen1070511@gmail.com,楊慰芬,20230125 19:34:19
社團法人台灣樂活服務發展協會(榮耀堂據點),桃園市,楊梅區,桃園市楊梅區光華里新興街125巷42號,121.1836777,24.91615868,C,巷弄長照站,0982-985298,glory4820910@gmail.com,馬瑞辰,20210127 15:36:29
社團法人桃園市仁德照顧服務關懷協會,桃園市,八德區,桃園市八德區大漢里義勇街140號1樓,121.305481,24.96333885,C,巷弄長照站,03-4994828,cengy052@gmail.com,曾瀧慶,20210127 15:27:36
桃園市龍潭區三坑里辦公處,桃園市,龍潭區,桃園市龍潭區三坑里三坑老街66號,121.2479935,24.84384537,C,巷弄長照站,0953-418659,a0933255703@gmail.com,徐美惠,20210128 10:43:09
財團法人中保關懷社會福利基金會附設桃園市私立觀音石橋社區長照機構,桃園市,觀音區,桃園市觀音區新興里7鄰文化路石橋段453號1樓,121.0965652,25.00687599,B,喘息服務,447-7157,elva002004@gmail.com,洪培修,20230426 13:19:03
財團法人中保關懷社會福利基金會附設桃園市私立觀音石橋社區長照機構,桃園市,觀音區,桃園市觀音區新興里7鄰文化路石橋段453號1樓,121.0965652,25.00687599,B,交通接送服務,447-7157,elva002004@gmail.com,洪培修,20230426 16:01:40
惟心長照有限公司附設桃園市私立惟心居家長照機構,桃園市,中壢區,桃園市中壢區新街里元化路224號9樓,121.2266006,24.96120644,B,居家服務,0907-875-789,weihsin1090420@gmail.com,曾淑卿,20230201 17:04:04
桃園市大園區后厝社區發展協會,桃園市,大園區,桃園市大園區後厝里中華路594號,121.211586,25.07583237,C,巷弄長照站,0910-922018,hocho595@outlook.com,游成章,20210127 17:07:45
桃園區大園區南港社區發展協會,桃園市,大園區,桃園市大園區南港里文治路20號,121.1696014,25.05056953,C,巷弄長照站,0931-225288,nc_elderly@yahoo.com.tw,許茂,20210127 17:19:20
社團法人桃園市溫暖關懷協會附設桃園市私立溫暖居家長照機構,桃園市,中壢區,桃園市中壢區延平路500號10樓之4,121.2232895,24.95684624,B,喘息服務,0966-722-813,warm201610@gmail.com,陳清文,20230807 09:41:56
桃園市原住民長期照顧推動協會,桃園市,楊梅區,桃園市楊梅區中山里新農街172號,121.1514893,24.90952683,C,巷弄長照站,03-4588901,ccchungdaw@mohw.gov.tw,待補,20190903 09:57:33
社團法人桃園市失能老人關懷協會附設桃園市私立楊梅富岡社區長照機構,桃園市,楊梅區,桃園市楊梅區富岡里13鄰中正路138號2、3樓,121.080368,24.93692589,B,團體家屋服務,03-3563972,ymgp666@gmail.com,李麗珠,20221214 11:54:18
桃園市私立健安綜合長照機構,桃園市,八德區,桃園市八德區竹園里017鄰長興路469號1至3樓,121.27211,24.93246651,B,喘息服務,03-3682798,ja3682798@gmail.com,陳博文,20230220 14:52:24
桃園市私立星之禾居家長照機構,桃園市,八德區,桃園市八德區仁德路180號,121.2865143,24.93527603,B,居家服務,03-2739503,z92501570@gmail.com,徐季琴,20221228 08:54:28
惠好居家職能治療所,桃園市,楊梅區,桃園市楊梅區校前路254巷55號10樓,121.1485214,24.90137863,B,專業照護服務(CC01),0936-999246,tenglendon@gmail.com,鄧金春,20230802 17:19:14
桃園市楊梅區衛生所,桃園市,楊梅區,桃園市楊梅區校前路409號,121.1497879,24.8969593,B,專業照護服務,03-4782248,10021439@mail.tycg.gov.tw,黃修哲,20201230 14:08:15
青華家鏈照股份有限公司附設桃園市私立青華活力居家長照機構,桃園市,中壢區,桃園市中壢區中央西路一段1號7樓(709室),121.2233582,24.95715332,B,居家服務,03-4258052,chcc0975609928cl@gmail.com,林青榖,20220926 17:54:13
德宣居家長照有限公司附設桃園市私立德宣居家長照機構,桃園市,平鎮區,桃園市平鎮區中豐路山頂段66號1-3樓,121.2071762,24.91915131,B,居家服務,0976-249-599,niu830411@gmail.com,牛姵婷,20230201 16:01:00
桃寶事業有限公司附設桃園市私立桃寶居家長照機構,桃園市,中壢區,桃園市中壢區新街里元化路220號7樓,121.226799,24.96100616,B,居家服務,0921-302-271,taubau2020@gmail.com,游昌翰,20230201 17:14:17
桃園市私立天使居家長照機構,桃園市,中壢區,桃園市中壢區復興路50號7樓,121.2232895,24.95684624,B,居家服務,03-4263365,b0910334050@gmail.com,翁茂榕,20230202 13:42:40
瑞之盟居家語言治療所,桃園市,桃園區,桃園市桃園區三民路三段28-1號3樓-1,121.3065414,24.99762726,B,專業照護服務,0907-010-671,melanie01201985@gmail.com,王星懿,20211213 00:38:05
社團法人臺灣樂福國際慈善福利協會,桃園市,桃園區,桃園市桃園區國強七街108號1樓,121.2781754,24.98829651,B,到宅沐浴車服務,04-27080177,rosa241620@gmail.com,張淞源,20220901 17:09:34
金色年代長照社團法人附設桃園市私立金色時代住宿長照機構,桃園市,中壢區,桃園市中壢區中原里36號、46號1至3樓,121.2617874,24.97450256,B,喘息服務,03-4627735,n4538@tcmg.com.tw,徐向謙,20230118 15:28:40
貴族樂活股份有限公司附設桃園市私立貴族居家長照機構,桃園市,中壢區,桃園市中壢區中山路88號12樓之1、2,121.2264328,24.95534706,B,居家服務,0983-719-760,noble91338592@gmail.com,張經,20230201 17:16:38
財團法人天主教德來會,桃園市,桃園區,桃園市桃園區三民里三民路1段二號九樓,121.3251877,24.99320412,B,喘息服務,03-3317226#20,smile_l0ve125@hotmail.com,蔡宜芬,20230419 18:51:29
桃園市新屋區石牌社區發展協會,桃園市,新屋區,桃園市新屋區石牌里3鄰東興路2段568號,121.0523911,25.00285912,C,巷弄長照站,0935-561-295,wu333520520@gmail.com,黃金富,20200902 18:28:53
惠好居家職能治療所,桃園市,楊梅區,桃園市楊梅區校前路254巷55號10樓,121.1485214,24.90137863,B,專業照護服務,0936-999246,tenglendon@gmail.com,鄧金春,20230207 07:34:14
桃園市大園區舊路社區發展協會,桃園市,龜山區,桃園市龜山區舊路里振興路749巷1弄18號,121.3605728,25.01911163,C,巷弄長照站,03-3294645,ta3294645@yahoo.com.tw,李松鶴,20191231 20:01:13
社團法人桃園市地球村代間藝術教育促進會,桃園市,平鎮區,桃園市平鎮區北貴里正義路70號,121.2226181,24.9296093,C,巷弄長照站,03-4582250,shinkuan123@yahoo.com.tw,彭碧鑾,20210127 15:28:21
尚語身心診所,桃園市,中壢區,桃園市中壢區忠孝路62號,121.1730194,24.99445915,B,居家失能個案家庭醫師照護服務,03-4512181,listener.clinic@gmail.com,單瑜,20230717 19:10:25
桃園市私立陽光空氣水老人長期照顧中心(養護型),桃園市,桃園區,桃園市桃園區中正路720之7號8樓,121.3029709,25.00800323,B,喘息服務,03-3588966,care14576@gmail.com,盧國裕,20230221 15:46:13
桃園市龍潭區八德社區發展協會,桃園市,龍潭區,桃園市龍潭區聖德里聖亭路八德段451巷140號,121.1951065,24.8820858,C,巷弄長照站,03-4893281,sbchen1218@yahoo.com.tw,陳秀碧,20210127 16:58:20
群和居家護理所,桃園市,桃園區,桃園市桃園區中平路102號12樓之1,121.2926788,24.9873333,B,專業照護服務,0987-982-850,qunhecare@gmail.com,許鳳珠,20230118 15:20:47
禾信樂齡股份有限公司附設桃園市私立禾信居家長照機構,桃園市,中壢區,桃園市中壢區中北路二段117號6樓之1號,121.2258301,24.95160294,B,居家服務,(03)2715020,heshin1101217@gmail.com,廖奕韋,20230313 10:23:04
桃園市私立萊恩居家長照機構,桃園市,八德區,桃園市八德區廣福路276號,121.2925568,24.95969391,B,喘息服務,03-3618622,lionhomecare276@gmail.com,游?文,20230317 10:38:43
桃園市私立松林老人長期照顧中心（長期照護型）,桃園市,龜山區,桃園市龜山區復興北路6巷42號,121.3679352,25.05881691,B,喘息服務,03-3288001,evonne.huang@msa.hinet.net,黃銘宏,20220407 09:39:12
桃園市蘆竹區長興里辦公處,桃園市,蘆竹區,桃園市蘆竹區長興里長興路四段329-1號,121.2678375,25.06369781,C,巷弄長照站,0937-967-815,無,呂理粲,20210128 10:49:48
拾全拾美樂齡事業有限公司附設桃園市私立潛龍綜合長照機構,桃園市,龍潭區,桃園市龍潭區烏樹林6鄰中豐路640號之2,121.212616,24.88698959,B,喘息服務,03-4990906,Perfect9068@gmail.com,王運昌,20230201 10:31:01
龍和診所,桃園市,桃園區,桃園市桃園區龍安街153號,121.2792816,24.991539,B,專業照護服務,03-3786145,yujaogjr@gmail.com,楊紹輝,20230221 11:36:58
祈癒職能治療所,桃園市,平鎮區,桃園市平鎮區廣泰路201巷24號1樓及2樓,121.2086334,24.91130447,B,專業照護服務,0989-510-851,qiyuoccupation@gmail.com,邱鉉皓,20230220 13:37:48
桃園市私立翔安居家長照機構,桃園市,觀音區,桃園市觀音區崙坪里忠愛路二段115號1樓,121.1592102,24.99867821,B,居家服務, 03-4981118,xiangan.home@msa.hinet.net,張鉯崴,20230201 16:24:26
桃園市龍潭區八德里辦公處,桃園市,龍潭區,桃園市龍潭區八德里桃園市龍潭區八德里梅龍路2號,121.2021561,24.87346268,C,巷弄長照站,0955-315140,80026531@mail.tycg.gov.tw,葉來旺,20191231 18:09:00
財團法人天下為公社會福利基金會附設桃園市私立龍潭老人長期照顧中心(養護型),桃園市,龍潭區,桃園市龍潭區高原里南坑路1075巷82號,121.1794357,24.83330345,B,喘息服務,03-4116889,1050523124@hangan.org,胡世賢,20230118 15:09:15
芯薏企業有限公司附設桃園市私立芯薏居家長照機構,桃園市,桃園區,桃園市桃園區中平路98號19樓之2,121.2926254,24.98759842,B,居家服務,0917-944-249,sine1101216@gmail.com,曾沛婕,20220118 17:21:16
桃園市私立和沁居家長照機構,桃園市,楊梅區,桃園市楊梅區環南路113號1樓,121.1469574,24.90154648,B,喘息服務,03-4752989,ha92541806@gmail.com,陳妤榛,20230117 11:33:17
承源資業股份有限公司附設桃園市私立聯承居家長照機構,桃園市,八德區,桃園市八德區興仁里中興街8號,121.2832489,24.92723465,B,居家服務,03-3683328,isabel@thn-buurtzorg.com,張宏庠,20230313 10:07:48
桃園市私立眾生老人長期照顧中心(養護型),桃園市,大溪區,桃園市大溪區福安里28鄰順和路65號,121.2972641,24.85974121,B,喘息服務,03-3887167,apple_god0706@yahoo.com.tw,徐芬,20230220 14:45:39
桃園市私立雲隼居家長照機構,桃園市,楊梅區,桃園市楊梅區中山里中山北路一段319號,121.1573563,24.90837669,B,喘息服務,034-881-300,yunpp.ltcc@gmail.com,李鈺堂,20230406 15:29:39
桃園市私立澄豐居家長照機構,桃園市,桃園區,桃園市桃園區國強二街259號,121.2757721,24.98277855,B,喘息服務,0975-590-125,yolanda.38g@gmail.com,田錦靜,20230223 09:53:53
桃園市龍潭區百年里辦公處,桃園市,龍潭區,桃園市龍潭區百年里百年二街15巷21號B1,121.2091751,24.87794113,C,巷弄長照站,0936-900969,h4809900@gmail.com,張銘純,20210128 10:43:43
桃園市龜山區貿商社區發展協會,桃園市,龜山區,桃園市龜山區新興里中興路196巷2號1樓,121.3331604,24.98945808,C,巷弄長照站,03-3202334,msn8397@yahoo.com.tw,趙先令,20210128 10:11:47
社團法人桃園市新安照顧技術推廣協會附設桃園市私立新安居家長照機構,桃園市,中壢區,桃園市中壢區延平路500號12樓之1(E室),121.2232895,24.95684624,B,居家服務,(03)427-7990分機115,sn4277990115@gmail.com,吳良慧,20230324 19:16:53
桃園市私立聯新居家式服務類長期照顧服務機構,桃園市,平鎮區,桃園市平鎮區平興里廣泰路77號,121.2052994,24.94669151,B,居家服務,03-4941234,hebe861226@gmail.com,劉慧音,20230201 16:08:41
豐田診所,桃園市,八德區,桃園市八德區豐田二路56號,121.2881317,24.92773628,B,居家失能個案家庭醫師照護服務,03-3656019,Fongtian56@gmail.com,王定一,20230720 14:57:00
(交通接送)桃園市復興區愛心關懷協會,桃園市,復興區,桃園市復興區忠孝路34號,121.3514252,24.81463242,B,交通接送服務,03-3822839,alicewang19891030@gmail.com,王薏茹,20230201 09:08:07
財團法人聯新文教基金會中壢區,桃園市,平鎮區,桃園市平鎮區廣泰路77號,121.1984253,24.90885735,A,個案管理服務,03-4941234,mac21370910@gmail.com,張煥禎,20230125 19:45:59
桃園市私立星之禾居家長照機構,桃園市,八德區,桃園市八德區仁德路180號,121.2865143,24.93527603,B,喘息服務,03-2739503,z92501570@gmail.com,徐季琴,20230111 14:45:38
財團法人真耶穌教會台灣總會桃園分會,桃園市,桃園區,桃園市桃園區中正里仁愛路21號,121.2942886,24.99365044,C,巷弄長照站,0928-010773,nmy630713@gmail.com,尤恩民,20210127 15:13:53
寬福護理之家,桃園市,桃園區,桃園市桃園區龍祥里裕和街35號,121.2738113,24.98214912,B,喘息服務,03-3702500,cfnh99169042@gmail.com,周矢綾,20230118 14:31:05
辰摯健康有限公司附設桃園市私立辰摯居家長照機構,桃園市,桃園區,桃園市桃園區三元里民有六街117號2樓,121.3187943,25.00789452,B,喘息服務,03-3368228,czhi@elitexs.com.tw,簡裕宗,20230203 10:12:02
桃園市撒奇萊雅發展協會,桃園市,龍潭區,桃園市龍潭區龍星里龍華路228號,121.2170334,24.86126709,C,巷弄長照站,03-4802337,ccchungdaw@mohw.gov.tw,待補,20190912 17:40:58
桃園市楊梅區瑞原社區發展協會,桃園市,楊梅區,桃園市楊梅區瑞原里民豐路506號,121.1119003,24.92951202,C,巷弄長照站,03-4728951,muhshan@ms79.hinet.net,葉國桂,20210128 11:04:18
桃園市私立逸慈老人長期照顧中心(養護型),桃園市,桃園區,桃園市桃園區寶慶路201號,121.2923126,25.01379204,B,喘息服務,03-3015051,icheheart0203@gmail.com,陳昀佑,20230221 16:03:40
健亞護理之家,桃園市,桃園區,桃園市桃園區東門里中山東路32-20號4樓之1,121.3142776,24.99567413,B,喘息服務,03-3334203,waitingforyou1029@gmail.com,郭芳如,20230221 15:59:07
桃園市龜山區嶺頂社區發展協會,桃園市,龜山區,桃園市龜山區嶺頂里萬壽路二段6巷61號,121.3643494,25.00267601,C,巷弄長照站,0910-358125,lingding359@gmail.com,呂博夫,20210128 10:11:33
桃園市私立慈照居家式服務類長期照顧服務機構,桃園市,桃園區,桃園市桃園區東門里中山東路21號4樓B2室,121.3139191,24.99581528,B,喘息服務,03-3391181,3391181@gmail.com,曹昌敏,20230221 16:41:22
桃園市私立紫園社區長照機構,桃園市,蘆竹區,桃園市蘆竹區南崁里中正路90號,121.2931137,25.04604912,B,交通接送服務,0955-913261,tanya2004712@yahoo.com.tw,歐雅綺,20230118 17:04:56
敬一銀齡事業股份有限公司附設桃園市私立寶加綜合長照機構,桃園市,桃園區,桃園市桃園區光興里縣府路110號3樓,121.3022995,24.9943409,B,喘息服務,003-336-388,yichingjoyce@gmail.com,楊宜菁,20230319 20:06:34
社團法人桃園市新安照顧技術推廣協會附設桃園市私立新安居家長照機構,桃園市,中壢區,桃園市中壢區延平路500號12樓之1(E室),121.2232895,24.95684624,B,喘息服務,(03)427-7990分機115,sn4277990115@gmail.com,吳良慧,20230617 17:06:36
桃園市私立家瑞居家長照機構(元福),桃園市,大溪區,桃園市大溪區仁武里仁善一街108號,121.2521896,24.8651638,B,居家服務,03-3804675,yuanfu3909835@gmail.com,張家溱,20230201 16:12:31
辰摯健康有限公司附設桃園市私立辰摯居家長照機構,桃園市,桃園區,桃園市桃園區三元里民有六街117號2樓,121.3187943,25.00789452,B,居家服務,03-3368228,czhi@elitexs.com.tw,簡裕宗,20230109 14:54:11
桃園市私立慈恩老人長期照顧中心(養護型),桃園市,中壢區,桃園市中壢區自立三街2巷16、18號,121.2538757,24.96409225,B,喘息服務,03-4558858,liaoch0703@yahoo.com.tw,廖千惠,20230110 13:46:58
桃園市私立滿儒居家長照機構,桃園市,桃園區,桃園市桃園區豐林里介壽路154號1樓,121.3097305,24.98394012,B,喘息服務,03-3660612,manrhuhome@gmail.com,游雅瑜,20230118 14:32:33
臺北榮民總醫院桃園分院附設桃園市彩虹居社區式服務類長期照顧服務機構,桃園市,桃園區,桃園市桃園區三元里008鄰成功路三段100號4樓,121.3252411,25.00437927,B,喘息服務,03-3384889,hr906238ava@gmail.com,王智弘,20190701 18:39:24
財團法人台灣基督長老教會原住民宣道會僑美教會,桃園市,大溪區,桃園市大溪區仁美里介壽路645號,121.2892914,24.91206551,C,巷弄長照站,03-3075670,ccchungdaw@mohw.gov.tw,黃予庭,20190912 11:50:32
桃園市平鎮區義興里辦公處,桃園市,平鎮區,桃園市平鎮區義興里義興街80號,121.2092361,24.94974327,C,巷弄長照站,0931-297-916,sbc450911@yahoo.com.tw,詹瑞梅,20210128 10:41:50
桃園市大園區衛生所,桃園市,大園區,桃園市大園區中正西路19號,121.1954422,25.06340408,B,專業照護服務,03-3862024,10015923@mail.tycg.gov.tw,黃友亮,20201230 14:39:56
桃園市大園區大園社區發展協會,桃園市,大園區,桃園市大園區大園里和平東路89號,121.2002945,25.0626545,C,巷弄長照站,0955-302-469,beautifulmom520@gmail.com,蔡惠如,20210127 17:58:28
桃園市私立雲隼居家長照機構,桃園市,楊梅區,桃園市楊梅區中山里中山北路一段319號,121.1573563,24.90837669,B,居家服務,034-881-300,yunpp.ltcc@gmail.com,李鈺堂,20230201 17:02:31
橙莘健康生活有限公司附設桃園市私立橙莘居家長照機構,桃園市,蘆竹區,桃園市蘆竹區羊稠里中山路72號4樓,121.299202,25.05477333,B,喘息服務,03-2221256,chengsin2021@gmail.com,高子權,20230110 13:31:17
金色年代長照社團法人附設桃園市私立金色年華綜合長照機構,桃園市,中壢區,桃園市中壢區普義里立和路58巷66號1樓、68號1至4樓、70號1樓,121.2314148,24.95827866,B,居家服務,03-4623626,med01@tcmg.com.tw,徐向謙,20230118 16:53:01
五福診所,桃園市,龍潭區,桃園市龍潭區中山里五福街13號,121.2177658,24.86512947,B,居家失能個案家庭醫師照護服務,03-4709709,jay4709709@gmail.com,閻中傑,20230720 13:24:17
中敏護理之家,桃園市,中壢區,桃園市中壢區普義里中山東路二段525-7號2樓,121.2462311,24.94734955,B,喘息服務,03-4371000,n7432021654@gmail.com,王燕萍,20230220 16:08:04
桃園市平鎮區雙連里辦公處,桃園市,平鎮區,桃園市平鎮區雙連里民族路雙連二段118巷22號,121.1832428,24.96012115,C,巷弄長照站,03-4903987,mm372765@yahoo.com.tw,劉邦利,20190814 16:24:20
桃園市葛瑪璐長照資源整合協會,桃園市,復興區,桃園市復興區忠孝路34號2樓,121.3514252,24.81463242,B,交通接送服務,033-821-335,alicewang19891030@gmail.com,徐明瑛,20230118 16:58:54
桃園市觀音區上大里辦公處,桃園市,觀音區,桃園市觀音區上大里大湖路一段510號,121.147583,24.97814751,C,巷弄長照站,0936-047680,wang87652@gmail.com,宋士林,20210128 10:50:16
臺北榮民總醫院桃園分院附設桃園市彩虹居社區式服務類長期照顧服務機構,桃園市,桃園區,桃園市桃園區三元里008鄰成功路三段100號4樓,121.3252411,25.00437927,B,喘息服務,03-3384889,hr906238ava@gmail.com,王智弘,20230118 16:45:46
拾全拾美樂齡事業有限公司附設桃園市私立潛龍綜合長照機構,桃園市,龍潭區,桃園市龍潭區烏樹林6鄰中豐路640號之2,121.212616,24.88698959,B,日間照顧服務,03-4990906,Perfect9068@gmail.com,王運昌,20230201 10:31:01
桃園市私立澄豐居家長照機構,桃園市,桃園區,桃園市桃園區國強二街259號,121.2757721,24.98277855,B,居家服務,0975-590-125,yolanda.38g@gmail.com,田錦靜,20220613 16:48:01
桃園市龍潭區高原里辦公處,桃園市,龍潭區,桃園市龍潭區高原里中原路3段135號,121.1919174,24.82633781,C,巷弄長照站,03-4793070#1207,a4717452@yahoo.com.tw,黃玉琴,20210127 17:53:46
桃園市私立照協居家式服務類長期照顧服務機構,桃園市,大溪區,桃園市大溪區一德里中央路27號1樓之1,121.2204819,25.1008606,A,個案管理服務,03-3873970,exit710622@gmail.com,胡金蓮,20230125 19:48:01
桃園市私立思源社區長照機構,桃園市,桃園區,桃園市桃園區青溪里25鄰鎮三街124巷2號1樓,121.3129349,24.99917412,B,家庭托顧服務,03-3384990,mpm.rebecca@gmail.com,鍾麗美,20230118 16:59:38
財團法人天主教德來會附設桃園市私立德來綜合長照機構,桃園市,桃園區,桃園市桃園區三民里三民路一段2號2樓,121.3233032,24.99634743,B,喘息服務,03-3317226,joannahsieh9102005@yahoo.com,蔡宜芬,20230221 16:44:59
財團法人聯新文教基金會,桃園市,平鎮區,桃園市平鎮區廣泰路77號,121.2052994,24.94669151,B,營養餐飲服務,03-4941234#4873,chenyijung@landseed.com.tw,羅澤華,20201231 22:11:02
桃園市龍潭區中興里辦公處,桃園市,龍潭區,桃園市龍潭區中興里中興路240巷38號,121.2347641,24.87562561,C,巷弄長照站,0910-631-811,veita17@yahoo.com.tw,彭石松,20210128 10:43:29
財團法人台灣基督長老教會泰雅爾中會比亞外教會,桃園市,復興區,桃園市復興區高義里12鄰比亞外4號,121.3543777,24.72680664,C,巷弄長照站,03-3821325,ccchungdaw@mohw.gov.tw,待補,20190903 09:09:45
愛爾德長者事業有限公司附設桃園市私立喜大人晨寶社區長照機構,桃園市,大園區,桃園市大園區橫峰里010鄰中正東路97-2號3樓,121.201149,25.06280899,B,日間照顧服務,287-3224,jayg1981111108@gmail.com,廖思琪,20230426 13:48:39
桃園市私立喜來樂社區長照機構,桃園市,中壢區,桃園市中壢區至善里021鄰後寮一路161號3樓,121.246727,24.93965721,B,日間照顧服務,03-4163938,xilailf2020@gmail.com,何雪美,20230118 16:55:03
愛麗康診所,桃園市,中壢區,桃園市中壢區中正路110號,121.8061764,25.1096872,B,居家失能個案家庭醫師照護服務,03-4518830,drjames3388@gmail.com,江明吉,20230720 14:33:04
桃園市私立名揚居家長照機構,桃園市,楊梅區,桃園市楊梅區紅梅里秀才路33號1樓(前棟),121.0852509,24.89943314,B,喘息服務,03-4851355,myhsltci@gmail.com,陳秀珠,20230406 16:14:14
馨安居家護理所,桃園市,中壢區,桃園市中壢區元化路224號12樓104室,121.2024918,25.00819397,B,專業照護服務,0975-590-125,ettv0709@kimo.com,田錦靜,20230118 15:16:02
敏昌診所,桃園市,中壢區,桃園市中壢區福德路32號,121.2588348,24.97392464,B,居家失能個案家庭醫師照護服務,03-4550348,231.mcmg@gmail.com,黃俊敏,20230720 13:27:12
有限責任台灣智群看護家事管理勞動合作社附設桃園市私立智群居家長照機構,桃園市,桃園區,桃園市桃園區龍岡里文中路509號4樓,121.1982727,24.87929916,B,居家服務,(03)2170580,twzq85351532@gmail.com,黃培鈞,20230201 17:09:35
桃園市八德區衛生所附設居家護理所,桃園市,八德區,桃園市八德區介壽路二段361巷28號,121.2985764,24.94747353,B,專業照護服務,,badhc310@tpmail.mohw.gov.tw,郭雅苓,20230220 14:36:43
桃園市私立十分之一居家長照機構,桃園市,桃園區,桃園市桃園區大興西路二段6號8樓之4,121.2995071,25.01231384,B,居家服務,03-3028810,onetenth20211001@gmail.com,周璟翔,20230201 17:17:14
桃園市龍潭區衛生所,桃園市,龍潭區,桃園市龍潭區大昌路一段277號2樓&4樓,121.2203674,24.87016106,B,專業照護服務,03-4792033,10014913@mail.tycg.gov.tw,歐陽昕,20201230 13:23:35
敏盛綜合醫院,桃園市,桃園區,桃園市桃園區經國路168號,121.3063507,25.01639175,B,專業照護服務,03-3179599,aprilliu54@gmail.com,楊弘仁,20230221 11:09:48
桃園市私立鈺?社區長照機構,桃園市,中壢區,桃園市中壢區自強里020鄰榮民路128號6樓,121.2603378,24.96751976,B,日間照顧服務, 03-4350707,yuchyuan110@gmail.com,蔡惠如,20230118 16:56:14
臺北榮民總醫院桃園分院,桃園市,桃園區,桃園市桃園區三元里成功路三段100號,121.3252411,25.00437927,B,專業照護服務,03-3384889,t080@tyvh.gov.tw,王智弘,20230302 10:35:11
桃園市楊梅志願服務協會,桃園市,楊梅區,桃園市楊梅區紅梅里校前路5號,121.1441345,24.90574646,C,巷弄長照站,0933-081916,asdfgh3606@yahoo.com.tw,鄭淑方,20210127 16:55:18
社團法人桃園市愛鄰舍協會附設桃園市私立幸福社區式服務類長期照顧服務機構,桃園市,中壢區,桃園市中壢區石頭里013鄰復興路161號3樓,121.2236633,24.95383644,B,日間照顧服務,03-4266770,olive4002@hotmail.com,楊若君,20230417 08:21:57
桃園市桃園區同安社區發展協會,桃園市,桃園區,桃園市桃園區同安里新埔六街140號2樓,121.3006897,25.01777458,C,巷弄長照站,03-3165912,linvxz37@gmail.com,林峻宇,20210127 16:52:00
財團法人桃園市私立怡德老人長期照顧中心(養護型),桃園市,龍潭區,桃園市龍潭區中正路三林段619巷105號,121.2390289,24.8477459,B,喘息服務,03-4092468,yanzixian000172@gmail.com,林哲弘,20230118 15:35:00
桃園市私立宜適康居家長照機構,桃園市,平鎮區,桃園市平鎮區平興里桃園市平鎮區平興里延平路二段350之3號1樓,121.2073669,24.94401169,B,喘息服務,032-757-872,in851@usc.edu,林峻?,20230118 14:40:20
財團法人新生醫護管理專科學校,桃園市,龍潭區,桃園市龍潭區高平里中豐路高平段418號,121.2086945,24.83191109,C,巷弄長照站,03-4117578#132,huangyellow1967@gmail.com,吳建興,20210127 15:09:37
桃園市平鎮區義民社區發展協會,桃園市,平鎮區,桃園市平鎮區義民里復旦路2段23巷8號,121.2050171,24.94739151,C,巷弄長照站,03-4912374,a4912374@yahoo.com.tw,宋梅照,20210127 16:50:11
桃園市龜山區龍華社區發展協會,桃園市,龜山區,桃園市龜山區龍華里萬壽路一段422巷22弄43-1號,121.4008789,25.01777649,C,巷弄長照站,0928-622558,safe558@gmail.com,許森能,20191231 20:06:21
貴族樂活股份有限公司附設桃園市私立貴族居家長照機構,桃園市,中壢區,桃園市中壢區中山路88號12樓之1、2,121.2264328,24.95534706,B,喘息服務,0983-719-760,noble91338592@gmail.com,張經,20230110 14:03:37
峰旺實業有限公司附設桃園市私立慈愛社區長照機構,桃園市,中壢區,桃園市中壢區幸福里002鄰延平路98號1樓,121.2304382,24.96362877,B,喘息服務,03-4515443,watermelon791030@gmail.com,高秋鑾,20230118 16:57:18
峰旺實業有限公司附設桃園市私立慈愛社區長照機構,桃園市,中壢區,桃園市中壢區幸福里002鄰延平路98號1樓,121.2304382,24.96362877,B,交通接送服務,03-4515443,watermelon791030@gmail.com,高秋鑾,20230118 16:57:04
大樂樂健康事業有限公司附設桃園市私立大久居家長照機構,桃園市,桃園區,桃園市桃園區文明里南華街60號6樓之1,121.3085327,24.99037361,B,喘息服務,033-390-063,dajiu111@gmail.com,陳彥伶,20230117 11:26:25
旭登護理之家大溪區,桃園市,大溪區,桃園市大溪區文化路217號1樓,121.3225327,24.91088295,A,個案管理服務,03-3872002,kobe@zhco.com.tw,李麗珠,20230125 19:27:36
社團法人桃園市愛鄰舍協會(湧光據點),桃園市,平鎮區,桃園市平鎮區湧光里湧光路2巷13弄15號,121.2101746,24.8988781,C,巷弄長照站,,sphyae683@hotmail.com,林雄堅,20210127 16:05:10
國軍桃園總醫院附設民眾診療服務處,桃園市,龍潭區,桃園市龍潭區中興路168號,121.2348251,24.87696838,A,個案管理服務,03-4799595,gracekao2003@gmail.com,周勝傑,20230125 19:48:38
敬一銀齡事業股份有限公司附設桃園市私立寶加綜合長照機構,桃園市,桃園區,桃園市桃園區光興里縣府路110號3樓,121.3022995,24.9943409,B,日間照顧服務,003-336-388,yichingjoyce@gmail.com,楊宜菁,20230118 17:14:44
桃園市大溪區南興社區發展協會,桃園市,大溪區,桃園市大溪區南興里仁和路2段190巷89號,121.2082596,25.04327965,C,巷弄長照站,0919-351558,stan.su520@yahoo.com.tw,江朝財,20210127 16:12:36
桃園市平鎮區高連社區發展協會,桃園市,平鎮區,桃園市平鎮區高雙里高雙路80號,121.2246323,24.93741608,C,巷弄長照站,03-4938765,liu19471020@gmail.com,劉兆青,20210127 16:49:40
晨新診所,桃園市,蘆竹區,桃園市蘆竹區錦興里中正路357號,121.2909393,25.04900551,B,居家失能個案家庭醫師照護服務,03-3222232,jean198122@gmail.com,呂慶城,20230720 13:16:26
桃園市私立龍昌社區長照機構,桃園市,中壢區,桃園市中壢區龍昌里020鄰龍昌路324巷103號1樓,121.246048,24.93367577,B,家庭托顧服務,03-4361585,fykv1428@ms56.hinet.net,楊漢卿,20230419 19:05:52
桃園市龍潭區三和社區發展協會,桃園市,龍潭區,桃園市龍潭區三和里21號,121.207634,24.86859894,C,巷弄長照站,03-4798995,a159227@yahoo.com.tw,黃月錩,20210127 17:04:08
億家安居家物理治療所,桃園市,桃園區,桃園市桃園區正康二街36號,121.2945557,24.99601555,B,專業照護服務(CC01),03-3363431,wholecarept@gmail.com,李?宇,20230802 17:19:14
桃園市平鎮區廣興里辦公處,桃園市,平鎮區,桃園市平鎮區廣興里明德北路11號,121.2145081,24.95340347,C,巷弄長照站,0937-858-899,xiuying858@gmail.com,溫秀英,20210128 10:41:33
職物語長照事業有限公司附設桃園市私立樂職心綜合長照機構,桃園市,桃園區,桃園市桃園區春日里2鄰春日路1038號3樓,121.3087692,25.01913834,B,喘息服務,03-3575608,ceo@ops-group.org,李柏毅,20230118 17:07:00
桃園市龜山區幸福社區發展協會,桃園市,龜山區,桃園市龜山區幸福里幸福一街38號之一,121.3344269,24.987854,C,巷弄長照站,0921-147246,104123@mail.tycg.gov.tw,林文德,20191231 19:49:11
桃園市大溪區仁和社區發展協會,桃園市,大溪區,桃園市大溪區仁和里仁和七街159號二樓,121.273735,24.89758492,C,巷弄長照站,0972-051093,wangtj86@gmail.com,王萬春,20210127 16:13:08
護衛你居家護理所,桃園市,桃園區,桃園市桃園區桃鶯路62-3號18樓,121.3174896,24.98672485,B,專業照護服務,0912-451-372,ting12451@yahoo.com.tw,張弈緹,20230524 11:42:36
太陽桃園長照社團法人附設桃園市私立龍潭住宿長照機構,桃園市,龍潭區,桃園市龍潭區中山里中豐路52號,121.2141495,24.87113953,B,喘息服務,03-2866068,a0919037178@gmail.com,李小玲,20230807 09:08:04
桃園市私立寬福居家式服務類長期照顧服務機構,桃園市,桃園區,桃園市桃園區龍祥里裕和街35號,121.2738724,24.98214912,B,喘息服務,03-3702500,cfnh99169042@gmail.com,周矢綾,20230223 10:02:38
和頌長照社團法人附設桃園市私立和頌住宿長照機構,桃園市,桃園區,桃園市桃園區南門里建國路313號1至8樓,121.3048477,24.98471069,B,喘息服務,03-218-8267,service@hyggetw.com,簡妤娟,20230303 20:39:53
桃園市歡喜學堂推廣協會(興榮里),桃園市,蘆竹區,桃園市蘆竹區興榮里中正路287號3樓之2,121.2918396,25.04740524,C,巷弄長照站,0975-390-636,80020481@mail.tycg.gov.tw,楊振凰,20191231 14:54:03
職物語長照事業有限公司附設桃園市私立樂職心綜合長照機構,桃園市,桃園區,桃園市桃園區春日里2鄰春日路1038號3樓,121.3087692,25.01913834,B,喘息服務,03-3575608,ceo@ops-group.org,李柏毅,20220408 16:11:02
桃園市大溪區新峰社區發展協會,桃園市,大溪區,桃園市大溪區新峰里復興路2段758巷48號,121.3019943,24.99132729,C,巷弄長照站,0931-394091,ttgfran@yahoo.com.tw,葉日華,20210127 17:19:35
桃園市安平鎮庄文化協會,桃園市,平鎮區,桃園市平鎮區鎮興里中興路平鎮段229號,121.1934891,24.90609169,C,巷弄長照站,03-4190309,jung140988@gmail.com,陳建榮,20210127 16:40:20
桃園市桃園區三民里辦公處,桃園市,桃園區,桃園市桃園區三民里11鄰中山東路128號,121.320694,24.99771309,C,巷弄長照站,0939-098363,m1995726@yahoo.com.tw,康進旺,20210128 10:42:27
桃園市私立關愛居家長照機構,桃園市,中壢區,桃園市中壢區和平里文成南街93號1樓,121.2518463,24.9783287,B,居家服務,03-4615357,dondon123ok@gmail.com,莊家泰,20230201 16:11:01
安家護理之家,桃園市,楊梅區,桃園市楊梅區瑞原里民有路一段258號,121.1170273,24.93846321,B,喘息服務,03-4856829,anjiahouse@hotmail.com,鄭燕玲,20230502 11:06:24
桃園市龍潭區黃唐社區發展協會,桃園市,龍潭區,桃園市龍潭區黃唐里武中路10號,121.2053986,24.84449196,C,巷弄長照站,0932-905335,a0932905334@yahoo.com.tw,劉修增,20210127 17:03:33
沛田心理治療所,桃園市,大園區,桃園市大園區橫峰里高鐵南路1段50號5樓-8,121.2125626,25.01195145,B,專業照護服務,03-2871007,mandy265@hotmail.com,李沛嫻,20230220 14:33:27
桃園市私立東陽老人長期照顧中心(養護型),桃園市,中壢區,桃園市中壢區興仁路2段152-2號,121.2632217,24.96618271,B,喘息服務,03-2850571,eastsun1020525@gmail.com,廖珮妏,20230110 13:56:07
安然企業股份有限公司附設桃園市私立富安居家長照機構,桃園市,中壢區,桃園市中壢區元化路224號6樓,121.2267151,24.96111679,B,居家服務,03-4265566,anran0906337165@gmail.com,林鴻淙,20230407 18:05:40
有限責任台灣智群看護家事管理勞動合作社附設桃園市私立智群居家長照機構,桃園市,桃園區,桃園市桃園區龍岡里文中路509號4樓,121.1982727,24.87929916,B,喘息服務,(03)2170580,twzq85351532@gmail.com,黃培鈞,20230118 15:10:25
南雅護理之家,桃園市,桃園區,桃園市桃園區東門里中山東路32-20號7樓-8樓,121.3142776,24.99567413,B,喘息服務,03-3361501,nanya1040913@gmail.com,黃如霞,20230224 09:42:07
桃園市新屋區頭洲社區發展協會,桃園市,新屋區,桃園市新屋區頭洲里中山東路2段668巷48號2樓,121.1440506,24.96254539,C,巷弄長照站,03-4906688,li.p0920@msa.hinet.net,吳瑞珠,20210127 17:12:50
桃園市私立丞安居家長照機構,桃園市,龜山區,桃園市龜山區自強西路230號1樓,121.3328171,24.99639702,B,喘息服務,03-2133559,chengan350559@gmail.com,吳佳蓉,20230323 10:18:28
奎輝文化健康站,桃園市,復興區,桃園市復興區奎輝里3鄰羅馬路三段355號,121.3343735,24.79698563,C,巷弄長照站,03-3822859,10019341@mail.tycg.gov.tw,李香蘭,20200417 16:11:58
桃園市私立元福護理之家,桃園市,大溪區,桃園市大溪區瑞源里石園路760巷316號,121.2521896,24.8651638,B,喘息服務,03-3909835,wcwc6412@gmail.com,王秋琪,20230221 14:50:30
桃園市歡喜學堂推廣協會,桃園市,蘆竹區,桃園市蘆竹區福興里奉化路104巷45弄11號1樓,121.2881241,25.039011,C,巷弄長照站,0980-303740,2018happycorner2@gmail.com,楊振鳳,20210127 17:05:34
楊梅區大合社區發展協會,桃園市,楊梅區,桃園市楊梅區大同里自立街2號,121.1491165,24.91100311,C,巷弄長照站,03-4789068,cha.yello@yahoo.com.tw,張原嘉,20210127 16:57:14
桃園市中壢區山東社區發展協會,桃園市,中壢區,桃園市中壢區山東里山東路1010號1樓,121.2448807,24.94793892,C,巷弄長照站,0932-370516,yc1782c@yahoo.com.tw, 陳益卿  ,20210127 16:35:36
天成醫療社團法人天晟醫院,桃園市,中壢區,桃園市中壢區延平路155號,121.2290726,24.9625988,B,居家失能個案家庭醫師照護服務,03-4627735,tcmgjt01@gmail.com,鄭貴麟,20230720 14:26:35
祐民醫院附設居家護理所,桃園市,中壢區,桃園市中壢區民族路二段180號,121.2037735,24.95746994,B,專業照護服務,03-4915656,rosy366@yahoo.com.tw,黃淑玲,20230203 10:45:32
旭登護理之家桃園區,桃園市,桃園區,桃園市桃園區中正路1226之1號2樓,121.293869,25.02588463,A,個案管理服務,03-2181190,sdhs2181190@gmail.com,李麗珠,20230125 19:27:46
國軍桃園總醫院附設民眾診療服務處附設陶然園社區長照機構,桃園市,龍潭區,桃園市龍潭區中山里10鄰中興路670-1號,121.221199,24.87249184,B,日間照顧服務,409-5664,caca0122will@yahoo.com.tw,商仕達,20230201 09:34:44
桃園市八德區大千里辦公處,桃園市,八德區,桃園市八德區大千里東勇街19巷13弄10號,121.3059616,24.96015167,C,巷弄長照站,0919-068697,jing5899@hotmail.com,呂黎靜,20210128 16:25:46
臺北榮民總醫院桃園分院附設桃園市彩虹居社區式服務類長期照顧服務機構,桃園市,桃園區,桃園市桃園區三元里008鄰成功路三段100號4樓,121.3252411,25.00437927,B,日間照顧服務,03-3384889,hr906238ava@gmail.com,王智弘,20190701 17:23:37
桃園市桃園區新埔社區發展協會,桃園市,桃園區,桃園市桃園區同德里南通路65號,121.3052979,25.02021217,C,巷弄長照站,03-3250070,huangrachelaw@gmail.com,郭雅?,20210127 16:51:42
桃園市大溪區下田心社區發展協會,桃園市,大溪區,桃園市大溪區一心里民權東路94巷29號,121.2912445,24.88135719,C,巷弄長照站,03-3886936,eijietw@gmail.com,謝添源,20210127 16:13:31
智能醫學科技股份有限公司附設桃園市私立祥寶尊榮居家長照機構,桃園市,中壢區,桃園市中壢區中正路四段596號10樓,121.172699,24.99224281,B,居家服務,03-2820605,shiangbao.hs@gmail.com,林哲弘,20220125 19:28:48
社團法人桃園市愛鄰舍協會附設桃園市私立幸福社區式服務類長期照顧服務機構,桃園市,中壢區,桃園市中壢區石頭里013鄰復興路161號3樓,121.2236633,24.95383644,B,喘息服務,03-4266770,olive4002@hotmail.com,楊若君,20230417 08:16:04
職物語長照事業有限公司附設桃園市私立樂職心綜合長照機構,桃園市,桃園區,桃園市桃園區春日里2鄰春日路1038號3樓,121.3087692,25.01913834,B,居家服務,03-3575608,ceo@ops-group.org,李柏毅,20230118 17:07:00
桃園市原住民社會服務權益促進會,桃園市,龜山區,桃園市龜山區大華里文化七路118巷9號,121.3661575,25.05051231,C,巷弄長照站,03-3961060,ccchungdaw@mohw.gov.tw,待補,20190903 17:06:15
桃園市私立富立水社區長照機構,桃園市,中壢區,桃園市中壢區興南里006鄰延平路326號3樓、326之1號3樓,121.2254868,24.96043587,B,喘息服務,03-4258084,FLS4258084@hibox.biz,陳淑惠,20230118 16:54:31
桃園市私立大利家社區長照機構,桃園市,桃園區,桃園市桃園區陽明十二街15號17號,121.3097,24.97866249,B,喘息服務,03-3663320,chenchen5401@gmail.com,陳忱,20230118 17:24:14
松林護理之家,桃園市,龜山區,桃園市龜山區文化里復興北路6巷46號,121.3676834,25.0585556,B,喘息服務,03-3180999,87955@cch.org.tw,簡慧足,20220331 09:39:09
利鎮物業管理顧問有限公司附設桃園市私立利鎮居家長照機構,桃園市,蘆竹區,桃園市蘆竹區南崁路一段83號7樓之2,121.2886581,25.05113792,B,居家服務,0911-388-852,lijencare@gmail.com,張萬利,20221012 13:27:35
桃園市大溪區一德里辦公處,桃園市,大溪區,桃園市大溪區一德里文化路253號,121.2884445,24.8761673,C,巷弄長照站,0933-939-341,liao221664@gmail.com,呂理民,20190814 16:19:03
桃園市私立晴天居家長照機構,桃園市,平鎮區,桃園市平鎮區中豐路110號2樓,121.2511063,24.91927338,B,居家服務,0907-950-995,Sd.homecare429@gmail.com,王曉倩,20230201 17:15:25
桃園市新屋區新生社區發展協會,桃園市,新屋區,桃園市新屋區新生里中山路370號2樓,121.1041946,24.97287369,C,巷弄長照站,0932-933663,sheefunn@kimo.com,鍾旭?,20210809 18:22:23
敬一銀齡事業股份有限公司附設桃園市私立寶平綜合長照機構,桃園市,桃園區,桃園市桃園區寶安里南平路598號1樓,121.2918625,25.01548386,B,喘息服務,03-3017188,judy@genuinecare.com.tw,楊宜菁,20230223 09:43:16
顧得樂長照有限公司附設桃園市私立顧得樂居家長照機構,桃園市,平鎮區,桃園市平鎮區環南路18號8樓之五,121.2066498,24.95661926,B,居家服務,03-4924757,a034259979@gmail.com,張譽籇,20230201 17:18:47
財團法人中保關懷社會福利基金會附設桃園市私立觀音石橋社區長照機構,桃園市,觀音區,桃園市觀音區新興里7鄰文化路石橋段453號1樓,121.0965652,25.00687599,B,日間照顧服務,447-7157,elva002004@gmail.com,洪培修,20230426 13:38:49
楊梅區豐野社區發展協會,桃園市,楊梅區,桃園市楊梅區豐野里4鄰信義街83巷25弄23號,121.0841446,24.93646812,C,巷弄長照站,0933-148726,liu9797mail@yahoo.com.tw,黃華府,20210128 10:01:42
愛爾德長者事業有限公司附設桃園市私立喜大人晨寶社區長照機構,桃園市,大園區,桃園市大園區橫峰里010鄰中正東路97-2號3樓,121.201149,25.06280899,B,交通接送服務,287-3224,jayg1981111108@gmail.com,廖思琪,20230426 16:10:49
臻鋐有限公司附設桃園市私立歲月靜好社區長照機構,桃園市,桃園區,桃園市桃園區中平里027鄰中山路599號4樓,121.2945862,24.99081421,B,日間照顧服務,03-2289279,KOBE@zhco.com.tw,李麗珠,20230118 17:17:40
桃園市蘆竹區錦興社區發展協會,桃園市,蘆竹區,桃園市蘆竹區錦興里光明路二段143巷29號,121.2866211,25.04815292,C,巷弄長照站,0916-116469,jinsing520@gmail.com,莊守智,20210128 10:14:08
南港里文化健康站,桃園市,大園區,桃園市大園區南港里文治路20號,121.1689987,25.05068016,C,巷弄長照站,03-3322101#6686,10019341@mail.tycg.gov.tw,黃斐鑫,20200420 02:05:25
中華民國紅十字會桃園市分會,桃園市,桃園區,桃園市桃園區中興里中福街66號,121.3039169,24.99761963,B,喘息服務,03-3327609,tyred3393531@gmail.com,劉志清,20190628 17:05:26
桃園市新屋區後湖社區發展協會,桃園市,新屋區,桃園市新屋區新生里三民路1段68號,121.1001587,24.96981239,C,巷弄長照站,0919-972871,a96692003@gmail.com,徐玉春,20210127 17:13:40
桃園市觀音區富林社區發展協會,桃園市,觀音區,桃園市觀音區富林里大觀路三段463號,121.120842,25.03645325,C,巷弄長照站,03-4834541,ni4839563@yahoo.com.tw,李英桃,20210127 17:55:27
桃園市私立弘成居家長照機構,桃園市,桃園區,桃園市桃園區中山里中平路98號5樓之1,121.2926254,24.98759842,B,喘息服務,03-2205627,honchen1002@gmail.com,陳妤榛,20211111 08:44:06
祈癒職能治療所,桃園市,平鎮區,桃園市平鎮區廣泰路201巷24號1樓及2樓,121.2086334,24.91130447,B,專業照護服務(CC01),0989-510-851,qiyuoccupation@gmail.com,邱鉉皓,20230802 17:19:14
桃園市八德區瑞泰社區發展協會,桃園市,八德區,桃園市八德區瑞泰里介壽路2段583巷12號,121.2984085,24.94215202,C,巷弄長照站,03-3669343,k53618@yahoo.com.tw,褚明賢,20210127 16:10:06
愛爾德長者事業有限公司附設桃園市私立喜大人東門社區長照機構,桃園市,桃園區,桃園市桃園區東山里安東街17號2樓,121.31633,24.99124718,B,日間照顧服務,03-3344062,dongmen@joyelder.org.tw,廖思琪,20230118 17:15:49
桃園市私立龍德社區長照機構,桃園市,新屋區,桃園市新屋區新屋里中華路214號,121.4857864,25.01468468,B,日間照顧服務,03-4970361,2022longde@gmail.com,彭振亮,20230118 17:24:39
財團法人台灣省中國基督教靈糧堂世界佈道會中壢靈糧堂(龍潭活水靈糧堂),桃園市,龍潭區,桃園市龍潭區中正里龍華路440號,121.2172775,24.85689545,C,巷弄長照站,0911-239858,80026531@mail.tycg.gov.tw,鍾添曜,20191231 18:19:09
本芯居家物理治療所,桃園市,龜山區,桃園市龜山區中興路66號5樓,121.3577271,25.0513916,B,專業照護服務,03-3596985,hide.hiko.tsai@gmail.com,楊本慈,20220302 17:28:44
桃園市大溪區月眉社區發展協會,桃園市,大溪區,桃園市大溪區月眉里月湖路56號,121.2082596,25.04327965,C,巷弄長照站,03-3873089,3870556@gmaI.com,林黃興,20210127 16:13:58
桃園市桃園區衛生所附設居家護理所,桃園市,桃園區,桃園市桃園區國豐三街123號4樓,121.2786789,24.99021149,B,專業照護服務,,10030641@mail.tycg.gov.tw,武冬玲,20230221 11:13:48
善誠健康事業股份有限公司附設桃園市私立八德善誠居家長照機構,桃園市,八德區,桃園市八德區東勇街69巷8號1樓,121.3062592,24.96292114,B,喘息服務,02-361-6880,alicia.hung@medtecs.com,林仁德,20230117 10:01:54
桃園市大溪區仁善社區發展協會,桃園市,大溪區,桃園市大溪區仁善里仁德街19號,121.1954575,25.06385612,C,巷弄長照站,0933-945626,dscr033900422@gmail.com,陳秀華,20210127 16:14:18
逸居股份有限公司附設桃園市私立幸福時光居家長照機構,桃園市,楊梅區,桃園市楊梅區金龍三路9號1樓,121.1866837,24.91191673,B,居家服務,02-77519258,candyyang0930@gmail.com,李淑貞,20230918 10:20:39
青華家鏈照股份有限公司附設桃園市私立青華活力居家長照機構,桃園市,中壢區,桃園市中壢區中央西路一段1號7樓(709室),121.2233582,24.95715332,B,喘息服務,03-4258052,chcc0975609928cl@gmail.com,林青榖,20230220 16:11:01
財團法人桃園市私立甡光社會福利基金會附設桃園市私立甡光老人長期照顧中心(養護型),桃園市,平鎮區,桃園市平鎮區南平路二段516巷99號,121.1930847,24.92380714,B,喘息服務,03-4643380,wanitalee0813@gmail.com,楊牡真,20230203 10:44:32
加利利愛鄰全人關懷協會,桃園市,桃園區,桃園市桃園區光興里縣府路110號4樓,121.3025208,24.99432564,C,巷弄長照站,03-3322806,farley303532@gmail.com,林伯昶,20210127 16:52:29
桃園市蘆竹區海湖社區發展協會,桃園市,蘆竹區,桃園市蘆竹區海湖里海湖東路272號,121.2651672,25.10832787,C,巷弄長照站,0989-721367,rankb015@yahoo.com.tw,黃文來,20210128 10:12:05
財團法人桃園市護國宮愛心基金會,桃園市,桃園區,桃園市桃園區中德里國際路1段401巷123號,121.2897415,24.97021484,C,巷弄長照站,03-3621111,hg3877@ms51.hinet.net,鄭圳成,20210127 15:08:19
桃園市蘆竹區瓦窯社區發展協會,桃園市,蘆竹區,桃園市蘆竹區瓦窯里仁愛路1段2號(婦幼館內),121.2934189,25.05064774,C,巷弄長照站,0933-373836,c8_1996@yahoo.com.tw,吳國勝,20210128 10:12:42
(新北)豐均國際租賃有限公司,桃園市,桃園區,桃園市桃園區國際路二段168-1號2樓,121.288147,24.99437332,B,交通接送服務,02-26642156,fengjun20190701@gmail.com,張雅萍,20220323 11:52:00
桃園市大園區?林社區發展協會,桃園市,大園區,桃園市大園區?林里27鄰坑果路218巷19號,121.2628708,25.0824585,C,巷弄長照站,0916-246-787,hsiaofenfen@yahoo.com.tw,陳錫達,20210127 17:59:36
桃園市私立浤益居家長照機構,桃園市,龜山區,桃園市龜山區嶺頂里17鄰萬壽路二段339號3樓,121.3568649,25.00128365,B,喘息服務,03-3500625,hongyi.homecare@gmail.com,陳濬豪,20230118 15:15:36
民安診所,桃園市,楊梅區,桃園市楊梅區楊梅里大成路175號1樓,121.1457138,24.9124279,B,居家失能個案家庭醫師照護服務,03-4757681,4826241@gmail.com,何建翰,20230720 13:19:41
桃園市龜山區大湖社區發展協會,桃園市,龜山區,桃園市龜山區山頂里忠義路2段638巷5號,121.3577423,25.05658722,C,巷弄長照站,03-3289065,k3289065@yahoo.com.tw,杜國斌,20210127 17:18:30
財團法人天主教德來會附設桃園市私立德來綜合長照機構,桃園市,桃園區,桃園市桃園區三民里三民路一段2號2樓,121.3233032,24.99634743,B,喘息服務,03-3317226,joannahsieh9102005@yahoo.com,蔡宜芬,20230221 16:44:59
桃園市平鎮區衛生所,桃園市,平鎮區,桃園市平鎮區振興路1號,121.2181702,24.94546127,B,專業照護服務,03-4584510,10026116@mail.tycg.gov.tw,許柏儒,20201230 13:21:33
聯心診所,桃園市,中壢區,桃園市中壢區民族路五段310號,121.1703033,24.9585247,B,居家失能個案家庭醫師照護服務,004-205-017,lianenen1477@gmail.com,陳榮祥,20230720 13:35:41
桃園市平鎮區東社社區發展協會,桃園市,平鎮區,桃園市平鎮區東社里圳南路10鄰50巷23號,121.1934891,24.90609169,C,巷弄長照站,0932-905335,pcuh7343@yahoo.com.tw,謝彩波,20210127 16:41:23
桃園市光復原住民文教發展協會,桃園市,中壢區,桃園市中壢區新興里執信二街41號,121.2255325,24.94398308,C,巷弄長照站,03-4588901,ccchungdaw@mohw.gov.tw,楊媄茵,20210127 17:53:04
姜博文診所中壢區,桃園市,楊梅區,桃園市楊梅區桃園市楊梅區永美路335號2樓,121.1840057,25.00223923,A,個案管理服務,03-4826250,4826241@gmail.com,姜博文,20230125 19:44:01
桃園市私立高強居家長照機構,桃園市,新屋區,桃園市新屋區新屋里大智路48號,121.106308,24.9701767,B,喘息服務,03-4972448,yuanhsc@livemail.tw,袁智芬,20230220 16:18:54
衛生福利部桃園醫院新屋分院新屋區,桃園市,新屋區,桃園市新屋區新福二路6號,121.0734558,24.9823246,B,專業照護服務,4971989#5262,fanwen5263@gmail.com,鄭明德,20201230 11:42:04
歡喜學堂推廣協會附設桃園市私立歡喜到宅居家長照機構,桃園市,蘆竹區,桃園市蘆竹區羊稠里中山路12號2樓,121.3015137,25.05085182,B,喘息服務,03-3222606,happycare3222606@gmail.com,吳忠泰,20230118 15:09:52
桃園市蘆竹區蘆竹社區發展協會,桃園市,蘆竹區,桃園市蘆竹區蘆竹里八股路203號,121.2584152,25.05755425,C,巷弄長照站,03-3219226,fundai1970311@gmail.com,邱創益,20210127 17:16:36
桃園市私立慈得居家長照機構,桃園市,蘆竹區,桃園市蘆竹區南崁里經國路902號7樓F室,121.3010101,25.03364563,B,喘息服務,03-3559155,cdhc1219@gmail.com,黃彥銘,20230110 13:55:12
大明醫院,桃園市,龜山區,桃園市龜山區萬壽路二段964號、966號,121.3340149,24.99372101,B,居家失能個案家庭醫師照護服務,03 3202792,dm1966a1@gmail.com,張永誠,20230720 14:43:06
敦仁診所附設居家護理所,桃園市,八德區,桃園市八德區高明里永豐路572巷21號,121.2720642,24.97592926,B,專業照護服務(CC01),03-3708262,a0936655826@gmail.com,呂惠玉,20230802 17:19:14
敏盛綜合醫院桃園區,桃園市,桃園區,桃園市桃園區經國路168號,121.3048553,25.02277374,A,個案管理服務,03-3179599,ms31799493@gmail.com,楊弘仁,20230125 19:25:43
芯茂健康長照事業有限公司附設桃園市私立芯康居家長照機構,桃園市,桃園區,桃園市桃園區寶慶里19鄰中埔一街123號8樓,121.2952347,25.01446152,B,居家服務,03-3016862,camellia90197412@gmail.com,張麗淑,20230223 09:57:15
社團法人中華民國國際慈善文教協會,桃園市,中壢區,桃園市中壢區石頭里永樂路33號1樓,121.2224121,24.95278931,C,巷弄長照站,0955-352263,anc88756@gmail.com,劉柏成,20210127 15:33:20
桃園市蘆竹區五福社區發展協會,桃園市,蘆竹區,桃園市蘆竹區五福里福祿五街18號,121.296196,25.0535984,C,巷弄長照站,0932-094-669,wufulen@gmail.com,廖定川,20210201 16:25:16
桃園市桃園區中原里辦公處,桃園市,桃園區,桃園市桃園區中原里宏昌七街74號,121.2945557,24.98697853,C,巷弄長照站,0939-195-970,tinamom0939@yahoo.com.tw,王秀璞,20210127 14:36:04
桃園市私立八德老人長期照顧中心(養護型),桃園市,八德區,桃園市八德區大智里介壽路一段758巷8號,121.2999344,24.96379471,B,喘息服務,03-2182128,bade2182128@yahoo.com.tw,謝鴻倫,20220126 15:37:13
桃園市新屋區衛生所附設居家護理所,桃園市,新屋區,桃園市新屋區中山路239號,121.1067657,24.9725914,B,專業照護服務,,10021350@mail.tycg.gov.tw,趙志芬,20230220 13:39:30
家安居家護理所,桃園市,八德區,桃園市八德區廣豐路89號5樓,121.306572,24.94699669,B,專業照護服務,03-3559930,Weishan0310@gmail.com,張瑋珊,20230220 13:42:27
敦仁診所附設居家護理所,桃園市,八德區,桃園市八德區永豐路572巷21號,121.2720642,24.97592926,C,巷弄長照站,03-3708262,a0936655826@gmail.com,呂惠玉,20201228 11:08:00
衛生福利部桃園醫院附設居家護理所,桃園市,桃園區,桃園市桃園區中山路1492號,121.2691879,24.97770309,B,專業照護服務,03-3699721,Ben11205610@mail.tygh.gov.tw,鍾美敏,20230221 11:30:57
桃園市私立寬福居家式服務類長期照顧服務機構,桃園市,桃園區,桃園市桃園區龍祥里裕和街35號,121.2738724,24.98214912,B,居家服務,03-3702500,cfnh99169042@gmail.com,周矢綾,20230201 16:07:12
桃園市八德區茄明社區發展協會,桃園市,八德區,桃園市八德區茄明里中華路27號,121.2818222,24.98638916,C,巷弄長照站,0988-946758,changkunliang@gmail.com,邱茂雄,20210127 17:07:27
桃園市私立好馨情社區長照機構,桃園市,桃園區,桃園市桃園區同安里同安街431號,121.3012238,25.01895332,B,日間照顧服務,033-461-136,T3461136@hibox.biz,蔡政哲,20230118 17:18:26
桃園市八德區高城社區發展協會,桃園市,八德區,桃園市八德區高城里高城路47號,121.2762756,24.97934532,C,巷弄長照站,0932-364-428,chi0932364428@gmail.com,徐添發,20210127 17:56:43
財團法人桃園市亮詮公益慈善基金會,桃園市,中壢區,桃園市中壢區仁德里嘉善街37號,121.2337799,24.95164108,C,巷弄長照站,0982-634030,service@li-pure.org,王欣文,20210127 15:07:57
陳瑞祥診所,桃園市,中壢區,桃園市中壢區福州二街475號,121.2335052,24.96825027,B,居家失能個案家庭醫師照護服務,03-4616600,chen4616600@gmail.com,陳瑞祥,20230720 14:53:34
社團法人台灣立享長照服務教育發展協會附設桃園市私立立享居家長照機構,桃園市,龜山區,桃園市龜山區中和南路22號,121.3397217,24.99524498,B,喘息服務,03-3195589,lixiang15588@gmail.com,朱柏霖,20230220 16:10:05
桃園市私立真開欣社區長照機構,桃園市,中壢區,桃園市中壢區普義里004鄰普義路171號1樓,121.2316513,24.96058273,B,喘息服務,03-4352525,realhappy110@gmail.com,蔡惠如,20230118 16:55:46
天成醫院附設居家護理所,桃園市,楊梅區,桃園市楊梅區中山北路一段356號,121.1572113,24.90891075,B,專業照護服務,03-4782350,topnurse04@tcmg.com.tw,李芯茹,20230220 14:30:29
桃園市新屋區石磊社區發展協會,桃園市,新屋區,桃園市新屋區石磊里12鄰水流19號,121.0791626,24.99351311,B,營養餐飲服務,0919-976-131,Donshiumei@gmail.com,沈鄧秀梅,20210104 15:28:01
智浩企業有限公司附設桃園市私立瑞欣綜合長照機構,桃園市,桃園區,桃園市桃園區龍鳳里龍鳳三街65巷38號,121.2798004,24.98606873,B,居家服務,(03)369-6882,rueishindaycare@gmail.com,陳昱全,20230118 17:04:12
桃園市私立愛心老人長期照顧中心(養護型),桃園市,龍潭區,桃園市龍潭區龍元路45號1樓,121.2127533,24.86431694,B,喘息服務,03-4706561,zolinzolin@hotmail.com,鍾朝麟,20230411 10:33:21
桃園市楊梅區水美社區發展協會,桃園市,楊梅區,桃園市楊梅區水美里楊新路2段2-1號,121.1368103,24.91909409,C,巷弄長照站,,shellyu440918@yahoo.com.tw,蘇雪珍,20210128 10:02:08
桃園市私立聖軒居家長照機構,桃園市,中壢區,桃園市中壢區復興里長樂三街15號,121.2491226,24.97723961,B,居家服務,03-4511620,shengx2023@gmail.com,蘇正昌,20230508 17:36:58
沛田心理治療所,桃園市,大園區,桃園市大園區橫峰里高鐵南路1段50號5樓-8,121.2125626,25.01195145,C,巷弄長照站,03-2871007,mandy265@hotmail.com,李沛嫻,20210127 14:59:59
聯新國際醫院桃新分院附設居家護理所,桃園市,桃園區,桃園市桃園區南海街7號4樓,121.3089371,24.99149132,B,專業照護服務,03-3325678,hsuhf@landseed.com.tw,許香芬,20230221 11:35:06
桃園市楊梅區衛生所附設居家護理所,桃園市,楊梅區,桃園市楊梅區校前路409號2樓,121.1496735,24.8969841,B,專業照護服務,4750151-212,10021439@mail.tycg.gov.tw,徐鑾鳳,20230301 10:47:03
國軍桃園總醫院附設民眾診療服務處附設陶然園社區長照機構,桃園市,龍潭區,桃園市龍潭區中山里10鄰中興路670-1號,121.221199,24.87249184,B,喘息服務,409-5664,caca0122will@yahoo.com.tw,商仕達,20230201 09:34:44
桃園市私立長青社區長照機構,桃園市,桃園區,桃園市桃園區南華里鎮南街58-3號,121.3074646,24.99058342,B,小規模多機能服務,03-3390513,a3797266@gmail.com,馬張志成,20230118 17:05:52
桃園市私立恩惠居家長照機構,桃園市,中壢區,桃園市中壢區延平路326-1號10樓,121.2254486,24.96038628,B,喘息服務,03-4250890,clarkchiou@gmail.com,邱啟盛,20230203 09:40:06
桃園市觀音區新坡社區發展協會,桃園市,觀音區,桃園市觀音區新坡里新生路76巷5弄2號(婦幼館),121.1348953,25.01361465,C,巷弄長照站,0921-982381,chihyencandy@yahoo.com.tw,陳允寶,20191231 17:03:39
社團法人桃園市失能老人關懷協會附設桃園市私立中壢龍福社區長照機構,桃園市,中壢區,桃園市中壢區龍昌里015鄰中山東路四段26號5樓,121.2544556,24.93475914,B,喘息服務,03-4663199,kobe@zhco.com.tw,許慈育,20230118 16:57:59
桃園市平鎮區莊敬里辦公室,桃園市,平鎮區,桃園市平鎮區莊敬里自強街100號,121.2149124,24.90412331,C,巷弄長照站,0928-285-597,c981168@yahoo.com.tw,邱堡櫻,20210129 17:28:02
馨香有限公司附設桃園市私立馨香居家長照機構,桃園市,中壢區,桃園市中壢區中建里延平路500號12之3(Q室),121.2175751,24.95670509,B,喘息服務,03-4904186,xinxiang20211101@gmail.com,馬燕柔,20230118 15:19:23
桃園市中壢區衛生所附設居家護理所,桃園市,中壢區,桃園市中壢區溪洲街296號,121.230011,24.96228981,B,專業照護服務,,10016890@mail.tycg.gov.tw,邱玉玲,20230117 17:00:32
社團法人中華民國士林靈糧堂社會福利協會附設桃園市私立龜山陸光社區長照機構,桃園市,龜山區,桃園市龜山區陸光里029鄰自強西路240號1樓,121.331749,24.99531937,B,小規模多機能服務,03-2132050,ksdaycare@slsc.org.tw,劉群茂,20230426 13:37:48
寬福護理之家,桃園市,桃園區,桃園市桃園區龍祥里裕和街35號,121.2738113,24.98214912,B,到宅沐浴車服務,03-3702500,cfnh99169042@gmail.com,周矢綾,20230202 15:13:20
姜博文診所,桃園市,楊梅區,桃園市楊梅區永寧里永美路335號3樓,121.1820221,24.91717148,B,喘息服務,03-4826241#322,4826241@gmail.com,姜博文,20201230 14:40:49
敏盛綜合醫院桃園區,桃園市,桃園區,桃園市桃園區經國路168號,121.3048553,25.02277374,B,居家失能個案家庭醫師照護服務,03-3179599,ms31799493@gmail.com,楊弘仁,20230720 13:38:41
國軍桃園總醫院附設居家護理所,桃園市,龍潭區,桃園市龍潭區中興路168號,121.2348251,24.87696838,B,專業照護服務,03-4799595,yehtsaifeng@aftygh.gov.tw,方美芳,20230410 16:33:32
桃園市家庭照顧者關懷協會,桃園市,龜山區,桃園市龜山區舊路里大同路356巷62弄59-1號,121.3472595,24.98442078,C,巷弄長照站,03-3355763,taoyuan.carer@gmail.com,曾憲一,20210127 17:04:59
桃園市私立莊敬園老人長期照顧中心(養護型),桃園市,桃園區,桃園市桃園區莊敬路一段375號3樓,121.2960892,25.02342987,B,喘息服務,03-3250813,zjyuan375@gmail.com,沈思叡,20230221 16:33:52
敬一銀齡事業股份有限公司附設桃園市私立寶平綜合長照機構,桃園市,桃園區,桃園市桃園區寶安里南平路598號1樓,121.2918625,25.01548386,B,日間照顧服務,03-3017188,judy@genuinecare.com.tw,楊宜菁,20230118 17:16:55
善誠健康事業股份有限公司附設桃園市私立八德善誠居家長照機構,桃園市,八德區,桃園市八德區東勇街69巷8號1樓,121.3062592,24.96292114,B,居家服務,02-361-6880,alicia.hung@medtecs.com,林仁德,20221024 18:26:05
桃園市私立賀立安老人長期照顧中心(養護型),桃園市,中壢區,桃園市中壢區中正路四段594號8樓596號8樓9樓,121.1724854,24.99225807,B,喘息服務,03-4081905,stltc82212164@gmail.com,林韋丞,20230220 14:46:55
財團法人台灣基督長老教會泰雅爾中會光輝教會附設桃園市私立光輝葛菈行嘎浪社區長照機構,桃園市,復興區,桃園市復興區奎輝里嘎色鬧7鄰10-1號,121.3255768,24.77710724,B,日間照顧服務,03-3821205,hosimi0908@gmail.com,徐正義,20230202 16:54:47
財團法人桃園市私立國宏老人長期照顧中心(養護型)附設桃園市私立國宏綜合式服務類長期照顧服務機構,桃園市,平鎮區,桃園市平鎮區新富里035鄰環南路二段265號2樓之5,121.2152405,24.94053459,B,喘息服務,03-4598838,rih.jhao@gmail.com,吳黃玉英,20230118 14:48:32
財團法人雙福社會福利慈善事業基金會附設桃園市私立雙福居家長照機構,桃園市,中壢區,桃園市中壢區忠義里中華路一段619巷15號,121.2508392,24.96894264,B,居家服務,03-455-8285,dbtysc@gmail.com,吳英賓,20230118 15:34:24
龍潭敏盛醫院,桃園市,龍潭區,桃園市龍潭區中豐路168號,121.5043728,24.9432681,B,居家失能個案家庭醫師照護服務,03-4794151,無,梁植池,20230720 13:51:50
桃園市觀音區衛生所,桃園市,觀音區,桃園市觀音區觀新路58號,121.083374,25.027668,B,專業照護服務,03-4732031,10042980@mail.tycg.gov.tw,吳雪玲,20201230 13:30:01
社團法人桃園市社會服務關懷協會,桃園市,龜山區,桃園市龜山區山頂里文三三街5巷5號,121.3605576,25.05540848,B,喘息服務,03-3181947,aa3594375@gmail.com,陳敬吾,20210201 15:03:01
立群診所,桃園市,平鎮區,桃園市平鎮區中豐路山段27號,121.2120438,24.90656281,B,居家失能個案家庭醫師照護服務,03-4191137,chloeyaaaaa@gmail.com,立群診所,20230720 14:13:59
桃園市私立照協居家式服務類長期照顧服務機構,桃園市,大溪區,桃園市大溪區一德里中央路27號1樓之1,121.2204819,25.1008606,B,居家服務,03-3873970,exit710622@gmail.com,胡金蓮,20230201 14:21:07
旭登護理之家,桃園市,八德區,桃園市八德區大強里樹仁三街601號1至3樓,121.3097229,24.9751339,B,營養餐飲服務,03-3677666-202,lilyrcw@zhco.com.tw,李麗珠,20210113 14:21:49
臺北榮民總醫院桃園分院附設桃園市彩虹居社區式服務類長期照顧服務機構,桃園市,桃園區,桃園市桃園區三元里008鄰成功路三段100號4樓,121.3252411,25.00437927,B,日間照顧服務,03-3384889,hr906238ava@gmail.com,王智弘,20230118 16:45:46
桃園市新屋區?榔社區發展協會,桃園市,新屋區,桃園市新屋區?榔里8鄰9號,121.0503769,24.97122192,C,巷弄長照站,0920-615-033,cccys1@yahoo.com.tw,羅鴻霖,20210128 09:58:28
臻鋐有限公司附設桃園市私立歲月靜好社區長照機構,桃園市,桃園區,桃園市桃園區中平里027鄰中山路599號4樓,121.2945862,24.99081421,B,喘息服務,03-2289279,KOBE@zhco.com.tw,李麗珠,20230118 17:17:40
桃園市私立大利家社區長照機構,桃園市,桃園區,桃園市桃園區陽明十二街15號17號,121.3097,24.97866249,B,日間照顧服務,03-3663320,chenchen5401@gmail.com,陳忱,20230118 17:24:14
桃園市泓樂身心關懷協會附設桃園市私立梧桐樹社區式服務類長期照顧服務機構,桃園市,平鎮區,桃園市平鎮區南勢里南東路2號4樓,121.2119751,24.91941071,B,日間照顧服務,03-4395853,honglove0101@gmail.com,翁端梧,20230118 16:04:21
台灣原住民愛加倍文教關懷協會,桃園市,復興區,桃園市復興區澤仁里4鄰溪口臺59-1號,121.3440399,24.80282974,C,巷弄長照站,03-3821896,ccchungdaw@mohw.gov.tw,達少。瓦旦,20200131 21:49:47
臺北榮民總醫院桃園分院,桃園市,桃園區,桃園市桃園區三元里成功路三段100號,121.3252411,25.00437927,A,個案管理服務,03-3384889,t080@tyvh.gov.tw,王智弘,20230125 19:23:40
桃園市私立關愛居家長照機構,桃園市,中壢區,桃園市中壢區和平里文成南街93號1樓,121.2518463,24.9783287,B,喘息服務,03-4615357,dondon123ok@gmail.com,莊家泰,20230617 15:31:56
億家安居家物理治療所,桃園市,桃園區,桃園市桃園區正康二街36號,121.2945557,24.99601555,B,專業照護服務,03-3363431,wholecarept@gmail.com,李?宇,20220302 11:48:30
大明醫院,桃園市,龜山區,桃園市龜山區萬壽路二段964號、966號,121.3340149,24.99372101,B,專業照護服務,03 3202792,dm1966a1@gmail.com,張永誠,20230220 13:43:24
青松達觀股份有限公司附設桃園市私立長壽綜合長照機構,桃園市,龜山區,桃園市龜山區龜山里038鄰長壽路247號,121.3398285,24.99963379,B,日間照顧服務,04-24060333,changshoumaster@qingsong.com.tw,周孟賢,20230426 13:36:05
桃園市中壢區光明里辦公處,桃園市,中壢區,桃園市中壢區光明里新明路223號,121.2169037,24.96218491,C,巷弄長照站,0933-260-112,kk111204@yahoo.com.tw,林坤泉,20210129 14:54:20
財團法人錸德文教基金會附設桃園市私立蘆竹錸工場社區長照機構,桃園市,蘆竹區,桃園市蘆竹區錦中里錦溪路125號3樓,121.2887726,25.05526924,B,小規模多機能服務,03-3280728,yuhuan.chang@ricare.com.tw,楊慰芬,20230118 17:02:09
社團法人臺灣樂福國際慈善福利協會,桃園市,桃園區,桃園市桃園區國強七街108號1樓,121.2781754,24.98829651,B,到宅沐浴車服務,0967-112366,ghsc672366@gmail.com,張淞源,20230202 10:28:18
桃園市龍潭區三林社區發展協會,桃園市,龍潭區,桃園市龍潭區三林里富華街三林段395巷140號,121.2270584,24.83832741,C,巷弄長照站,0912-893505,mod6688@gmail.com,魏榮貴,20210128 10:03:52
?心居家護理所,桃園市,楊梅區,桃園市楊梅區永美路333號3樓,121.1820526,24.91721344,B,專業照護服務,03-4826241,4826241@gmail.com,尤庭甄,20230117 10:04:59
桃園市私立聯新居家式服務類長期照顧服務機構,桃園市,平鎮區,桃園市平鎮區平興里廣泰路77號,121.2052994,24.94669151,B,喘息服務,03-4941234,hebe861226@gmail.com,劉慧音,20230118 14:46:53
財團法人天主教德來會附設桃園市私立德來綜合長照機構,桃園市,桃園區,桃園市桃園區三民里三民路一段2號2樓,121.3233032,24.99634743,B,喘息服務,03-3317226,joannahsieh9102005@yahoo.com,蔡宜芬,20230118 16:43:10
財團法人雙福社會福利慈善事業基金會附設桃園市私立雙福居家長照機構,桃園市,中壢區,桃園市中壢區忠義里中華路一段619巷15號,121.2508392,24.96894264,B,喘息服務,03-455-8285,dbtysc@gmail.com,吳英賓,20230203 08:42:52
社團法人桃園市龜山區傳愛社區關懷協會,桃園市,龜山區,桃園市龜山區大華里文化七路118巷7號,121.3661957,25.05074692,C,巷弄長照站,0911-393-740,Tylee1209@gmail.com,李紫陽,20210129 14:15:06
心安診所,桃園市,中壢區,桃園市中壢區新中北路2段487號,121.2643127,24.95584488,B,居家失能個案家庭醫師照護服務,03-4518808,accn.mcmg@gmail.com,姜周禮,20190925 16:11:33
中化銀髮事業股份有限公司附設桃園市私立中化銀髮居家長照機構,桃園市,桃園區,桃園市桃園區永安里桃園市桃園區埔新路157號1樓,121.3050308,25.00267982,B,喘息服務,003-360-309,jen.perng@gmail.com,王謝怡貞,20230223 09:23:51
桃園市龍潭區三水社區發展協會,桃園市,龍潭區,桃園市龍潭區三水里龍新路三水段244巷38弄28號,121.15271,24.84499168,C,巷弄長照站,0985-560-288,grace560288@gmail.com,游芳玲,20210128 10:03:34
億家安居家物理治療所,桃園市,桃園區,桃園市桃園區正康二街36號,121.2945557,24.99601555,B,專業照護服務,03-3363431,wholecarept@gmail.com,李?宇,20211217 17:32:23
桃園市私立照協居家式服務類長期照顧服務機構,桃園市,大溪區,桃園市大溪區一德里中央路27號1樓之1,121.2204819,25.1008606,B,喘息服務,03-3873970,exit710622@gmail.com,胡金蓮,20230220 14:51:20
桃園市私立開心社區長照機構,桃園市,大溪區,桃園市大溪區一德里007鄰文化路247號,121.2885818,24.8762188,B,喘息服務,003-880-808,chilu_jo@yahoo.com.tw,周基路,20230118 17:01:43
桃園市蘆竹區山鼻里辦公處,桃園市,蘆竹區,桃園市蘆竹區山鼻里南山路三段125號,121.2856903,25.08017731,C,巷弄長照站,0937-964-940,sb973404@yahoo.com.tw,張寶龍,20210128 10:50:02
桃園市銀髮族協會(中壢站),桃園市,中壢區,桃園市中壢區自強里榮民路48號,121.2604828,24.9694519,C,巷弄長照站,03-4612918,80012433@mail.tycg.gov.tw,徐藍碧珠,20191231 14:31:41
桃園市私立紫園社區長照機構,桃園市,蘆竹區,桃園市蘆竹區南崁里中正路90號,121.2931137,25.04604912,B,喘息服務,0955-913261,tanya2004712@yahoo.com.tw,歐雅綺,20230118 17:04:43
群和居家護理所,桃園市,桃園區,桃園市桃園區中平路102號12樓之1,121.2926788,24.9873333,B,喘息服務,0987-982-850,qunhecare@gmail.com,許鳳珠,20230118 15:21:30
桃園市新屋區埔頂社區發展協會,桃園市,新屋區,桃園市新屋區埔頂里24號,121.1098099,24.95436287,C,巷弄長照站,03-4775126,lishietw@gmail.com,呂理?,20210127 17:12:05
桃園市大溪區復興社區發展協會,桃園市,大溪區,桃園市大溪區復興里復興路二段758巷48號,121.3104324,24.82564545,C,巷弄長照站,0935-498-259,Vaftiy@gmail.com,徐聖達,20230320 14:57:36
桃園市平鎮區北勢里辦公處,桃園市,平鎮區,桃園市平鎮區北勢里和平路52號,121.2214127,24.9488945,C,巷弄長照站,0932-370-808,wu400205@yahoo.com.tw,張寶鈿,20210128 10:40:49
桃園市私立大園老人長期照顧中心（養護型）,桃園市,大園區,桃園市大園區圳頭路342號,121.2014694,25.08013725,B,喘息服務,033-864-499,dayuan5168@yahoo.com.tw,徐孟鈴,20210517 09:27:19
紓健有限公司附設桃園市私立紓愛居家長照機構,桃園市,桃園區,桃園市桃園區龍城二街16號1樓,121.2717896,24.98305511,B,喘息服務,03-3607382,suihomecare2020@gmail.com,林姿伶,20230118 14:28:59
桃園市新屋區永興社區發展協會,桃園市,新屋區,桃園市新屋區永興里文化路3段1163巷76號,121.0448151,25.00843048,C,巷弄長照站,03-4862368,szukun.yeh@gmail.com,葉福星,20210127 15:25:16
桃園市平鎮區南勢社區發展協會,桃園市,平鎮區,桃園市平鎮區南勢里中豐路南勢二段315-317號,121.2113266,24.91619301,C,巷弄長照站,0927-669-286,garzen010@gmail.com,謝禎亮,20191231 14:11:44
金色年代長照社團法人附設桃園市私立天成綜合長照機構,桃園市,楊梅區,桃園市楊梅區中山里中山北路一段362號2至3樓,121.1577759,24.90877342,B,日間照顧服務,03-4789566,daycare01_ym@tcmg.com.tw,徐向謙,20230118 14:37:13
社團法人桃園市濟世功德協進會,桃園市,蘆竹區,桃園市蘆竹區錦中里南崁路一段99號4樓之3,121.2880478,25.05147171,C,巷弄長照站,0915-366-373,tycu999@gmail.com,劉邦茂,20210201 16:30:30
桃園市私立瑞生老人長期照顧中心(養護型),桃園市,平鎮區,桃園市平鎮區金陵路5段32-2號,121.2309723,24.91113472,B,喘息服務,03-4502966,yufen2277@gmail.com,黃郁芬,20230412 09:07:41
社團法人台灣樂活服務發展協會(蘆竹區法國號),桃園市,蘆竹區,桃園市蘆竹區羊稠里中山路72號6樓,121.2992249,25.0549202,B,喘息服務,0982-985298,frenchhorn726@gmail.com,馬瑞辰,20190701 16:34:44
桃園市私立群和居家長照機構,桃園市,桃園區,桃園市桃園區中平路102號12樓之1,121.2926788,24.9873333,B,居家服務,03-2208096,qunhehome@gmail.com,莊麗菲,20230201 17:17:54
桃園市八德區陸光里辦公處,桃園市,八德區,桃園市八德區陸光里陸光街50巷11-1號1樓,121.2968292,24.96199226,C,巷弄長照站,,hang636363@yahoo.com.tw,何金鳳,20210128 10:50:31
桃園市中壢區過嶺社區發展協會,桃園市,中壢區,桃園市中壢區過嶺里民族路5段410號,121.1679764,24.95810699,C,巷弄長照站,0928-633626,chang199051@yahoo.com.tw,張桂珠,20210127 16:35:07
白金會股份有限公司附設桃園市私立神態飛揚社區長照機構,桃園市,蘆竹區,桃園市蘆竹區新莊里012鄰大新路814巷155號,121.2409592,25.02716637,B,喘息服務,03-3133519,mn3133519@gmail.com,張景懿,20230118 17:04:14
衛生福利部桃園醫院附設桃園市桃樂居社區長照機構,桃園市,桃園區,桃園市桃園區龍山里中華路1492號3樓,121.2720718,24.97881126,B,喘息服務,03-3699721分機1351,v510507@gmail.com,陳日昌,20190701 18:44:40
慶成診所,桃園市,蘆竹區,桃園市蘆竹區大竹里大新路107號,121.2560043,25.02481842,C,巷弄長照站,03-3137379,jean198122@gmail.com,林哲光,20210127 15:01:32
桃園市私立福連居家長照機構,桃園市,中壢區,桃園市中壢區正光二街120號2樓,121.205307,24.9591465,B,居家服務,03-2850248,fuliancare@gmail.com,袁邦彥,20230107 11:55:59
利鎮物業管理顧問有限公司附設桃園市私立利鎮居家長照機構,桃園市,蘆竹區,桃園市蘆竹區南崁路一段83號7樓之2,121.2886581,25.05113792,B,喘息服務,0911-388-852,lijencare@gmail.com,張萬利,20230118 14:49:58
桃園市私立以樂居家長照機構,桃園市,龍潭區,桃園市龍潭區健行路345巷67號2樓,121.2307739,24.86714363,B,喘息服務,03-4095219,chenzm0105@gmail.com,宋慶輝,20230220 16:08:27
桃園市龍潭區九龍社區發展協會,桃園市,龍潭區,桃園市龍潭區九龍里五福街330號,121.2255096,24.86417961,C,巷弄長照站,03-4791713,k175225@yahoo.com.tw,陳新榮,20210127 17:53:33
中華民國紅十字會桃園市分會,桃園市,桃園區,桃園市桃園區中興里中福街66號,121.3039169,24.99761963,C,巷弄長照站,03-3327609,tyred3393531@gmail.com,劉志清,20210128 11:02:43
桃園市大溪區僑愛里辦公處,桃園市,大溪區,桃園市大溪區僑愛里僑愛一街35巷僑愛里社區活動中心,121.2936935,24.92279434,C,巷弄長照站,0952-098476,lo3801993@yahoo.com.tw,羅鳳育,20210128 10:37:55
衛生福利部樂生療養院附設護理之家,桃園市,龜山區,桃園市龜山區迴龍里萬壽路1段50巷2號,121.4075241,25.0201416,B,喘息服務,02-82006600#3828,ls65526@lslp.mohw.gov.tw,江孟真,20230220 16:10:30
金色年代長照社團法人附設桃園市私立金色年華綜合長照機構,桃園市,中壢區,桃園市中壢區普義里立和路58巷66號1樓、68號1至4樓、70號1樓,121.2314148,24.95827866,B,專業照護服務,03-4623626,med01@tcmg.com.tw,徐向謙,20230220 14:39:17
(交通接送)高揚威家醫科診所,桃園市,復興區,桃園市復興區忠孝路32號,121.3514252,24.81456184,B,交通接送服務,03-3822839,alicewang19891030@gmail.com,高揚威,20230201 09:07:47
桃園市平鎮區三安社區發展協會,桃園市,平鎮區,桃園市平鎮區東安里龍南路430巷10-14號,121.2387085,24.91246033,C,巷弄長照站,03-4607584,san.an41157119@gmail.com,劉宜?,20210127 16:49:16
桃園市中壢區龍德里辦公處,桃園市,中壢區,桃園市中壢區龍德里龍岡路3段337號,121.2368774,24.9334774,C,巷弄長照站,03-4508835,ysi86520@gmail.com,邱文正,20210128 10:38:35
社團法人桃園市社會服務關懷協會,桃園市,龜山區,桃園市龜山區山頂里文三三街5巷5號,121.3605576,25.05540848,C,巷弄長照站,03-3181947,aa3594375@gmail.com,陳敬吾,20210222 16:26:57
旭登護理之家,桃園市,八德區,桃園市八德區大強里樹仁三街601號1至3樓,121.3097229,24.9751339,B,喘息服務,03-3677666-202,lilyrcw@zhco.com.tw,李麗珠,20210414 15:55:37
桃園市私立慈山居家長照機構,桃園市,龜山區,桃園市龜山區壽山路199號2樓,121.3246994,24.99543762,B,居家服務,03-3500423,cs051219@gmail.com,黃沛涵,20230201 17:01:36
桃園市中壢區龍興社區發展協會,桃園市,中壢區,桃園市中壢區龍興里龍岡路3段37巷92弄102號,121.232399,24.94041634,C,巷弄長照站,0342-85057,jaanyunn@yahoo.com.tw,徐秋妲,20210127 16:35:22
智化護理之家,桃園市,觀音區,桃園市觀音區三和里5鄰快速路9段972號,121.0804672,25.01598549,B,喘息服務,03-4732301,may550421@yahoo.com.tw,張靖旋,20230220 16:05:51
展橙有限公司附設桃園市私立展橙居家長照機構,桃園市,大園區,桃園市大園區田心里新興路160號1樓,121.195343,25.06081009,B,喘息服務,(03)3865238,JC@zhco.com.tw,李昆璋,20230118 07:43:56
敦仁診所附設居家護理所,桃園市,八德區,桃園市八德區高明里永豐路572巷21號,121.2720642,24.97592926,C,巷弄長照站,03-3708262,a0936655826@gmail.com,呂惠玉,20210128 10:55:56
詠馨居家護理所,桃園市,大園區,桃園市大園區中山南路136巷4弄10號,121.19767,25.06100082,B,專業照護服務,03-3852779,3852779@gmail.com,馮雅詩,20230118 14:58:14
桃園市八德區正福社區發展協會,桃園市,八德區,桃園市八德區大福里大福街29號,121.3003006,24.9746933,C,巷弄長照站,0936-660-107,10479jzs@gmail.com,唐瑞伯,20210127 17:55:42
瑞之盟營養機構,桃園市,桃園區,桃園市桃園區中寧街12巷14之3號4樓,121.3065414,24.99762726,B,專業照護服務,0907-010-671,rzm280301@gmail.com,劉懿庭,20230510 15:43:29
桃園市中壢區自立里辦公處,桃園市,中壢區,桃園市中壢區自立里永福路1073號1樓,121.2517929,24.96621704,C,巷弄長照站,0933-958917,a0922919996531005@yahoo.com.tw,李樸威,20210128 10:40:17
桃園市私立睿齡居家長照機構,桃園市,桃園區,桃園市桃園區三民路二段286之3號4樓,121.3095932,24.99971771,B,居家服務,03-3330912,ltc87334546@gmail.com,楊美雅,20230201 16:25:54
桃園市觀音區草漯社區發展協會,桃園市,觀音區,桃園市觀音區草漯里忠孝路82號,121.1430359,25.04962158,C,巷弄長照站,03-4836793,sophia91687@yahoo.com.tw,許宏偉,20210127 17:17:06
財團法人台灣省私立桃園仁愛之家,桃園市,楊梅區,桃園市楊梅區高榮里梅獅路539巷3號,121.1827087,24.9002037,A,個案管理服務,03-4643385,aepexpingo@gmail.com,李建榮,20230125 19:45:29
桃園市新屋區東明社區發展協會,桃園市,新屋區,桃園市新屋區東明里4鄰上庄子5號,121.0884323,24.97149086,C,巷弄長照站,0935-090-849,hsulu0418@yahoo.com.tw,葉治政,20210128 09:57:51
社團法人桃園市復興區爺亨部落多元產業發展協會,桃園市,復興區,桃園市復興區三光里8鄰爺亨6號,121.3737411,24.66830254,C,巷弄長照站,0926-510767,hirei1230@gmail.com,高麗枝,20210127 15:38:25
社團法人桃園市愛鄰舍協會(復興據點),桃園市,中壢區,桃園市中壢區石頭里復興路161號3樓,121.2237701,24.95402908,C,巷弄長照站,,sphyae683@hotmail.com,林雄堅,20210127 15:45:44
錸工場股份有限公司附設桃園市私立錸工場社區長照機構,桃園市,龜山區,桃園市龜山區文化里019鄰華亞二路222號,121.3748169,25.04690552,B,日間照顧服務,03-3280728,ruru.lai@ricare.com.tw,楊慰芬,20220331 15:33:36
怡仁綜合醫院附設居家護理所,桃園市,楊梅區,桃園市楊梅區楊新北路321巷30號,121.1555786,24.91702271,B,專業照護服務,03-4855566,n9343@yeezen.com.tw,羅玉如,20230117 10:03:59
桃園市桃園區豐林社區發展協會,桃園市,桃園區,桃園市桃園區豐林里三民路三段459號,121.3075943,24.98694992,C,巷弄長照站,0972-801883,jojo0638272@gmail.com,卓益任,20210128 09:57:33
桃園市中壢區仁和里辦公處,桃園市,中壢區,桃園市中壢區仁和里仁德四街96號,121.2637787,24.95301437,C,巷弄長照站,0933-255100,cc1242424@gmail.com,陳長來,20210127 16:34:48
衛生福利部樂生療養院附設樂福社區長照機構,桃園市,龜山區,桃園市龜山區迴龍里015鄰萬壽路一段50巷2號,121.4075241,25.0201416,B,喘息服務,0382006600分機3121,peiting123@yahoo.com.tw,施玲娜,20220406 13:51:57
桃園市龜山區陸光社區發展協會,桃園市,龜山區,桃園市龜山區陸光里陸光路79號1樓,121.3318634,24.99550247,C,巷弄長照站,03-2133707,diveradam@gmail.com,倪亞東,20210127 17:04:45
金色年代長照社團法人附設桃園市私立天成綜合長照機構,桃園市,楊梅區,桃園市楊梅區中山里中山北路一段362號2至3樓,121.1577759,24.90877342,B,居家服務,03-4789566,daycare01_ym@tcmg.com.tw,徐向謙,20230118 14:37:13
桃園市桃園區衛生所,桃園市,桃園區,桃園市桃園區國豐三街123號4樓,121.2786942,24.99046898,B,專業照護服務,03-3791888,10079226@mail.tycg.gov.tw,游象村,20230111 11:52:52
社團法人桃園市社會服務關懷協會,桃園市,龜山區,桃園市龜山區山頂里文三三街5巷5號,121.3605576,25.05540848,B,營養餐飲服務,03-3181947,aa3594375@gmail.com,陳敬吾,20201231 22:03:22
社團法人台灣多元社會福利協會,桃園市,八德區,桃園市八德區高城里高城六街73號,121.2728043,24.97849655,C,巷弄長照站,0931-178418,tapdswlego@gmail.com,林政緯,20210127 15:36:06
居邑長照有限公司附設桃園市私立居邑居家長照機構,桃園市,桃園區,桃園市桃園區南門里三民路三段284號4樓之2,121.3063889,24.99048233,B,居家服務,03-3382206,juyiltc@gmail.com,黎京熒,20230201 16:01:56
桃園市龍潭區中興社區發展協會,桃園市,龍潭區,桃園市龍潭區武漢里武漢路98號3樓,121.2345123,24.87140083,C,巷弄長照站,034-093-141,a0921984779@gmail.com,呂菊春,20210127 16:57:50
天成醫療社團法人附設居家護理所,桃園市,中壢區,桃園市中壢區延平路155號11樓,121.2290268,24.96264267,B,專業照護服務,03-4629292,homeservice@tcmg.com.tw,吳珮妁,20230202 15:45:53
桃園市私立銀寶寶居家長照機構,桃園市,八德區,桃園市八德區廣隆里廣福路766號3樓,121.2801971,24.960886,B,喘息服務,03-3776048,winbobo0304@gmail.com,趙靜怡,20230118 15:00:03
尚語身心診所,桃園市,中壢區,桃園市中壢區忠孝路62號,121.1730194,24.99445915,A,個案管理服務,03-4512181,listener.clinic@gmail.com,單瑜,20230125 19:46:47
桃園市大溪區興福社區發展協會,桃園市,大溪區,桃園市大溪區福仁里仁愛路11號,121.2857208,24.88497162,C,巷弄長照站,0937-588-514,liny.tse@gmail.com,郭明雄,20210202 18:28:29
職物語長照事業有限公司附設桃園市私立樂職心綜合長照機構,桃園市,桃園區,桃園市桃園區春日里2鄰春日路1038號3樓,121.3087692,25.01913834,B,日間照顧服務,03-3575608,ceo@ops-group.org,李柏毅,20230118 17:07:00
桃園市私立愛自己社區長照機構,桃園市,桃園區,桃園市桃園區光興里021鄰中山北路83號2樓,121.3031235,24.99409676,B,日間照顧服務,室內電話03-3351231,ledon0319@hotmail.com,李姮瑩,20230118 17:02:14
揚明護理之家,桃園市,平鎮區,桃園市平鎮區北興里金陵路2段268號,121.2242889,24.93730354,B,喘息服務,03-4581899,ymnh4581899@gmail.com,李彩綺,20230301 10:10:43
南崁現代診所,桃園市,龜山區,桃園市龜山區南祥路40號,121.2974243,25.04627037,B,居家失能個案家庭醫師照護服務,03-3218080,siandai79@gmail.com,王彥斌,20230720 13:33:56
財團法人天主教德來會附設桃園市私立德來綜合長照機構,桃園市,桃園區,桃園市桃園區三民里三民路一段2號2樓,121.3233032,24.99634743,B,日間照顧服務,03-3317226,joannahsieh9102005@yahoo.com,蔡宜芬,20230118 16:43:10
瑞之盟營養機構,桃園市,桃園區,桃園市桃園區中寧街12巷14之3號4樓,121.3065414,24.99762726,B,專業照護服務,0907-010-671,rzm280301@gmail.com,劉懿庭,20220301 16:12:53
桃園市八德區大安社區發展協會,桃園市,八德區,桃園市八德區大安里和平路548號,121.3127747,24.95708656,C,巷弄長照站,0937-173-883,lp94cash@gmail.com,江朝雄,20210127 17:56:15
沙爾德聖保祿修女會醫療財團法人聖保祿醫院,桃園市,桃園區,桃園市桃園區建新街123號,121.3125076,24.98211479,B,專業照護服務,03-3613141,yuyu3151@gmail.com,鍾潮賢,20230301 11:02:45
衛生福利部桃園醫院新屋分院新屋區,桃園市,新屋區,桃園市新屋區新福二路6號,121.0734558,24.9823246,A,個案管理服務,4971989#5262,fanwen5263@gmail.com,鄭明德,20230125 19:23:05
桃園皇家護理之家,桃園市,桃園區,桃園市桃園區復興路70號6、7樓,121.316925,24.9910965,B,喘息服務,03-3379595,cc11437n@yahoo.com.tw,謝麗珠,20230221 14:49:17
臺北榮民總醫院桃園分院,桃園市,桃園區,桃園市桃園區三元里成功路三段100號,121.3252411,25.00437927,B,喘息服務,03-3384889,t080@tyvh.gov.tw,王智弘,20210222 16:27:32
桃園市私立聖軒居家長照機構,桃園市,中壢區,桃園市中壢區復興里長樂三街15號,121.2491226,24.97723961,B,喘息服務,03-4511620,shengx2023@gmail.com,蘇正昌,20230705 09:19:07
德宥居家有限公司附設桃園市私立德宥居家長照機構,桃園市,中壢區,桃園市中壢區新街里環北路398號12樓之2,121.2262497,24.96550941,B,喘息服務,03-4276354,niu83403535@gmail.com,牛宥傑,20230118 15:12:29
桃園市私立荃人居家長照機構,桃園市,蘆竹區,桃園市蘆竹區南榮里南竹路一段93巷7號3樓,121.2886963,25.05107117,B,居家服務,03-3116112,teamwork10810@gmail.com,胡怡婷,20230201 17:04:39
桃園市桃園區龍岡社區發展協會,桃園市,桃園區,桃園市桃園區永興里國豐二街6號2樓,121.2808685,24.98952675,C,巷弄長照站,03-2174895,csy4643@yahoo.com.tw,簡淑英,20210222 16:27:15
桃園市蘆竹區坑口里回饋關懷公益協會,桃園市,蘆竹區,桃園市蘆竹區坑口里頭前40-1號,121.2672653,25.09105873,C,巷弄長照站,0980-433048,h0980433048@yahoo.com.tw,莊守智,20210128 10:13:49
永約文化健康站,桃園市,大園區,桃園市大園區溪海里105巷63號,121.190506,25.03518677,C,巷弄長照站,03-3322101#6686,10019341@mail.tycg.gov.tw,金文茂,20200420 02:06:18
社團法人中華民國五福社會服務協會(社區式服務交通接送),桃園市,大溪區,桃園市大溪區新峰里復興路二段707號,121.3291245,24.8322258,B,交通接送服務,035-977-848,catalpa2006@hotmail.com,游武憲,20201226 14:01:31
沙爾德聖保祿修女會醫療財團法人聖保祿醫院,桃園市,桃園區,桃園市桃園區建新街123號,121.3125076,24.98211479,A,個案管理服務,03-3613141,yuyu3151@gmail.com,鍾潮賢,20230125 19:41:08
太陽桃園長照社團法人附設桃園市私立龍潭住宿長照機構,桃園市,龍潭區,桃園市龍潭區中山里中豐路52號,121.2141495,24.87113953,B,喘息服務,03-2866068,a0919037178@gmail.com,李小玲,20230220 16:04:36
桃園市私立元福護理之家,桃園市,大溪區,桃園市大溪區瑞源里石園路760巷316號,121.2521896,24.8651638,B,喘息服務,03-3909835,wcwc6412@gmail.com,王秋琪,20230118 15:33:32
永康護理之家,桃園市,龜山區,桃園市龜山區大崗里忠義路2段421、423號,121.3533783,25.03878784,B,喘息服務,03-3960789,mkcnblue1@gmail.com,陳束勤,20220401 10:44:32
衛生福利部桃園醫院新屋分院,桃園市,新屋區,桃園市新屋區新福二路6號,121.1069565,24.96974182,B,專業照護服務,03-4971989,swrehpt@gmail.com,鄭明德,20230301 10:08:29
桃園市新屋區大坡社區發展協會,桃園市,新屋區,桃園市新屋區大坡里5-1號,121.0382843,24.96014786,C,巷弄長照站,03-4760283,dapovlg@yahoo.com.tw,陳俊良,20210127 16:54:26
桃園市私立慶安居家長照機構,桃園市,龜山區,桃園市龜山區樂善里文德路88號7樓,121.3814316,25.05725479,B,居家服務,03-3277500,chingann2020@gmail.com,潘佩君,20230201 17:03:03
懷寧醫院,桃園市,中壢區,桃園市中壢區志廣路119號,121.2054977,24.96144295,B,專業照護服務,03-4919119,armfulcarep2@gmail.com,吳清彥,20230110 13:19:48
李柏鋒診所,桃園市,桃園區,桃園市桃園區中山路807號,121.2891693,24.98989487,B,居家失能個案家庭醫師照護服務,032-207-480,doc.pofeng.org@gmail.com,李柏鋒,20230720 15:03:39
峰旺實業有限公司附設桃園市私立慈愛社區長照機構,桃園市,中壢區,桃園市中壢區幸福里002鄰延平路98號1樓,121.2304382,24.96362877,B,日間照顧服務,03-4515443,watermelon791030@gmail.com,高秋鑾,20230118 16:57:18
桃園市私立恩卉居家長照機構,桃園市,八德區,桃園市八德區大湳里和平路797號1樓,121.3180084,24.95804024,B,居家服務,03-3660586,enhui797@gmail.com,黃詩穎,20230803 13:19:40
桃園市私立家和居家長照機構,桃園市,中壢區,桃園市中壢區龍德里龍慈路816號,121.2379684,24.93447685,B,居家服務,03-4605691,gh4605691@gmail.com,張家溱,20230201 16:11:32
超群復健科診所,桃園市,八德區,桃園市八德區桃鶯路8號,121.3010788,24.9440403,B,居家失能個案家庭醫師照護服務,03-3772775,drchang119@msn.com,張益民,20230720 13:30:37
桃園市龍祥關愛協會,桃園市,桃園區,桃園市桃園區龍祥里桃園市桃園區中山路1308巷261號,121.2736282,24.98514366,C,巷弄長照站,0926-585-131,lydia7526@hotmail.com,李添發,20210129 15:16:06
桃園市私立天恩社區長照機構,桃園市,平鎮區,桃園市平鎮區廣達里環南路35巷33號2樓,121.2081223,24.95635986,B,喘息服務,0905-628222,tienen2020@gmail.com,湯昀芯,20230118 16:04:46
桃園市私立元福護理之家,桃園市,大溪區,桃園市大溪區瑞源里石園路760巷316號,121.2521896,24.8651638,B,營養餐飲服務,03-3909835,wcwc6412@gmail.com,王秋琪,20201231 22:02:21
桃園市蒲公英新移民服務協會附設桃園市私立永年居家長照機構,桃園市,中壢區,桃園市中壢區福德里成功路139號2樓,121.2596741,24.97637939,B,居家服務,03-4556020,yongnian2021@gmail.com,杜光宇,20230201 16:03:05
芯茂健康長照事業有限公司附設桃園市私立芯康居家長照機構,桃園市,桃園區,桃園市桃園區寶慶里19鄰中埔一街123號8樓,121.2952347,25.01446152,B,喘息服務,03-3016862,camellia90197412@gmail.com,張麗淑,20230223 09:57:15
社團法人臺灣樂福國際慈善福利協會(桃園),桃園市,桃園區,桃園市桃園區國強七街108號1樓,121.2781754,24.98829651,B,到宅沐浴車服務,03-36973333,lovefull2021@gmail.com,張淞源,20230201 16:35:11
同心青山診所,桃園市,楊梅區,桃園市楊梅區青山五街14號,121.1709824,24.92072678,B,居家失能個案家庭醫師照護服務,03-2755153,ghc2755153@gmail.com,洪正鴻,20230720 14:44:57
桃園市私立全家人居家長照機構,桃園市,八德區,桃園市八德區大仁里8鄰仁和街41巷54弄2號1樓,121.3213348,24.96954918,B,喘息服務,03-3660860,linhunglin1011@gmail.com,林妤珊,20230220 16:12:01
桃園市私立全家人居家長照機構,桃園市,八德區,桃園市八德區大仁里8鄰仁和街41巷54弄2號1樓,121.3213348,24.96954918,B,居家服務,03-3660860,linhunglin1011@gmail.com,林妤珊,20230201 16:04:38
智能醫學科技股份有限公司附設桃園市私立祥寶尊榮居家長照機構,桃園市,中壢區,桃園市中壢區中正路四段596號10樓,121.172699,24.99224281,B,喘息服務,03-2820605,shiangbao.hs@gmail.com,林哲弘,20230110 14:01:58
桃園市私立愈健老人長期照顧中心(養護型),桃園市,龜山區,桃園市龜山區山頂里文三三街5巷5號,121.3605576,25.05540848,B,喘息服務,0963-632-995,h8918@ms7.hinet.net,陳敬吾,20230220 16:11:18
職物語長照事業有限公司附設桃園市私立樂職心綜合長照機構,桃園市,桃園區,桃園市桃園區春日里2鄰春日路1038號3樓,121.3087692,25.01913834,A,個案管理服務,03-3575608,ceo@ops-group.org,李柏毅,20230306 18:15:45
桃園市八德區廣興社區發展協會,桃園市,八德區,桃園市八德區廣德里廣興路643號,121.2835541,24.94698143,C,巷弄長照站,03-3768027,tg510143@gmail.com,吳在能,20210127 17:19:02
桃園市銀髮族協會(中壢站),桃園市,中壢區,桃園市中壢區自強里榮民路48號,121.2604828,24.9694519,C,巷弄長照站,03-4612918,80012433@mail.tycg.gov.tw,徐藍碧珠,20191231 14:25:47
桃園市私立博愛老人長期照顧中心(養護型),桃園市,新屋區,桃園市新屋區東明里3鄰上庄一路136號,121.0700226,24.97796631,B,喘息服務,034-775-570,poi034775570@gmail.com,江忠礎,20230412 09:06:16
洋恩居家物理治療所,桃園市,龜山區,桃園市龜山區文青路173號4樓之5,121.3691864,25.07296562,B,專業照護服務,03-3181652,lordkeepmyheart1128@gmail.com,陳慶儒,20220922 08:12:07
聯恩診所,桃園市,平鎮區,桃園市平鎮區中豐路南勢二段102號,121.2106476,24.91678619,B,專業照護服務,03-4395633,lianenen1477@gmail.com,洪國泰,20230720 13:29:24
桃園市中壢區東興社區發展協會,桃園市,中壢區,桃園市中壢區東興里中北路2段76巷10號,121.2252121,24.94991684,C,巷弄長照站,0928-211-166,a696101@yahoo.com.tw,莊英起,20210127 18:00:50
(交通接送)社團法人中華民國五福社會服務協會,桃園市,大溪區,桃園市大溪區復興路二段707號,121.3291245,24.8322258,B,交通接送服務,03-5977848,catalpa2006@hotmail.com,游武憲,20201209 09:23:01
高揚威家醫科診所(社區式服務交通接送),桃園市,復興區,桃園市復興區澤仁里12鄰忠孝路32號,121.3514252,24.81456184,B,交通接送服務,03-3822839,alicewang19891030@gmail.com,高揚威,20230118 16:57:40
桃園市桃園區汴洲里辦公處,桃園市,桃園區,桃園市桃園區汴洲里峨嵋二街26號,121.3114548,25.0254364,C,巷弄長照站,0933-008778,jpp5886@yahoo.com.tw,楊鑫坤,20210127 16:52:15
桃園市蘆竹區新莊社區發展協會,桃園市,蘆竹區,桃園市蘆竹區新莊里大新路417-5號,121.2489319,25.02407646,C,巷弄長照站,0928-211477,wen.jung99@msa.hinet.net,溫忠良,20210128 10:13:12
桃園市中壢區龍平里辦公處,桃園市,中壢區,桃園市中壢區龍平里桃園市中壢區龍平里龍東路48號,121.2532501,24.92897034,C,巷弄長照站,0908-656361,80013932@mail.tycg.gov.tw,李慶融里長,20191231 17:52:30
佳恩長照社團法人私立楊梅佳醫住宿長照機構,桃園市,楊梅區,桃園市楊梅區裕成南路159號,121.1610107,24.90151215,A,個案管理服務,034-317-786,abhnh.ym@gmail.com,蘇秀鑾,20230306 18:13:20
瑞之盟營養機構,桃園市,桃園區,桃園市桃園區中寧街12巷14之3號4樓,121.3065414,24.99762726,B,專業照護服務,0907-010-671,rzm280301@gmail.com,劉懿庭,20230221 11:40:48
桃園市中壢區龍慈里辦公處,桃園市,中壢區,桃園市中壢區至善里後寮一路230號,121.2462997,24.93804359,C,巷弄長照站,0933-960939,sam4377066@yahoo.com.tw,宋化森,20210128 10:39:03
桃園市大園區大海社區發展協會,桃園市,大園區,桃園市大園區大海里建國8村164號,121.2345734,25.0623436,C,巷弄長照站,0910-288981,h180777@gmail.com,李文登,20191231 20:16:24
桃園市龜山區新嶺里辦公處,桃園市,龜山區,桃園市龜山區新嶺里寶石街9號,121.3659439,25.00048256,C,巷弄長照站,03-3203711#806,jw7951@yahoo.com.tw,陳文慶,20210127 17:16:02
育盟紡織股份有限公司附設桃園市私立辰益居家長照機構,桃園市,桃園區,桃園市桃園區莊敬里同德十一街58號5樓之1,121.3013153,25.05342293,B,喘息服務,03-3222200,chenyi@elitexs.com.tw,簡?庭,20230118 14:51:08
社團法人桃園市幸福家庭培力協會,桃園市,中壢區,桃園市中壢區洽溪里福安二街50號2樓,121.2319946,24.96870613,C,巷弄長照站,03-4266770,ettbrow@gmail.com,林淑敏,20210127 15:27:52
桃園市向陽社會服務協會,桃園市,桃園區,桃園市桃園區中正里正光路92號,121.2950974,24.9935894,C,巷弄長照站,0932-270570,wed3705488@gmail.com,賴莉莉,20210128 09:42:53
紓健有限公司附設桃園市私立紓愛居家長照機構,桃園市,桃園區,桃園市桃園區龍城二街16號1樓,121.2717896,24.98305511,B,居家服務,03-3607382,suihomecare2020@gmail.com,林姿伶,20230201 16:05:37
白金會股份有限公司附設桃園市私立神態飛揚社區長照機構,桃園市,蘆竹區,桃園市蘆竹區新莊里012鄰大新路814巷155號,121.2409592,25.02716637,B,日間照顧服務,03-3133519,mn3133519@gmail.com,張景懿,20230118 17:04:14
桃園市私立健安綜合長照機構,桃園市,八德區,桃園市八德區竹園里017鄰長興路469號1至3樓,121.27211,24.93246651,B,喘息服務,03-3682798,ja3682798@gmail.com,陳博文,20230118 15:57:13
桃園市私立愛自己社區長照機構,桃園市,桃園區,桃園市桃園區光興里021鄰中山北路83號2樓,121.3031235,24.99409676,B,喘息服務,室內電話03-3351231,ledon0319@hotmail.com,李姮瑩,20230118 17:02:14
桃園市私立恩惠居家長照機構,桃園市,中壢區,桃園市中壢區延平路326-1號10樓,121.2254486,24.96038628,B,居家服務,03-4250890,clarkchiou@gmail.com,邱啟盛,20220127 08:37:55
桃園市龜山區兔坑社區發展協會,桃園市,龜山區,桃園市龜山區兔坑里大同路918號,121.3582306,24.9879837,C,巷弄長照站,0928-629978,h121184560@yahoo.com.tw,邱奕蕊,20210127 17:05:15
衛生福利部樂生療養院附設樂福社區長照機構,桃園市,龜山區,桃園市龜山區迴龍里015鄰萬壽路一段50巷2號,121.4075241,25.0201416,B,日間照顧服務,0382006600分機3121,peiting123@yahoo.com.tw,施玲娜,20230426 13:46:18
衛生福利部樂生療養院附設樂福社區長照機構,桃園市,龜山區,桃園市龜山區迴龍里015鄰萬壽路一段50巷2號,121.4075241,25.0201416,B,交通接送服務,0382006600分機3121,peiting123@yahoo.com.tw,施玲娜,20230426 13:44:39
桃園市觀音區崙坪里辦公處,桃園市,觀音區,桃園市觀音區崙坪里8鄰忠愛路二段157號,121.1584396,24.99912071,C,巷弄長照站,03-4980888,thehely03@gmail.com,梁興明,20210804 10:15:22
社團法人中華民國士林靈糧堂社會福利協會附設桃園市私立蘆竹興仁社區長照機構,桃園市,蘆竹區,桃園市蘆竹區中興里興仁路330號4樓,121.2620163,25.01428413,B,喘息服務,03-3230651,a.luchu@slsc.org.tw,吳慧絹,20230118 17:03:38
錸工場股份有限公司附設桃園市私立錸工場社區長照機構,桃園市,龜山區,桃園市龜山區文化里019鄰華亞二路222號,121.3748169,25.04690552,B,喘息服務,03-3280728,ruru.lai@ricare.com.tw,楊慰芬,20230426 13:42:36
沛田心理治療所,桃園市,大園區,桃園市大園區橫峰里高鐵南路1段50號5樓-8,121.2125626,25.01195145,B,專業照護服務(CC01),03-2871007,mandy265@hotmail.com,李沛嫻,20230802 17:19:14
晨光診所,桃園市,蘆竹區,桃園市蘆竹區上興里大竹路395-1號,121.2640381,25.02090836,C,巷弄長照站,03-3238996,jean198122@gmail.com,鄭厚建,20210127 15:01:13
宥心生活有限公司附設桃園市私立宥心居家長照機構,桃園市,楊梅區,桃園市楊梅區楊明里026鄰新農街591號2樓,121.1637878,24.91333961,B,喘息服務,03-4852286,ablelife.tw@gmail.com,衛淑嫻,20230220 16:19:26
桃園市楊梅區三湖社區發展協會,桃園市,楊梅區,桃園市楊梅區三湖里楊湖路491號,121.1084366,24.91207695,C,巷弄長照站,03-4757288,mt.judy@msa.hinet.net,林梅香,20210127 16:55:55
馨安長照社團法人附設桃園市私立馨安居家長照機構,桃園市,桃園區,桃園市桃園區大興里春日路985-5號6樓,121.3100281,25.01132011,B,居家服務,033-556-883,hsinan.homecare@gmail.com,胡雅雯,20230201 15:59:58
儀美長照有限公司附設桃園市私立三元居家長照機構,桃園市,大溪區,桃園市大溪區三元三街21號,121.2675705,24.88234901,B,喘息服務,03-3800100,syhomecare@gmail.com,張儀載,20230109 09:53:35
泓樂樂齡事業有限公司附設桃園市私立鳳凰居綜合長照機構,桃園市,平鎮區,桃園市平鎮區南勢里005鄰南東路2號4樓之1,121.2119751,24.91941071,B,小規模多機能服務,03-4395830,fenghuang850@gmail.com,翁端梧,20230118 16:03:48
德甯居家長照有限公司附設桃園市私立德甯居家長照機構,桃園市,楊梅區,桃園市楊梅區民生街925號1樓,121.087471,24.95561028,B,居家服務,03-4276354,niu19940411@gmail.com,黃瓅瑩,20230922 14:13:03
馨安長照社團法人附設桃園市私立馨安居家長照機構,桃園市,桃園區,桃園市桃園區大興里春日路985-5號6樓,121.3100281,25.01132011,B,喘息服務,033-556-883,hsinan.homecare@gmail.com,胡雅雯,20230223 09:35:17
中化銀髮事業股份有限公司附設桃園市私立中化銀髮居家長照機構,桃園市,桃園區,桃園市桃園區永安里桃園市桃園區埔新路157號1樓,121.3050308,25.00267982,B,居家服務,003-360-309,jen.perng@gmail.com,王謝怡貞,20230201 16:05:11
桃園市平鎮區北興社區發展協會,桃園市,平鎮區,桃園市平鎮區雙連里振興西路112號,121.2143097,24.94585991,C,巷弄長照站,03-4686295,m6486295@yahoo.com.tw,莊訓城,20210127 16:41:06
敦仁診所附設居家護理所,桃園市,八德區,桃園市八德區高明里永豐路572巷21號,121.2720642,24.97592926,B,喘息服務,03-3708262,a0936655826@gmail.com,呂惠玉,20201228 10:58:59
長庚醫療財團法人附設長青護理之家,桃園市,龜山區,桃園市龜山區舊路里舊路村東舊路坑二六之八號,121.3682327,25.01514626,B,喘息服務,03-3492345,elia@adm.cgmh.org.tw,邱?玲,20230407 16:37:54
社團法人桃園市社會服務關懷協會,桃園市,龜山區,桃園市龜山區山頂里文三三街5巷5號,121.3605576,25.05540848,A,個案管理服務,03-3181947,aa3594375@gmail.com,陳敬吾,20230125 19:37:25
建國文化健康站,桃園市,觀音區,桃園市觀音區建國路213號,121.1208725,25.05077553,C,巷弄長照站,03-3322101#6686,10019341@mail.tycg.gov.tw,黃欣婷,20200420 02:03:07
財團法人臺北市阿瑪社會福利慈善事業基金會(永美據點),桃園市,楊梅區,桃園市楊梅區仁美里永美路15號,121.1870651,24.92232132,C,巷弄長照站,0982-985298,xjesusch@yahoo.com.tw,廖淑彩,20210127 15:11:22
天成醫院平鎮區,桃園市,平鎮區,桃園市平鎮區中豐路南勢二段117號三樓A區,121.4608994,24.99134827,A,個案管理服務,03-4397563,aunit.tcmg03@gmail.com,徐萬興,20230125 19:47:25
桃園市私立怡宏居家長照機構,桃園市,桃園區,桃園市桃園區鎮南街1號7樓,121.3093567,24.99100113,B,居家服務,003-378-280,3378280@gmail.com,卓添裕,20220317 18:41:48
桃園市私立佳緣社區長照機構,桃園市,八德區,桃園市八德區茄明里中華路92號,121.2802811,24.98555565,B,喘息服務,(03)378-0678,ps033780678@gmail.com,李沛嫻,20230118 15:56:40
桃園市私立龍德老人長期照顧中心(養護型),桃園市,新屋區,桃園市新屋區三民路265巷68號,121.1053162,24.9678154,B,喘息服務,03-4970361,lc1012209007@gmail.com,林淑虹,20230220 16:05:08
聯恩診所,桃園市,平鎮區,桃園市平鎮區中豐路南勢二段102號,121.2106476,24.91678619,B,居家失能個案家庭醫師照護服務,03-4395633,lianenen1477@gmail.com,洪國泰,20230720 13:29:24
桃園市私立健安綜合長照機構,桃園市,八德區,桃園市八德區竹園里017鄰長興路469號1至3樓,121.27211,24.93246651,B,日間照顧服務,03-3682798,ja3682798@gmail.com,陳博文,20230118 15:57:13
桃園市龍潭區佳安里辦公處,桃園市,龍潭區,桃園市龍潭區佳安里佳安西路2巷2號,121.2053986,24.84449196,C,巷弄長照站,03-4793070#1207,h4712591@gmail.com,羅濟巧,20210127 17:03:15
桃園市平鎮區廣仁里辦公處,桃園市,平鎮區,桃園市平鎮區廣仁里廣南路151號,121.206543,24.93993187,C,巷弄長照站,03-4934327,ssp178@hotmail.com,黃秀滿,20210127 16:39:51
桃園市私立高強居家長照機構,桃園市,新屋區,桃園市新屋區新屋里大智路48號,121.106308,24.9701767,B,居家服務,03-4972448,yuanhsc@livemail.tw,袁智芬,20230201 17:00:39
金色年代長照社團法人附設桃園市私立天成綜合長照機構,桃園市,楊梅區,桃園市楊梅區中山里中山北路一段362號2至3樓,121.1577759,24.90877342,B,喘息服務,03-4789566,daycare01_ym@tcmg.com.tw,徐向謙,20230118 14:37:13
財團法人桃園市私立國宏老人長期照顧中心(養護型)附設桃園市私立國宏綜合式服務類長期照顧服務機構,桃園市,平鎮區,桃園市平鎮區新富里035鄰環南路二段265號2樓之5,121.2152405,24.94053459,B,喘息服務,03-4598838,rih.jhao@gmail.com,吳黃玉英,20230118 14:48:10
財團法人台灣基督長老教會泰雅爾中會光輝教會,桃園市,復興區,桃園市復興區奎輝里7鄰嘎色鬧10-1號,121.3255768,24.77710915,C,巷弄長照站,03-3821205,ccchungdaw@mohw.gov.tw,待補,20190903 09:11:31
財團法人桃園市優勝地社會福利基金會,桃園市,桃園區,桃園市桃園區豐林里介壽路352號,121.3048248,24.97986412,C,巷弄長照站,03-3626001,"uland41125525@gmail,com",白崇亮,20191231 15:50:41
桃園市私立八德老人長期照顧中心(養護型),桃園市,八德區,桃園市八德區大智里介壽路一段758巷8號,121.2999344,24.96379471,B,喘息服務,03-2182128,bade2182128@yahoo.com.tw,謝鴻倫,20230118 14:51:50
桃園市觀音區大堀社區發展協會,桃園市,觀音區,桃園市觀音區大堀里新華路2段72號,121.1267929,25.00330544,C,巷弄長照站,0910-265439,new1229@gmail.com,莊志評,20210127 17:54:50
錸工場股份有限公司附設桃園市私立錸工場社區長照機構,桃園市,龜山區,桃園市龜山區文化里019鄰華亞二路222號,121.3748169,25.04690552,B,交通接送服務,03-3280728,ruru.lai@ricare.com.tw,楊慰芬,20230426 16:07:58
財團法人聯新文教基金會平鎮區,桃園市,平鎮區,桃園市平鎮區廣泰路77號,121.1956787,24.91134834,A,個案管理服務,03-4941234,mac21370910@gmail.com,張煥禎,20230125 19:46:08
百樂居家呼吸照護所,桃園市,龜山區,桃園市龜山區復興二路131巷18號1樓,121.3740082,25.05597496,B,專業照護服務,0910-687-597,elena687597@gmail.com,白于佩,20230220 14:43:24
嘉育居家護理所,桃園市,八德區,桃園市八德區豐田二路102號13樓,121.2790146,24.98398781,B,專業照護服務,0900-277-269,jiayu2203@gmail.com,廖純藝,20230220 13:41:34
桃園市私立多慈居家長照機構,桃園市,桃園區,桃園市桃園區三民路三段539號1樓,121.3075104,24.9847374,B,喘息服務,03-3645000,Doci1120620@gmail.com,林安慈,20230921 15:34:45
桃園市私立天恩社區長照機構,桃園市,平鎮區,桃園市平鎮區廣達里環南路35巷33號2樓,121.2081223,24.95635986,B,日間照顧服務,0905-628222,tienen2020@gmail.com,湯昀芯,20230118 16:04:46
社團法人桃園市愛鄰舍協會附設桃園市私立幸福社區式服務類長期照顧服務機構,桃園市,中壢區,桃園市中壢區石頭里013鄰復興路161號3樓,121.2236633,24.95383644,B,喘息服務,03-4266770,olive4002@hotmail.com,楊若君,20230417 08:21:57
社團法人桃園市照顧服務協進會復興區,桃園市,大溪區,桃園市大溪區天祥街1、3號,121.2877731,24.87889099,A,個案管理服務,03-3873970,ch10553276@gmail.com,游昌翰,20230125 19:41:44
承恩護理之家,桃園市,平鎮區,桃園市平鎮區北勢里和平路86號6樓、7樓,121.2209702,24.94802284,B,喘息服務,03-4570518,shns001@gmail.com,蔡上瑜,20230118 15:24:56
張輝鵬診所,桃園市,大溪區,桃園市大溪區一心里民權東路94巷13號1樓,121.2915192,24.88166428,C,巷弄長照站,0910-260042,changclinic@gmail.com,張輝鵬,20210127 15:00:24
儀美長照有限公司附設桃園市私立三元居家長照機構,桃園市,大溪區,桃園市大溪區三元三街21號,121.2675705,24.88234901,B,居家服務,03-3800100,syhomecare@gmail.com,張儀載,20221216 13:41:03
職物語長照事業有限公司附設桃園市私立樂職心綜合長照機構,桃園市,桃園區,桃園市桃園區春日里2鄰春日路1038號3樓,121.3087692,25.01913834,B,日間照顧服務,03-3575608,ceo@ops-group.org,李柏毅,20220408 16:08:40
泓樂樂齡事業有限公司附設桃園市私立鳳凰居綜合長照機構,桃園市,平鎮區,桃園市平鎮區南勢里005鄰南東路2號4樓之1,121.2119751,24.91941071,B,喘息服務,03-4395830,fenghuang850@gmail.com,翁端梧,20230118 16:03:48
桃園市私立靜馨居家長照機構,桃園市,中壢區,桃園市中壢區環北路400號17樓之3,121.2267151,24.96111679,B,居家服務,03-4226760#30,shk87595577@gmail.com,田錦靜,20230201 16:03:43
旭登護理之家,桃園市,八德區,桃園市八德區大強里樹仁三街601號1至3樓,121.3097229,24.9751339,B,日間照顧服務,03-3677666-202,lilyrcw@zhco.com.tw,李麗珠,20210414 15:55:37
社團法人中華長照協會附設桃園市私立永樂居家長照機構,桃園市,桃園區,桃園市桃園區南華街60號9樓之三,121.3085327,24.99037361,B,喘息服務,03-3393439,syuan@clc5.url.tw,金浩鑫,20230223 10:05:34
天成醫療社團法人天晟醫院平鎮區,桃園市,平鎮區,桃園市平鎮區中豐路南勢二段117號三樓,121.1987686,24.91321754,A,個案管理服務,03-4397553,tcmgjt03@gmail.com,鄭貴麟,20230125 19:43:07
衛生福利部桃園醫院附設桃園市桃樂居社區長照機構,桃園市,桃園區,桃園市桃園區龍山里中華路1492號3樓,121.2720718,24.97881126,B,日間照顧服務,03-3699721分機1351,v510507@gmail.com,陳日昌,20190701 17:23:08
桃園市私立家慈居家長照機構(八德元福),桃園市,八德區,桃園市八德區福興里長興二路56號,121.2801056,24.93388176,B,喘息服務,03-3909835,fu3651901@gmail.com,張建忠,20230118 14:16:38
財團法人雙福社會福利慈善事業基金會附設桃園市私立八德麻園社區長照機構,桃園市,八德區,桃園市八德區大順里介壽路二段361巷26號1樓,121.2986221,24.94749069,B,喘息服務,03-3616339,dbds3616339@gmail.com,吳英賓,20230525 19:35:45
社團法人桃園市濟世功德協進會(中壢站),桃園市,中壢區,桃園市中壢區明德里明德路178號2樓,121.2169342,24.9594059,C,巷弄長照站,03-4949813,max246559@gmail.com,徐瑞珍,20210127 15:25:48
社團法人台灣健康整合服務協會,桃園市,八德區,桃園市八德區廣興路109巷13號5樓,121.2847519,24.93381882,B,營養餐飲服務,,thisthis10511@gmail.com,洪曼珊,20221230 16:17:18
桃園市私立銀寶寶居家長照機構,桃園市,八德區,桃園市八德區廣隆里廣福路766號3樓,121.2801971,24.960886,A,個案管理服務,03-3776048,winbobo0304@gmail.com,趙靜怡,20230125 19:49:09
桃園市私立健德居家長照機構,桃園市,八德區,桃園市八德區福興里仁德一路16號,121.2862701,24.93620682,B,居家服務,003-651-399,a0919303740@gmail.com,蔡沂伶,20230201 16:21:19
雅馨樂有限公司附設桃園市私立雅馨樂居家長照機構,桃園市,觀音區,桃園市觀音區中山路二段676號4樓,121.1365204,25.01233101,B,居家服務,03-4988982,yaxinle666@gmail.com,陳慧琪,20230712 17:24:17
桃園市蘆竹區老人長期照顧中心(養護型),桃園市,蘆竹區,桃園市蘆竹區山腳里5鄰黃帝街168號,121.2912064,25.08919907,B,喘息服務,03-3245369,henmay5566@gmail.com,林哲弘,20230308 09:48:55
社團法人愛福家協會附設桃園市私立八德大湳社區長照機構,桃園市,八德區,桃園市八德區廣隆里22鄰廣福路218號2樓,121.2939835,24.95982742,B,小規模多機能服務,03-366-3611,hr01@ilive.org.tw,涂林德媛,20230118 15:56:11
樂鑫護理之家,桃園市,中壢區,桃園市中壢區信義里廈門街91號2樓,121.2328339,24.95160675,B,喘息服務,03-4591292,lexin@livemail.tw,游曉芬,20230220 14:49:53
展橙有限公司附設桃園市私立展橙居家長照機構,桃園市,大園區,桃園市大園區田心里新興路160號1樓,121.195343,25.06081009,B,營養餐飲服務,(03)3865238,JC@zhco.com.tw,李昆璋,20230201 16:59:05
有限責任臺灣第二照顧服務勞動合作社附設桃園市私立二顧居家長照機構,桃園市,中壢區,桃園市中壢區至善里後興路一段27巷7弄19號,121.2355804,24.97711182,B,喘息服務,03-4634046,s111038@secondcare.org.tw,伍崑崙,20230118 15:17:37
桃園市龍潭區高平社區發展協會,桃園市,龍潭區,桃園市龍潭區高平里龍源路11號,121.2065201,24.82663536,C,巷弄長照站,0963-074615,abc84994@yahoo.com.tw,?寶珠,20210127 17:02:43
爺亨文化健康站,桃園市,復興區,桃園市復興區三光里8鄰爺亨6號,121.3734894,24.67059326,C,巷弄長照站,03-3912485,10019341@mail.tycg.gov.tw,高愛子,20200417 16:16:37
瑞之盟營養機構,桃園市,桃園區,桃園市桃園區中寧街12巷14之3號4樓,121.3065414,24.99762726,B,專業照護服務,0907-010-671,rzm280301@gmail.com,劉懿庭,20230216 16:53:33
慈光文化健康站,桃園市,大溪區,桃園市大溪區自強街83巷3弄,121.2855835,24.90206528,C,巷弄長照站,03-3806908,10019341@mail.tycg.gov.tw,簡蘭花,20200420 02:04:36
禾信樂齡股份有限公司附設桃園市私立禾信居家長照機構,桃園市,中壢區,桃園市中壢區中北路二段117號6樓之1號,121.2258301,24.95160294,B,喘息服務,(03)2715020,heshin1101217@gmail.com,廖奕韋,20230609 14:49:17
社團法人桃園市溫暖關懷協會附設桃園市私立溫暖居家長照機構,桃園市,中壢區,桃園市中壢區延平路500號10樓之4,121.2232895,24.95684624,B,居家服務,0966-722-813,warm201610@gmail.com,陳清文,20230803 13:08:19
美好居家物理治療所,桃園市,桃園區,桃園市桃園區國際路二段65巷6弄16-1號2樓,121.2974777,24.99368286,B,專業照護服務,03-3608678,wonderfulhomept@gmail.com,王彰國,20230220 13:34:01
恩典護理之家,桃園市,龜山區,桃園市龜山區龜山里萬壽路二段956號2至6樓,121.3377914,24.99568367,B,喘息服務,03-3490069,chiaochuan@gmail.com,王心儀,20230220 14:48:01
旭登護理之家,桃園市,八德區,桃園市八德區大強里樹仁三街601號1至3樓,121.3097229,24.9751339,C,巷弄長照站,03-3677666-202,lilyrcw@zhco.com.tw,李麗珠,20210222 16:28:06
信安護理之家,桃園市,龜山區,桃園市龜山區文化里文昌二街79、81號,121.3698502,25.05652428,A,個案管理服務,03-3272200,abfish50@yahoo.com.tw,賴美志,20230125 19:38:42
友瑞居服有限公司附設桃園市私立友瑞居家長照機構,桃園市,平鎮區,桃園市平鎮區環南路二段11號12樓之3,121.2090378,24.94466591,B,喘息服務,03-4922570,lee.adrinne@msa.hinet.net,李璽君,20230118 14:54:23
桃園市桃園區五中社區發展協會,桃園市,桃園區,桃園市桃園區中山里國聖一街192號,121.2885208,24.98419571,C,巷弄長照站,0922-540-288,cichuan@ms35.hinet.net,萬美玲,20210128 09:57:19
草漯文化健康站,桃園市,觀音區,桃園市觀音區四維路32號,121.1421356,25.04400063,C,巷弄長照站,03-4160377,10019341@mail.tycg.gov.tw,林史翠玉,20200420 02:03:53
桃園市蘆竹區坑子社區發展協會,桃園市,蘆竹區,桃園市蘆竹區坑子里2鄰13-1號,121.3163376,25.07765198,C,巷弄長照站,0928-533359,li39161022@yahoo.com.tw,陳照琳,20210128 10:12:55
桃園市私立喜來樂社區長照機構,桃園市,中壢區,桃園市中壢區至善里021鄰後寮一路161號3樓,121.246727,24.93965721,B,喘息服務,03-4163938,xilailf2020@gmail.com,何雪美,20230118 16:55:03
展橙有限公司附設桃園市私立展橙居家長照機構,桃園市,大園區,桃園市大園區田心里新興路160號1樓,121.195343,25.06081009,B,居家服務,(03)3865238,JC@zhco.com.tw,李昆璋,20230201 16:59:05
愛爾德長者事業有限公司附設桃園市私立喜大人琪霖社區長照機構,桃園市,中壢區,桃園市中壢區青埔里001鄰高鐵北路二段1號,121.2184067,25.01727486,B,喘息服務,03-287-3266,jayg1981111108@gmail.com,廖思琪,20230118 16:51:35
桃園市八德區大勇里辦公處,桃園市,八德區,桃園市八德區大勇里忠勇街415號,121.3032608,24.96907806,C,巷弄長照站,,youfen0699@yahoo.com.tw,劉信通,20210128 10:50:46
桃園市私立富立水社區長照機構,桃園市,中壢區,桃園市中壢區興南里006鄰延平路326號3樓、326之1號3樓,121.2254868,24.96043587,B,日間照顧服務,03-4258084,FLS4258084@hibox.biz,陳淑惠,20230118 16:54:31
中華民國紅十字會桃園市分會八德區,桃園市,桃園區,桃園市桃園區中福街66號,121.3039169,24.99761963,A,個案管理服務,03-3327609,tyred3393531@gmail.com,劉志清,20230125 19:35:18
桃園市私立弘成居家長照機構,桃園市,桃園區,桃園市桃園區中山里中平路98號5樓之1,121.2926254,24.98759842,A,個案管理服務,03-2205627,honchen1002@gmail.com,陳妤榛,20230125 19:32:55
佳恩長照社團法人私立楊梅佳醫住宿長照機構,桃園市,楊梅區,桃園市楊梅區裕成南路159號,121.1610107,24.90151215,B,喘息服務,034-317-786,abhnh.ym@gmail.com,蘇秀鑾,20230220 14:51:41
桃園市銀髮族協會-平鎮,桃園市,平鎮區,桃園市平鎮區南勢里平鎮區南勢里中豐路345號,121.211586,24.91033554,C,巷弄長照站,,vsc57999@gmail.com,藍徐碧珠,20210128 10:36:03
桃園市優霞雲樂活協會,桃園市,復興區,桃園市復興區霞雲里6鄰霞雲18號,121.3835907,24.81623459,C,巷弄長照站,03-3821368,ccchungdaw@mohw.gov.tw,待補,20190903 09:13:49
臺北榮民總醫院桃園分院,桃園市,桃園區,桃園市桃園區三元里成功路三段100號,121.3252411,25.00437927,C,巷弄長照站,03-3384889,t080@tyvh.gov.tw,王智弘,20210222 16:27:32
馨香有限公司附設桃園市私立馨香居家長照機構,桃園市,中壢區,桃園市中壢區中建里延平路500號12之3(Q室),121.2175751,24.95670509,B,居家服務,03-4904186,xinxiang20211101@gmail.com,馬燕柔,20220721 09:34:09
桃園市桃園區龍壽里辦公處,桃園市,桃園區,桃園市桃園區龍壽里龍泉六街68號1樓,121.2715607,24.98374367,C,巷弄長照站,0937-800086,qjojo5400@gmail.com,張玉華,20191231 15:36:14
社團法人永活齡關懷協會,桃園市,中壢區,桃園市中壢區中豐北路二段217號,121.2084427,24.98820114,B,交通接送服務,03-4265569,ff777668@gmail.com,羅傑,20230905 15:56:16
義群診所,桃園市,平鎮區,桃園市平鎮區義興街21號1樓,121.2097397,24.95116234,B,居家失能個案家庭醫師照護服務,03-4923885,cutecynid1@gmail.com,陳佳偉,20230720 15:02:49
洋恩居家物理治療所,桃園市,龜山區,桃園市龜山區文青路173號4樓之5,121.3691864,25.07296562,B,專業照護服務(CC01),03-3181652,lordkeepmyheart1128@gmail.com,陳慶儒,20230802 17:19:14
聯新國際醫院附設居家護理所,桃園市,平鎮區,桃園市平鎮區廣泰路77號,121.2052994,24.94669151,B,專業照護服務,03-4941234,chienji@landseed.com.tw,簡珍宜,20230410 08:55:11
衛生福利部桃園醫院新屋分院觀音區,桃園市,新屋區,桃園市新屋區新福二路6號,121.0308838,24.98574638,A,個案管理服務,03-4971989,chiu8782@gmail.com,鄭明德,20230125 19:22:53
衛生福利部樂生療養院附設樂福社區長照機構,桃園市,龜山區,桃園市龜山區迴龍里015鄰萬壽路一段50巷2號,121.4075241,25.0201416,B,日間照顧服務,0382006600分機3121,peiting123@yahoo.com.tw,施玲娜,20220406 13:43:39
桃園市私立同心居家式服務類長期照顧服務機構,桃園市,楊梅區,桃園市楊梅區永平里永美路339號2樓,121.1820526,24.91721344,B,喘息服務,03-2714930,4826241@gmail.com,姜博文,20230301 10:57:15
桃園市平鎮區貿易里辦公處,桃園市,平鎮區,桃園市平鎮區貿易里貿五路36號,121.2526932,24.92752647,C,巷弄長照站,0932-732119,80010847@mail.tycg.gov.tw,宋子毅,20190814 16:23:47
財團法人臺灣省桃園縣中國基督教靈糧世界佈道會中壢靈糧堂,桃園市,中壢區,桃園市中壢區信義里杭州路72號,121.2356339,24.9513855,C,巷弄長照站,0936-651818,blccj1@gmail.com,鍾添曜,20210127 15:15:32
桃園市楊梅區上田社區發展協會,桃園市,楊梅區,桃園市楊梅區上田里和平路87號,121.1259613,24.9373455,C,巷弄長照站,0921-092649,a0921092349@gmail.com,何秀蓉,20210127 16:56:58
社團法人桃園市社會服務關懷協會,桃園市,龜山區,桃園市龜山區山頂里文三三街5巷5號,121.3605576,25.05540848,C,巷弄長照站,03-3181947,aa3594375@gmail.com,陳敬吾,20210201 15:03:01
桃園市新生活文化推廣協會,桃園市,桃園區,桃園市桃園區中聖里宏昌六街316號,121.288887,24.98682213,C,巷弄長照站,,uunews.taiwam@msa.hinet.net,崔美瑛,20210128 09:57:01
天成醫院附設護理之家,桃園市,楊梅區,桃園市楊梅區梅新里新成路196號,121.1468658,24.90837097,B,喘息服務,03-4883910,chiayin88@yahoo.com.tw,洪嘉吟,20230412 09:39:06
青松達觀股份有限公司附設桃園市私立長壽綜合長照機構,桃園市,龜山區,桃園市龜山區龜山里038鄰長壽路247號,121.3398285,24.99963379,B,日間照顧服務,04-24060333,changshoumaster@qingsong.com.tw,周孟賢,20230426 13:24:32
青松達觀股份有限公司附設桃園市私立長壽綜合長照機構,桃園市,龜山區,桃園市龜山區龜山里038鄰長壽路247號,121.3398285,24.99963379,B,喘息服務,04-24060333,changshoumaster@qingsong.com.tw,周孟賢,20230426 13:35:45
桃園市私立樂寶居家長照機構,桃園市,龍潭區,桃園市龍潭區中興路685巷9弄1號1樓,121.2224426,24.86972427,B,居家服務,03-4797137,happybaby0201@gmail.com,范燕珍,20230210 17:08:49
寬福護理之家大園區,桃園市,桃園區,桃園市桃園區中山路1288巷7號,121.3100052,24.95991516,A,個案管理服務,03-2170092,canfullaunit@gmail.com,周矢綾,20230125 19:26:33
桃園市蘆竹區衛生所,桃園市,蘆竹區,桃園市蘆竹區長安路二段238號,121.2807617,25.06280708,B,專業照護服務,03-3524732,10035857@mail.tycg.gov.tw,郭怡辰,20201203 14:17:25
臺北榮民總醫院桃園分院附設桃喜居社區長照機構,桃園市,龜山區,桃園市龜山區新興里018鄰自強南路103號4樓,121.3384628,24.99149513,B,交通接送服務,03-3299645,a0922738380@gmail.com,王智弘,20230118 16:15:02
大園敏盛醫院附設護理之家,桃園市,大園區,桃園市大園區田心里華中街2號3、5樓,121.1959534,25.06231117,B,喘息服務,03-3868659,dya0975082316@gmail.com,陳淑燕,20230118 15:14:18
桃園市蘆竹區南崁社區發展協會,桃園市,蘆竹區,桃園市蘆竹區南崁里南崁路152號2樓,121.294426,25.04702568,C,巷弄長照站,0910-142107,tungyu.a168@msa.hinet.net,許新財,20210128 10:14:26
桃園市私立健安綜合長照機構,桃園市,八德區,桃園市八德區竹園里017鄰長興路469號1至3樓,121.27211,24.93246651,B,居家服務,03-3682798,ja3682798@gmail.com,陳博文,20220613 16:52:40
桃園市私立真開欣社區長照機構,桃園市,中壢區,桃園市中壢區普義里004鄰普義路171號1樓,121.2316513,24.96058273,B,日間照顧服務,03-4352525,realhappy110@gmail.com,蔡惠如,20230118 16:55:46
桃園市私立健德居家長照機構,桃園市,八德區,桃園市八德區福興里仁德一路16號,121.2862701,24.93620682,B,喘息服務,003-651-399,a0919303740@gmail.com,蔡沂伶,20230118 14:46:22
桃園市私立友緣老人長期照顧中心(養護型),桃園市,龜山區,桃園市龜山區萬壽路2段345號3樓,121.356369,25.00121307,B,喘息服務,03-3195969,yo_yuen@hotmail.com,陳濬豪,20230428 17:29:07
晨新診所,桃園市,蘆竹區,桃園市蘆竹區錦興里中正路357號,121.2909393,25.04900551,C,巷弄長照站,03-3222232,jean198122@gmail.com,呂慶城,20210127 15:01:51
社團法人桃園市濟世功德協進會(中壢站),桃園市,中壢區,桃園市中壢區明德里明德路178號2樓,121.2169342,24.9594059,B,營養餐飲服務,03-4949813,max246559@gmail.com,徐瑞珍,20201231 22:08:18
桃園市八德區明光福德協會,桃園市,八德區,桃園市八德區茄明里明光街8巷2號,121.2798309,24.98420334,C,巷弄長照站,0939-596707,joey040803@gmail.com,曾慶麟,20210127 16:09:29
白金會股份有限公司附設桃園市私立神態飛揚社區長照機構,桃園市,蘆竹區,桃園市蘆竹區新莊里012鄰大新路814巷155號,121.2409592,25.02716637,B,交通接送服務,03-3133519,mn3133519@gmail.com,張景懿,20230118 17:04:14
社團法人台灣健康整合服務協會,桃園市,八德區,桃園市八德區廣興路109巷13號5樓,121.2847519,24.93381882,A,個案管理服務,,thisthis10511@gmail.com,洪曼珊,20230125 19:39:07
財團法人台灣基督長老教會泰雅爾中會加拉教會,桃園市,復興區,桃園市復興區華陵里11鄰171-5號,121.4046173,24.69251251,C,巷弄長照站,0976-373150,ccchungdaw@mohw.gov.tw,待補,20190903 09:27:18
社團法人台灣樂活服務發展協會(蘆竹區法國號),桃園市,蘆竹區,桃園市蘆竹區羊稠里中山路72號6樓,121.2992249,25.0549202,C,巷弄長照站,0982-985298,frenchhorn726@gmail.com,馬瑞辰,20210128 11:01:29
桃園市私立富佑老人長期照顧中心(養護型),桃園市,楊梅區,桃園市楊梅區富豐里富豐南路418號,121.0778809,24.9312706,B,喘息服務,03-4721972,fk02767182@yahoo.com.tw,鄭玉蓮,20230220 16:08:48
桃園市新屋區永興社區發展協會,桃園市,新屋區,桃園市新屋區永興里文化路3段1163巷76號,121.0448151,25.00843048,B,營養餐飲服務,03-4862368,szukun.yeh@gmail.com,葉福星,20190509 15:24:07
桃園市私立長青文殊居家長照機構,桃園市,中壢區,桃園市中壢區中建里延平路500號12樓之1 (B室),121.2232895,24.95684624,B,喘息服務,0975-666-664,za0975666664@gmail.com,陳妤榛,20230220 14:48:52
財團法人中華民國佛教慈濟慈善事業基金會桃園市私立慈濟居家長照機構,桃園市,桃園區,桃園市桃園區大業里大業路一段307號6樓,121.3136139,25.00992393,B,喘息服務,03-3586111,ltc000182@tzuchi.org.tw,釋證嚴,20230220 16:00:53
?語身心診所,桃園市,中壢區,桃園市中壢區忠孝路62號,121.2561722,24.97414398,B,居家失能個案家庭醫師照護服務,03-4512181,listener.clinic@gmail.com,單瑜,20230720 13:15:47
社團法人中華民國士林靈糧堂社會福利協會附設桃園市私立蘆竹興仁社區長照機構,桃園市,蘆竹區,桃園市蘆竹區中興里興仁路330號4樓,121.2620163,25.01428413,A,個案管理服務,03-3230651,a.luchu@slsc.org.tw,吳慧絹,20230125 19:39:32
桃園市桃園區莊敬社區發展協會,桃園市,桃園區,桃園市桃園區莊敬里新埔七街169巷13號,121.2999725,25.02155876,C,巷弄長照站,03-3578268,80012095@mail.tycg.gov.tw,何文富,20191231 15:29:00
瑞之盟營養機構,桃園市,桃園區,桃園市桃園區中寧街12巷14之3號4樓,121.3065414,24.99762726,B,專業照護服務,0907-010-671,rzm280301@gmail.com,劉懿庭,20211217 17:28:51
桃園市私立恩卉居家長照機構,桃園市,八德區,桃園市八德區大湳里和平路797號1樓,121.3180084,24.95804024,B,喘息服務,03-3660586,enhui797@gmail.com,黃詩穎,20230807 09:31:56
桃園市八德區老人會,桃園市,八德區,桃園市八德區大智里福國北街220號,121.2968445,24.9631176,C,巷弄長照站,003-661-667,a0939641641@gmail.com,劉建中,20230315 17:42:57
桃園市私立慈得居家長照機構,桃園市,蘆竹區,桃園市蘆竹區南崁里經國路902號7樓F室,121.3010101,25.03364563,B,居家服務,03-3559155,cdhc1219@gmail.com,黃彥銘,20230201 16:22:33
桃園市大園區內海社區發展協會,桃園市,大園區,桃園市大園區內海里2鄰學府路11號,121.1904678,25.08658791,C,巷弄長照站,0910-173-196,sea3843431@gmail.com,許程睿,20210127 17:58:42
桃園市私立康全老人長期照顧中心(養護型),桃園市,桃園區,桃園市桃園區樹林四街26號1、2樓(B1),121.3134918,24.979496,B,喘息服務,03-3615577,K3615577@yahoo.com.tw,廖文義,20230118 14:54:47
財團法人桃園市私立國宏老人長期照顧中心(養護型)附設桃園市私立國宏綜合式服務類長期照顧服務機構,桃園市,平鎮區,桃園市平鎮區新富里035鄰環南路二段265號2樓之5,121.2152405,24.94053459,B,居家服務,03-4598838,rih.jhao@gmail.com,吳黃玉英,20230118 14:48:32
錸工場股份有限公司附設桃園市私立錸工場社區長照機構,桃園市,龜山區,桃園市龜山區文化里019鄰華亞二路222號,121.3748169,25.04690552,B,喘息服務,03-3280728,ruru.lai@ricare.com.tw,楊慰芬,20220331 15:34:22
錸工場股份有限公司附設桃園市私立錸工場社區長照機構,桃園市,龜山區,桃園市龜山區文化里019鄰華亞二路222號,121.3748169,25.04690552,B,日間照顧服務,03-3280728,ruru.lai@ricare.com.tw,楊慰芬,20230426 13:42:59
桃園市楊梅區員本社區發展協會,桃園市,楊梅區,桃園市楊梅區員本里員本路532-1號,121.1059952,24.9385128,C,巷弄長照站,03-4793070#1207,may4824870@gmail.com,黃美華,20210127 16:54:44
仁心居家物理治療所,桃園市,蘆竹區,桃園市蘆竹區長興路一段40-6號12樓,121.2737885,25.09850121,B,專業照護服務,03-3126508,Huixin.Homecare@gmail.com,鍾仁義,20230407 12:20:01
洋恩居家物理治療所,桃園市,龜山區,桃園市龜山區文青路173號4樓之5,121.3691864,25.07296562,B,專業照護服務(CC01),03-3181652,lordkeepmyheart1128@gmail.com,陳慶儒,20230802 17:19:14
社團法人愛福家協會附設桃園市私立八德大湳社區長照機構,桃園市,八德區,桃園市八德區廣隆里22鄰廣福路218號2樓,121.2939835,24.95982742,B,喘息服務,03-366-3611,hr01@ilive.org.tw,涂林德媛,20230118 15:56:11
桃園市八德區白鷺社區發展協會,桃園市,八德區,桃園市八德區茄苳里永豐路170號,121.278656,24.96507835,C,巷弄長照站,0935-250204,egret.cda@gmail.com,黃振發,20210127 17:18:44
桃園市大溪區衛生所,桃園市,大溪區,桃園市大溪區仁愛路1號,121.2949524,24.99360466,B,專業照護服務,03-3882401,10029471@mail.tycg.gov.tw,林宜秀,20201230 13:30:34
桃園市蘆竹區中福社區發展協會,桃園市,蘆竹區,桃園市蘆竹區中福里龍安街二段985號,121.2586441,25.00577927,C,巷弄長照站,0978-350-980,t120312964@yahoo.com.tw,黃文錦,20210201 16:40:02
桃園市私立康益老人長期照顧中心(養護型),桃園市,桃園區,桃園市桃園區新生路165號5樓之1,121.3077774,24.99611855,B,喘息服務,03-3347259,c09985183@gmail.com,張亭芝,20230221 15:32:16
安然企業股份有限公司附設桃園市私立富安居家長照機構,桃園市,中壢區,桃園市中壢區元化路224號6樓,121.2267151,24.96111679,B,喘息服務,03-4265566,anran0906337165@gmail.com,林鴻淙,20230410 18:19:38
至善天下護理之家,桃園市,龜山區,桃園市龜山區文化里復興二路78巷48號,121.3717728,25.05616951,B,喘息服務,03-3281896,m6rmp4u4@yahoo.com.tw,林汶諭,20230301 10:47:30
桃園市大園區沙崙社區發展協會,桃園市,大園區,桃園市大園區沙崙里12鄰41-3號,121.2441559,25.11685562,C,巷弄長照站,0933-957-339,as572551@hotmail.com,林金和,20210127 17:59:11
弘成居家護理所,桃園市,桃園區,桃園市桃園區中平路98號5樓之1,121.2931824,24.99617195,B,專業照護服務,03-2205627,honchen1002@gmail.com,陳妤榛,20230221 11:49:00
居邑長照有限公司附設桃園市私立居邑居家長照機構,桃園市,桃園區,桃園市桃園區南門里三民路三段284號4樓之2,121.3063889,24.99048233,B,喘息服務,03-3382206,juyiltc@gmail.com,黎京熒,20230223 09:21:32
桃園市平鎮區北勢社區發展協會,桃園市,平鎮區,桃園市平鎮區北華里振平街153號,121.2436829,24.92369843,C,巷弄長照站,03-4281848,sujanele@yahoo.com.tw,鄧?墩,20210127 16:49:56
桃園市中壢區新振社區發展協會,桃園市,中壢區,桃園市中壢區林森里執信一街71號,121.2276535,24.94662857,C,巷弄長照站,,lin9730@yahoo.com.tw,林明顯,20210127 16:35:52
桃園市中壢區普義里辦公處,桃園市,中壢區,桃園市中壢區普義里立和路31號,121.2308273,24.95897675,C,巷弄長照站,0928-122429,h4527613@yahoo.com.tw,黃崇修,20210127 16:34:34
桃園市桃園區福元社區發展協會,桃園市,桃園區,桃園市桃園區福元里福元街246號,121.3156662,25.00955963,C,巷弄長照站,03-3351614,asia1010925@gmail.com,朱智菁,20191231 15:39:22
桃園市私立慶安居家長照機構,桃園市,龜山區,桃園市龜山區樂善里文德路88號7樓,121.3814316,25.05725479,B,喘息服務,03-3277500,chingann2020@gmail.com,潘佩君,20230301 10:10:08
財團法人天主教德來會,桃園市,桃園區,桃園市桃園區三民里三民路1段二號九樓,121.3251877,24.99320412,C,巷弄長照站,03-3317226#20,smile_l0ve125@hotmail.com,蔡宜芬,20230419 18:51:29
田心文化健康站,桃園市,大溪區,桃園市大溪區大漢街45號,121.2898331,24.87633133,C,巷弄長照站,03-3906860,10019341@mail.tycg.gov.tw,潘玉雯,20200417 18:45:00
財團法人伊甸社會福利基金會桃園市分事務所,桃園市,八德區,桃園市八德區瑞泰里介壽路二段583巷14號,121.2984695,24.94200897,C,巷弄長照站,03-3731110,ccchungdaw@mohw.gov.tw,待補,20190903 09:35:20
錸工場股份有限公司附設桃園市私立錸工場社區長照機構,桃園市,龜山區,桃園市龜山區文化里019鄰華亞二路222號,121.3748169,25.04690552,B,喘息服務,03-3280728,ruru.lai@ricare.com.tw,楊慰芬,20230426 13:30:57
旭登護理之家,桃園市,八德區,桃園市八德區大強里樹仁三街601號1至3樓,121.3097229,24.9751339,B,喘息服務,03-3677666-202,lilyrcw@zhco.com.tw,李麗珠,20230118 07:43:00
桃園市中壢區老人會,桃園市,中壢區,桃園市中壢區中央里元化路182-2號2樓,121.2274246,24.96010399,C,巷弄長照站,0963-325785,cj450328@yahoo.com.tw,彭瑞玉,20210127 16:38:41
桃園市蘆竹區中山社區發展協會,桃園市,蘆竹區,桃園市蘆竹區中山里中山路125巷3號1樓,121.2975464,25.05554771,C,巷弄長照站,0918-218827,aa0989974738@gmail.com,黃淑芬,20210127 17:16:20
桃園市中壢區衛生所,桃園市,中壢區,桃園市中壢區溪州街296號1,121.2300644,24.96232224,B,專業照護服務,03-4352666,10023290@mail.tycg.gov.tw,謝至剛,20230111 11:53:36
財團法人桃園市亮詮公益慈善基金會附設桃園市私立亮詮居家長照機構,桃園市,中壢區,桃園市中壢區正義里福州路136號,121.23349,24.95079994,B,喘息服務,03-468-8379,liang129908@gmail.com,王欣文,20230327 12:00:17
財團法人桃園市亮詮公益慈善基金會附設桃園市私立亮詮居家長照機構,桃園市,中壢區,桃園市中壢區正義里福州路136號,121.23349,24.95079994,B,居家服務,03-468-8379,liang129908@gmail.com,王欣文,20230201 17:03:36
自立診所,桃園市,中壢區,桃園市中壢區永福路1051號,121.2520981,24.96509743,B,居家失能個案家庭醫師照護服務,032-853-377,love0922873540@yahoo.com.tw,張元穎,20230720 13:13:57
桃園市蒲公英新移民服務協會附設桃園市私立永年居家長照機構,桃園市,中壢區,桃園市中壢區福德里成功路139號2樓,121.2596741,24.97637939,B,喘息服務,03-4556020,yongnian2021@gmail.com,杜光宇,20230220 14:49:30
桃園市平鎮區湧安里辦公處,桃園市,平鎮區,桃園市平鎮區湧安里麻園街2號,121.20298,24.89293861,C,巷弄長照站,0912-251-153,myjoan168@gmail.com,陳金福,20230816 12:05:47
美一天居家物理治療所,桃園市,桃園區,桃園市桃園區龍泉一街33號4樓,121.2916336,24.99866104,B,專業照護服務(CC01),0922-073672,s9046023@gmail.com,葉茜汶,20230802 17:19:14
桃園市私立家和居家長照機構,桃園市,中壢區,桃園市中壢區龍德里龍慈路816號,121.2379684,24.93447685,B,喘息服務,03-4605691,gh4605691@gmail.com,張家溱,20230118 07:44:59
財團法人雙福社會福利慈善事業基金會附設桃園市私立八德麻園社區長照機構,桃園市,八德區,桃園市八德區大順里介壽路二段361巷26號1樓,121.2986221,24.94749069,B,日間照顧服務,03-3616339,dbds3616339@gmail.com,吳英賓,20230525 19:34:19
敦仁診所附設居家護理所,桃園市,八德區,桃園市八德區永豐路572巷21號,121.2720642,24.97592926,B,專業照護服務,03-3708262,a0936655826@gmail.com,呂惠玉,20230118 14:55:34
社團法人桃園市愛鄰舍協會附設桃園市私立幸福社區式服務類長期照顧服務機構,桃園市,中壢區,桃園市中壢區石頭里013鄰復興路161號3樓,121.2236633,24.95383644,B,日間照顧服務,03-4266770,olive4002@hotmail.com,楊若君,20230417 08:16:04
桃園市私立陽光老人長期照顧中心(養護型),桃園市,桃園區,桃園市桃園區國際路一段264號1F,121.2923203,24.96824646,B,喘息服務,03-3618728,r34s79@yahoo.com.tw,黃琴,20230118 07:41:55
衛生福利部樂生療養院附設樂福社區長照機構,桃園市,龜山區,桃園市龜山區迴龍里015鄰萬壽路一段50巷2號,121.4075241,25.0201416,B,交通接送服務,0382006600分機3121,peiting123@yahoo.com.tw,施玲娜,20230426 16:13:07
衛生福利部樂生療養院附設樂福社區長照機構,桃園市,龜山區,桃園市龜山區迴龍里015鄰萬壽路一段50巷2號,121.4075241,25.0201416,B,喘息服務,0382006600分機3121,peiting123@yahoo.com.tw,施玲娜,20230426 13:44:39
財團法人天下為公社會福利慈善事業基金會桃園區,桃園市,桃園區,桃園市桃園區縣府路306號,121.3160172,24.98837852,A,個案管理服務,03-3331378,1090810007@hungan.org,胡世賢,20230125 19:30:15
青松達觀股份有限公司附設桃園市私立長壽綜合長照機構,桃園市,龜山區,桃園市龜山區龜山里038鄰長壽路247號,121.3398285,24.99963379,B,喘息服務,04-24060333,changshoumaster@qingsong.com.tw,周孟賢,20230426 13:24:32
社團法人桃園市照顧服務協進會,桃園市,大溪區,桃園市大溪區天祥街1號,121.302124,24.97660446,B,營養餐飲服務,03-3873970,ch10553276@gmail.com,胡金蓮,20201231 22:14:38
臺北榮民總醫院桃園分院附設桃喜居社區長照機構,桃園市,龜山區,桃園市龜山區新興里018鄰自強南路103號4樓,121.3384628,24.99149513,B,日間照顧服務,03-3299645,a0922738380@gmail.com,王智弘,20230118 16:15:02
衛生福利部桃園醫院附設桃園市桃樂居社區長照機構,桃園市,桃園區,桃園市桃園區龍山里中華路1492號3樓,121.2720718,24.97881126,B,日間照顧服務,03-3699721分機1351,v510507@gmail.com,陳日昌,20230118 16:55:30
民安診所,桃園市,楊梅區,桃園市楊梅區楊梅里大成路175號1樓,121.1457138,24.9124279,C,巷弄長照站,03-4757681,4826241@gmail.com,何建翰,20210127 14:59:18
桃園市八德區大興社區發展協會,桃園市,八德區,桃園市八德區大興里介壽路二段361巷96號,121.2997284,24.94722748,C,巷弄長照站,0933-781-005,a0933781005@gmail.com,林本堅,20210127 17:56:29
長慎醫院,桃園市,中壢區,桃園市中壢區普慶里中山東路2段525號1樓,121.2462311,24.94734955,B,喘息服務,03-4569779#197,canoffice@ansn.com.tw,黃達堯,20210222 16:27:45
桃園市平鎮區福林里辦公處,桃園市,平鎮區,桃園市平鎮區福林里東豐路326號,121.2190399,24.90197754,C,巷弄長照站,0925-277-293,aga0925277293@hotmail.com,彭士益,20210128 10:40:31
職物語長照事業有限公司附設桃園市私立樂職心綜合長照機構,桃園市,桃園區,桃園市桃園區春日里2鄰春日路1038號3樓,121.3087692,25.01913834,B,喘息服務,03-3575608,ceo@ops-group.org,李柏毅,20230118 15:11:12
聯新國際醫院,桃園市,平鎮區,桃園市平鎮區廣泰路七七號、桃園市平鎮區延平路二段430巷115號,121.2048492,24.94202995,B,居家失能個案家庭醫師照護服務,03- 4941234,hive789456@gmail.com,張煥禎,20230720 14:39:52
有限責任臺灣第二照顧服務勞動合作社附設桃園市私立二顧居家長照機構,桃園市,中壢區,桃園市中壢區至善里後興路一段27巷7弄19號,121.2355804,24.97711182,B,居家服務,03-4634046,s111038@secondcare.org.tw,伍崑崙,20230201 16:04:16
友瑞居服有限公司附設桃園市私立友瑞居家長照機構,桃園市,平鎮區,桃園市平鎮區環南路二段11號12樓之3,121.2090378,24.94466591,B,居家服務,03-4922570,lee.adrinne@msa.hinet.net,李璽君,20220628 18:40:52
桃園市八德區愛心關懷發展協會,桃園市,八德區,桃園市八德區高明里永豐路572巷19號,121.2720566,24.97592354,C,巷弄長照站,03-3702472,a3702472@yahoo.com.tw,簡妤如,20210127 16:09:49
桃園市大園區北港社區發展協會,桃園市,大園區,桃園市大園區北港里9鄰潮音二路226號,121.1565552,25.06674576,C,巷弄長照站,0937-174-545,a0933145579@gmail.com,許良謀,20210127 17:57:04
泓樂樂齡事業有限公司附設桃園市私立鳳凰居綜合長照機構,桃園市,平鎮區,桃園市平鎮區南勢里005鄰南東路2號4樓之1,121.2119751,24.91941071,B,喘息服務,03-4395830,fenghuang850@gmail.com,翁端梧,20230118 15:16:58
桃園市八德區明仁社區發展協會,桃園市,八德區,桃園市八德區大明里興隆街11巷8號,121.3272476,24.96746826,C,巷弄長照站,0918-267-618,cindy072555@gmail.com,王春花,20230130 11:32:08
桃園市中壢區內厝里辦公處,桃園市,中壢區,桃園市中壢區內厝里9鄰崇德路99號,121.1814194,24.98965263,C,巷弄長照站,"""03-4988067 03-4987975",lan_0210@yahoo.com.tw,劉綵螢,20210128 10:40:01
桃園市復興區愛心關懷協會(社區式服務交通接送),桃園市,復興區,桃園市復興區澤仁里忠孝路34號,121.3514252,24.81463242,B,交通接送服務,03-3822839,alicewang19891030@gmail.com,王薏茹,20230118 17:00:12
衛生福利部樂生療養院附設樂福社區長照機構,桃園市,龜山區,桃園市龜山區迴龍里015鄰萬壽路一段50巷2號,121.4075241,25.0201416,B,日間照顧服務,0382006600分機3121,peiting123@yahoo.com.tw,施玲娜,20230426 13:44:39
桃園市八德區瑞發服務協會,桃園市,八德區,桃園市八德區瑞發里介壽路2段946巷2號,121.2970734,24.93498611,C,巷弄長照站,0953-001255,a0985908411@gmail.com,王國棟,20210127 16:08:56
敦仁診所,桃園市,中壢區,桃園市中壢區忠孝路18號,121.256897,24.97297478,B,居家失能個案家庭醫師照護服務,03-3708262,a0936655826@gmail.com,蕭敦仁,20230720 13:14:27
桃園市私立靜馨居家長照機構,桃園市,中壢區,桃園市中壢區環北路400號17樓之3,121.2267151,24.96111679,B,喘息服務,03-4226760#30,shk87595577@gmail.com,田錦靜,20230118 15:16:29
桃園市中壢區月眉社區發展協會,桃園市,中壢區,桃園市中壢區月眉里月桃路828號,121.1903305,25.00868416,C,巷弄長照站,0935-695-701,j48125479@yahoo.com.tw,王文雄,20210127 18:00:24
桃園市私立宜家老人長期照顧中心(養護型),桃園市,桃園區,桃園市桃園區經國路242號2樓,121.303978,25.02061081,B,喘息服務,03-3568810,plin6361@gmail.com,高嘉芸,20230118 14:34:50
財團法人桃園市私立國宏老人長期照顧中心(養護型)附設桃園市私立國宏綜合式服務類長期照顧服務機構,桃園市,平鎮區,桃園市平鎮區新富里035鄰環南路二段265號2樓之5,121.2152405,24.94053459,B,日間照顧服務,03-4598838,rih.jhao@gmail.com,吳黃玉英,20230118 14:48:32
桃園市桃園區大檜溪社區發展協會,桃園市,桃園區,桃園市桃園區會稽里001鄰興一街65巷50號,121.3161392,25.01421356,C,巷弄長照站,03-3464042,dxkuaixi@gmail.com,謝縉霟,20210127 16:52:55
惠心居家護理所,桃園市,蘆竹區,桃園市蘆竹區聯福街10號,121.2879562,25.05051613,B,專業照護服務,03-3126508,miowo0921@gmail.com,莊靖惠,20230407 12:15:57
桃園市泓樂身心關懷協會附設桃園市私立梧桐樹社區式服務類長期照顧服務機構,桃園市,平鎮區,桃園市平鎮區南勢里南東路2號4樓,121.2119751,24.91941071,B,喘息服務,03-4395853,honglove0101@gmail.com,翁端梧,20230118 16:04:21
宥心生活有限公司附設桃園市私立宥心居家長照機構,桃園市,楊梅區,桃園市楊梅區楊明里026鄰新農街591號2樓,121.1637878,24.91333961,B,居家服務,03-4852286,ablelife.tw@gmail.com,衛淑嫻,20230409 10:21:04
臺北榮民總醫院桃園分院附設松柏園護理之家,桃園市,桃園區,桃園市桃園區三元里成功路三段100號之3,121.3252411,25.00437927,B,喘息服務,003-384-889,sjwang30919@gmail.com,鄒芳榆,20230118 14:52:24
龍潭敏盛醫院附設居家護理所,桃園市,龍潭區,桃園市龍潭區中豐路168號,121.2136765,24.8750267,B,專業照護服務,03-4794151,N001098@e-ms.com.tw,邱瑞玲,20230301 10:48:49
家福聯合藥局,桃園市,桃園區,桃園市桃園區中山路623號,121.2939377,24.99093437,B,專業照護服務,03-2289492,chiayehdu@gmail.com,杜佳曄,20220408 16:15:28
宥心生活有限公司附設桃園市私立宥心居家長照機構,桃園市,楊梅區,桃園市楊梅區楊明里026鄰新農街591號2樓,121.1637878,24.91333961,B,專業照護服務,03-4852286,ablelife.tw@gmail.com,衛淑嫻,20230220 14:28:53
桃園市私立以樂居家長照機構,桃園市,龍潭區,桃園市龍潭區健行路345巷67號2樓,121.2307739,24.86714363,B,居家服務,03-4095219,chenzm0105@gmail.com,宋慶輝,20220628 13:17:59
桃園市觀音區保生社區發展協會,桃園市,觀音區,桃園市觀音區保生里保成路32號,120.5689774,24.2127037,C,巷弄長照站,03-4736138,jin.lc@seed.net.tw,廖經贈,20210127 17:17:23
衛生福利部樂生療養院附設樂福社區長照機構,桃園市,龜山區,桃園市龜山區迴龍里015鄰萬壽路一段50巷2號,121.4075241,25.0201416,B,喘息服務,0382006600分機3121,peiting123@yahoo.com.tw,施玲娜,20230426 13:47:03
懷恩展業有限公司附設桃園市私立懷恩居家長照機構,桃園市,平鎮區,桃園市平鎮區南京路127號2樓,121.2074814,24.91615677,B,喘息服務,03-2759569,huaienhs@gmail.com,曾國瑋,20230607 14:34:41
桃園市蘆竹區衛生所附設居家護理所,桃園市,蘆竹區,桃園市蘆竹區內厝村長安路二段238號,121.2804642,25.06306458,B,專業照護服務,,10020951@mail.tycg.gov.tw,劉淑惠,20230118 15:41:47
寬福護理之家桃園區,桃園市,桃園區,桃園市桃園區中山路1288巷7號,121.2751236,24.98173714,A,個案管理服務,03-2170092,canfullaunit@gmail.com,周矢綾,20230125 19:26:22
瑞之盟營養機構,桃園市,桃園區,桃園市桃園區中寧街12巷14之3號4樓,121.3065414,24.99762726,B,專業照護服務,0907-010-671,rzm280301@gmail.com,劉懿庭,20220208 16:47:27
守心長期照護股份有限公司附設桃園市私立守心居家長照機構,桃園市,桃園區,桃園市桃園區國聖二街155號,121.2877655,24.98412132,B,喘息服務,03-3691188,guard1care7@gmail.com,林木益,20230223 10:00:42
財團法人桃園縣中華基督教中壢浸信會,桃園市,中壢區,桃園市中壢區舊明里民族路53號,121.2139053,24.95558167,C,巷弄長照站,0931-100467,yousing5945@gmail.com,戴文峻,20210127 15:10:16
桃園市私立長青文殊居家長照機構,桃園市,中壢區,桃園市中壢區中建里延平路500號12樓之1 (B室),121.2232895,24.95684624,B,居家服務,0975-666-664,za0975666664@gmail.com,陳妤榛,20210104 15:35:08
桃園市私立紫園社區長照機構,桃園市,蘆竹區,桃園市蘆竹區南崁里中正路90號,121.2931137,25.04604912,B,日間照顧服務,0955-913261,tanya2004712@yahoo.com.tw,歐雅綺,20230118 17:05:25
桃園市中壢區洽溪社區發展協會,桃園市,中壢區,桃園市中壢區洽溪里民權路4段546號,121.202034,25.00876427,C,巷弄長照站,0920-817-693,laicy.chien@msa.hinet.net,羅玉櫻,20210127 18:00:09
弘成居家護理所,桃園市,桃園區,桃園市桃園區中平路98號5樓之1,121.2931824,24.99617195,A,個案管理服務,03-2205627,honchen1002@gmail.com,陳妤榛,20230125 19:33:04
桃園市私立長青社區長照機構,桃園市,桃園區,桃園市桃園區南華里鎮南街58-3號,121.3074646,24.99058342,B,喘息服務,03-3390513,a3797266@gmail.com,馬張志成,20230117 10:25:54
桃園市私立慈園老人長期照顧中心(養護型),桃園市,龍潭區,桃園市龍潭區武中路558號,121.2372894,24.88453674,B,喘息服務,03-4700766,ks190558@yahoo.com.tw,黃翊慈,20230118 15:07:44
健群診所,桃園市,觀音區,桃園市觀音區中正路242號1樓正路242號1樓,121.0808182,25.0353508,B,居家失能個案家庭醫師照護服務,03-4738658,cassisa776@gmail.com,牟珊珊,20230720 14:51:29
桃園市私立家淇社區長照機構,桃園市,蘆竹區,桃園市蘆竹區南崁里忠孝東路20號2樓,121.2950668,25.04552269,B,喘息服務,03-3116641,jiaqi5338@gmail.com,黃郁棋,20230118 17:02:36
雅馨樂有限公司附設桃園市私立雅馨樂居家長照機構,桃園市,觀音區,桃園市觀音區中山路二段676號4樓,121.1365204,25.01233101,B,喘息服務,03-4988982,yaxinle666@gmail.com,陳慧琪,20230814 15:25:22
信安護理之家,桃園市,龜山區,桃園市龜山區文化里文昌二街79、81號,121.3698502,25.05652428,B,喘息服務,03-3272200,abfish50@yahoo.com.tw,賴美志,20230125 19:38:42
桃園市私立鈺?社區長照機構,桃園市,中壢區,桃園市中壢區自強里020鄰榮民路128號6樓,121.2603378,24.96751976,B,喘息服務, 03-4350707,yuchyuan110@gmail.com,蔡惠如,20230118 16:56:14
桃園市中壢區興仁社區發展協會,桃園市,中壢區,桃園市中壢區興仁里榮光街11號,121.2621307,24.96544838,C,巷弄長照站,0933-966-707,80012433@mail.tycg.gov.tw,李振榮,20210127 14:53:57
桃園市新屋區後庄社區發展協會,桃園市,新屋區,桃園市新屋區東明里五鄰東福路2段515號,121.0828323,24.97647285,C,巷弄長照站,0936-678973,hsukneng@gmail.com,姜禮醮,20210127 17:12:30
桃園市私立開心社區長照機構,桃園市,大溪區,桃園市大溪區一德里007鄰文化路247號,121.2885818,24.8762188,B,日間照顧服務,003-880-808,chilu_jo@yahoo.com.tw,周基路,20230118 17:01:43
桃園市觀音區藍埔社區發展協會,桃園市,觀音區,桃園市觀音區藍埔里新華路一段711號,121.1176834,25.0063591,C,巷弄長照站,03-4870380,yins812000@gmail.com,李鴻湘,20210127 17:55:09
大明醫院,桃園市,龜山區,桃園市龜山區萬壽路二段964號、966號,121.3340149,24.99372101,A,個案管理服務,03 3202792,dm1966a1@gmail.com,張永誠,20230125 19:37:58
桃園市大園區衛生所附設居家護理所,桃園市,大園區,桃園市大園區田心村中正西路19號,121.1954803,25.06335449,B,專業照護服務,,forest6688@yahoo.com.tw,何佳齡,20230207 07:25:06
桃園市桃園區朝陽社區發展協會,桃園市,桃園區,桃園市桃園區朝陽里朝陽街63號,121.3129196,24.99783707,C,巷弄長照站,03-3378009,chaoyanglee.office@gmail.com,卓正斌,20191231 15:56:23
桃園市私立名揚居家長照機構,桃園市,楊梅區,桃園市楊梅區紅梅里秀才路33號1樓(前棟),121.0852509,24.89943314,B,居家服務,03-4851355,myhsltci@gmail.com,陳秀珠,20210825 18:35:18
忠祥居家護理所,桃園市,中壢區,桃園市中壢區中山東路3段447號2樓(文化209室),121.253418,24.93846703,B,專業照護服務,02-22475603          03-4668584,lily.coffee.iris@gmail.com,張莉君,20230220 14:31:59
桃園市私立海森老人長期照顧中心(養護型),桃園市,蘆竹區,桃園市蘆竹區蘆興里盧興南路403巷26號,121.2855911,25.03375816,B,喘息服務,03-3228886,hyesoncare@gmail.com,蔡雅芳,20230428 14:23:29
桃園市私立十分之一居家長照機構,桃園市,桃園區,桃園市桃園區大興西路二段6號8樓之4,121.2995071,25.01231384,B,喘息服務,03-3028810,onetenth20211001@gmail.com,周璟翔,20230223 09:45:48
桃園市楊梅區上湖社區發展協會,桃園市,楊梅區,桃園市楊梅區上湖里楊湖路3段679-1號,121.08255,24.91236687,C,巷弄長照站,0953-601169,anita92017@hotmail.com,陳星燕,20210127 16:55:32
德宣居家長照有限公司附設桃園市私立德宣居家長照機構,桃園市,平鎮區,桃園市平鎮區中豐路山頂段66號1-3樓,121.2071762,24.91915131,B,喘息服務,0976-249-599,niu830411@gmail.com,牛姵婷,20230118 14:44:51
旭登護理之家,桃園市,八德區,桃園市八德區大強里樹仁三街601號1至3樓,121.3097229,24.9751339,B,喘息服務,03-3677666-202,lilyrcw@zhco.com.tw,李麗珠,20210222 16:28:06
財團法人中華民國佛教慈濟慈善事業基金會桃園市私立慈濟居家長照機構,桃園市,桃園區,桃園市桃園區大業里大業路一段307號6樓,121.3136139,25.00992393,B,居家服務,03-3586111,ltc000182@tzuchi.org.tw,釋證嚴,20230201 16:59:49
桃園市私立多慈居家長照機構,桃園市,桃園區,桃園市桃園區三民路三段539號1樓,121.3075104,24.9847374,B,居家服務,03-3645000,Doci1120620@gmail.com,林安慈,20230921 12:45:12
桃園市蘆竹區營盤社區發展協會,桃園市,蘆竹區,桃園市蘆竹區營福里中山路108巷21號,121.2992554,25.05652237,C,巷弄長照站,0938-083678,yingpan100@yahoo.com.tw,洪素秋,20210127 17:54:38
桃園市私立同心居家式服務類長期照顧服務機構,桃園市,楊梅區,桃園市楊梅區永平里永美路339號2樓,121.1820526,24.91721344,B,居家服務,03-2714930,4826241@gmail.com,姜博文,20230201 16:17:07
桃園市觀音區衛生所附設居家護理所,桃園市,觀音區,桃園市觀音區觀新路58號,121.083786,25.02795219,B,專業照護服務,,10042980@mail.tycg.gov.tw,吳雪玲,20230220 14:33:51
家福聯合藥局,桃園市,桃園區,桃園市桃園區中山路623號,121.2939377,24.99093437,B,專業照護服務(CC01),03-2289492,chiayehdu@gmail.com,杜佳曄,20230802 17:19:14
家福聯合藥局,桃園市,桃園區,桃園市桃園區中山路623號,121.2939377,24.99093437,B,專業照護服務,03-2289492,chiayehdu@gmail.com,杜佳曄,20230221 11:54:07
愛爾德長者事業有限公司附設桃園市私立喜大人琪霖社區長照機構,桃園市,中壢區,桃園市中壢區青埔里001鄰高鐵北路二段1號,121.2184067,25.01727486,B,日間照顧服務,03-287-3266,jayg1981111108@gmail.com,廖思琪,20230118 16:51:35
桃園居家職能治療所,桃園市,中壢區,桃園市中壢區中華路一段617號2樓,121.2507782,24.96922684,B,專業照護服務(CC01),03-4553095,tyhotc@gmail.com,張玉婷,20230802 17:19:14
社團法人桃園市照顧服務協進會大溪區,桃園市,大溪區,桃園市大溪區中央路27號1樓之1,121.2877731,24.87889099,A,個案管理服務,03-3873970,ch10553276@gmail.com,游昌翰,20230125 19:41:36
高義文化健康站,桃園市,復興區,桃園市復興區高義里6鄰53之3 號,121.3534393,24.7051239,C,巷弄長照站,03-3912182,10019341@mail.tycg.gov.tw,高美花,20200417 16:38:33
桃園市蘆竹區宏竹社區發展協會,桃園市,蘆竹區,桃園市蘆竹區宏竹里大華街101號,121.2566147,25.04026413,C,巷弄長照站,0922-949-188,80020481@mail.tycg.gov.tw,黃文源,20191231 14:37:16
衛生福利部桃園醫院新屋分院附設居家護理所,桃園市,新屋區,桃園市新屋區新福二路6號,121.1069565,24.96974182,B,專業照護服務,03-4971989,cphh12@mail.tygh.gov.tw,陳彥凌,20211003 14:42:51
楊梅區金龍社區發展協會,桃園市,楊梅區,桃園市楊梅區金龍里中興路236號-1號,121.1865082,24.91441536,C,巷弄長照站,03-4822215,4822215@gmail.com,姚昌泰,20210127 16:57:34
楊梅區大東社區發展協會,桃園市,楊梅區,桃園市楊梅區東流里甡甡路440號,121.1296387,24.89584923,C,巷弄長照站,0938-530376,a4788210@yahoo.com.tw,劉定唐,20210128 10:01:27
中華民國紅十字會桃園市分會龜山區,桃園市,桃園區,桃園市桃園區中福街66號,121.3039169,24.99761963,A,個案管理服務,03-3327609,tyred3393531@gmail.com,劉志清,20230125 19:35:29
桃園市私立大利家成功社區長照機構,桃園市,中壢區,桃園市中壢區內壢里021鄰成功路146號2樓,121.2599716,24.97652626,B,喘息服務,03-4553320,chenchen5401@gmail.com,陳忱,20230801 13:49:57
樂福居家護理所,桃園市,桃園區,桃園市桃園區同德十街20巷21號9樓,121.2940598,25.01861763,B,專業照護服務,03-2160080,momomayaab@gmail.com,陳孟筠,20230221 11:26:37
桃園市觀音區草新社區發展協會,桃園市,觀音區,桃園市觀音區草新里新生路1148號,121.1416779,25.0460434,C,巷弄長照站,03-4836724,alice.chen750417@yahoo.com.tw,陳峰男,20210128 10:26:05
桃園市桃園區小檜溪社區發展協會,桃園市,桃園區,桃園市桃園區青溪里鎮撫街41號,121.3144608,24.99817085,C,巷弄長照站,0911-945113,lin19630323@gmail.com,簡瑞鏞,20210127 16:51:24
桃園市平鎮區獅子林社區發展協會,桃園市,平鎮區,桃園市平鎮區北貴里大仁街46號,121.2205124,24.94224358,C,巷弄長照站,03-4280812,a0910805324yahoo.com.tw,張寶珠,20210127 16:50:29
社團法人台灣樂活服務發展協會(普強據點),桃園市,中壢區,桃園市中壢區普強里民有街17號1樓,121.2380905,24.95303726,C,巷弄長照站,03-4667530,80012433@tycg.gov.com.tw,黃仁勝,20210128 15:27:09
財團法人台灣基督長老教會泰雅爾中會砂崙子教會,桃園市,復興區,桃園市復興區三光里砂崙子3鄰15號,121.3525925,24.66966438,C,巷弄長照站,03-3915915,ccchungdaw@mohw.gov.tw,帖如伊梵,20190912 12:08:12
旭登護理之家八德區,桃園市,八德區,桃園市八德區樹仁三街601號,121.2856293,24.95493507,A,個案管理服務,03-2181190,sdhs2181190@gmail.com,李麗珠,20230125 19:27:55
桃園市觀音區塔腳社區發展協會,桃園市,觀音區,桃園市觀音區塔腳里塔腳路116號,121.1577988,25.04885674,C,巷弄長照站,03-4160168,amy394361@yahoo.com.tw,李宜蓁,20210128 17:45:08
桃園市私立吉安老人長期照顧中心(養護型),桃園市,桃園區,桃園市桃園區朝陽街二段26、28號1樓,121.3157196,24.99160004,B,喘息服務,03-3345631,jianoffice1003@gmail.com,趙玉華,20230224 09:48:56
財團法人台灣省私立桃園仁愛之家,桃園市,楊梅區,桃園市楊梅區高榮里梅獅路539巷3號,121.1827087,24.9002037,B,居家服務,03-4643385,aepexpingo@gmail.com,李建榮,20230201 17:35:36
財團法人台灣基督長老教會泰雅爾中會光輝教會附設桃園市私立光輝葛菈行嘎浪社區長照機構,桃園市,復興區,桃園市復興區奎輝里嘎色鬧7鄰10-1號,121.3255768,24.77710724,B,喘息服務,03-3821205,hosimi0908@gmail.com,徐正義,20230202 16:54:47
桃園市龍潭區凌雲社區發展協會,桃園市,龍潭區,桃園市龍潭區凌雲里干城路19巷28號,121.207077,24.86793518,C,巷弄長照站,03-4994828,yiru8285@yahoo.com.tw,曾守誌,20210127 17:03:47
德宥居家有限公司附設桃園市私立德宥居家長照機構,桃園市,中壢區,桃園市中壢區新街里環北路398號12樓之2,121.2262497,24.96550941,B,居家服務,03-4276354,niu83403535@gmail.com,牛宥傑,20210112 09:58:12
仁仁居家護理所,桃園市,平鎮區,桃園市平鎮區環南路二段280號18樓-1,121.2146606,24.93994522,B,專業照護服務,03-4685666,renren324@yahoo.com.tw,陳香君,20230410 10:26:59
守心長期照護股份有限公司附設桃園市私立守心居家長照機構,桃園市,桃園區,桃園市桃園區國聖二街155號,121.2877655,24.98412132,B,居家服務,03-3691188,guard1care7@gmail.com,林木益,20221013 09:49:21
桃園市私立祥安老人長期照顧中心（養護型）,桃園市,龜山區,桃園市龜山區文化三路78巷30弄26號,121.3613892,25.05822754,B,喘息服務,03-3975862,aabc5862tw@gmail.com,黃日華,20230203 10:57:21
財團法人天主教德來會,桃園市,桃園區,桃園市桃園區三民里三民路1段二號九樓,121.3251877,24.99320412,B,喘息服務,03-3317226#20,smile_l0ve125@hotmail.com,蔡宜芬,20230419 18:46:08
洋恩居家物理治療所,桃園市,龜山區,桃園市龜山區文青路173號4樓之5,121.3691864,25.07296562,B,專業照護服務,03-3181652,lordkeepmyheart1128@gmail.com,陳慶儒,20230118 15:24:22
桃園市私立大利家成功社區長照機構,桃園市,中壢區,桃園市中壢區內壢里021鄰成功路146號2樓,121.2599716,24.97652626,B,日間照顧服務,03-4553320,chenchen5401@gmail.com,陳忱,20230801 13:49:57
臺北榮民總醫院桃園分院附設桃喜居社區長照機構,桃園市,龜山區,桃園市龜山區新興里018鄰自強南路103號4樓,121.3384628,24.99149513,B,喘息服務,03-3299645,a0922738380@gmail.com,王智弘,20230118 16:15:02
長慎醫院,桃園市,中壢區,桃園市中壢區普慶里中山東路2段525號1樓,121.2462311,24.94734955,C,巷弄長照站,03-4569779#197,canoffice@ansn.com.tw,黃達堯,20210222 16:27:45
社團法人桃園市愛鄰舍協會(新明據點),桃園市,中壢區,桃園市中壢區五福里中正路447號4樓,121.2141113,24.95651627,C,巷弄長照站,,sphyae683@hotmail.com,林雄堅,20210128 11:01:48
活力診所,桃園市,中壢區,桃園市中壢區山東里莊敬路160號2樓,121.2574081,24.96802521,B,喘息服務,03-4826241#323,4826241@gmail.com,張聖暉,20201230 13:08:40
社團桃園市健康家庭教育協會,桃園市,楊梅區,桃園市楊梅區金溪里中山北路2段23巷2號3樓,121.1677704,24.90854073,C,巷弄長照站,03-4315737,yumasusan@gmail.com,湯簡如,20210127 15:35:25
寬福護理之家,桃園市,桃園區,桃園市桃園區龍祥里裕和街35號,121.2738113,24.98214912,B,喘息服務,03-3702500,cfnh99169042@gmail.com,周矢綾,20230118 14:31:37
大樂樂健康事業有限公司附設桃園市私立大久居家長照機構,桃園市,桃園區,桃園市桃園區文明里南華街60號6樓之1,121.3085327,24.99037361,B,居家服務,033-390-063,dajiu111@gmail.com,陳彥伶,20230103 15:31:39
桃園市私立佳緣社區長照機構,桃園市,八德區,桃園市八德區茄明里中華路92號,121.2802811,24.98555565,B,日間照顧服務,(03)378-0678,ps033780678@gmail.com,李沛嫻,20230118 15:56:40
維賢診所,桃園市,平鎮區,桃園市平鎮區和平路125號1樓,121.2206497,24.94725418,B,居家失能個案家庭醫師照護服務,03-4683636,ws034683636@gmail.com,戴維賢,20230720 13:25:54
社團法人中華民國士林靈糧堂社會福利協會附設桃園市私立蘆竹興仁社區長照機構,桃園市,蘆竹區,桃園市蘆竹區中興里興仁路330號4樓,121.2620163,25.01428413,B,小規模多機能服務,03-3230651,a.luchu@slsc.org.tw,吳慧絹,20230118 17:03:38
世豪小客車租賃有限公司,桃園市,桃園區,桃園市桃園區永安路223號3樓,121.3035049,24.99825668,B,交通接送服務,03-331-6367,peggyhuang6924@gmail.com,舒茂松,20230201 09:05:51
社團法人臺中市綠生活創意行動協會(桃園),桃園市,平鎮區,桃園市平鎮區義興里育英路65號3樓,121.2113113,24.95125961,B,交通接送服務,03-2550001,aogwtaoyuan@gmail.com,徐宜生,20230201 09:04:54
長榮健康長照社團法人附設桃園市私立榮安居家長照機構,桃園市,中壢區,桃園市中壢區自治里環中東路106巷3弄35號,121.2576675,24.96469688,B,喘息服務,03-4515286,ronganltci@gmail.com,謝麗玲,20230203 08:35:04
財團法人天主教德來會附設桃園市私立德來綜合長照機構,桃園市,桃園區,桃園市桃園區三民里三民路一段2號2樓,121.3233032,24.99634743,B,居家服務,03-3317226,joannahsieh9102005@yahoo.com,蔡宜芬,20210902 10:10:45
桃園市私立心純社區長照機構,桃園市,楊梅區,桃園市楊梅區裕新里6鄰裕成南路280巷15號,121.1573029,24.90066528,B,家庭托顧服務,03-4313038,a0952320969@gmail.com,李麗慧,20230118 16:03:14
桃園市私立松林老人長期照顧中心（長期照護型）,桃園市,龜山區,桃園市龜山區復興北路6巷42號,121.3679352,25.05881691,B,喘息服務,03-3288001,evonne.huang@msa.hinet.net,黃銘宏,20230110 13:39:14
財團法人中華民國佛教慈濟慈善事業基金會中壢區,桃園市,中壢區,桃園市中壢區中山路493號1樓,121.2151566,24.95692825,A,個案管理服務,0982-041307,ltc000201@tzuchi.org.tw,釋證嚴,20230125 19:40:35
財團法人錸德文教基金會附設桃園市私立新屋頭洲社區長照機構,桃園市,新屋區,桃園市新屋區頭洲里福州一街40號1樓,121.5429308,24.9681978,B,日間照顧服務,03-4900928,ricare.xinwu01@gmail.com,楊慰芬,20230119 16:03:21
民安診所,桃園市,楊梅區,桃園市楊梅區楊梅里大成路175號1樓,121.1457138,24.9124279,C,巷弄長照站,03-4757681,4826241@gmail.com,何建翰,20210201 16:08:48
桃園市新屋區笨港社區發展協會,桃園市,新屋區,桃園市新屋區笨港里8號,121.0263138,24.97424698,C,巷弄長照站,0952-706358,huang.jb@msa.hinet.net,黃建興,20210127 17:14:04
桃園市私立銀寶寶居家長照機構,桃園市,八德區,桃園市八德區廣隆里廣福路766號3樓,121.2801971,24.960886,B,居家服務,03-3776048,winbobo0304@gmail.com,趙靜怡,20230201 16:21:46
臺北榮民總醫院桃園分院附設居家護理所,桃園市,桃園區,桃園市桃園區成功路三段100號,121.3252411,25.00437927,B,專業照護服務,03-3384889,n196@tyvh.gov.tw,邱敏蓮,20230203 10:47:18
衛生福利部桃園醫院附設桃園市桃樂居社區長照機構,桃園市,桃園區,桃園市桃園區龍山里中華路1492號3樓,121.2720718,24.97881126,B,喘息服務,03-3699721分機1351,v510507@gmail.com,陳日昌,20230118 16:55:30
(交通接送)社團法人中華民國五福社會服務協會,桃園市,大溪區,桃園市大溪區復興路二段707號,121.3291245,24.8322258,B,交通接送服務,03-5977848,catalpa2006@hotmail.com,游武憲,20230720 13:24:17
錸工場股份有限公司附設桃園市私立錸工場社區長照機構,桃園市,龜山區,桃園市龜山區文化里019鄰華亞二路222號,121.3748169,25.04690552,B,日間照顧服務,03-3280728,ruru.lai@ricare.com.tw,楊慰芬,20230426 13:30:57
丞欣健康事業有限公司附設桃園市私立丞欣居家長照機構,桃園市,新屋區,桃園市新屋區三民路255巷51弄10號1樓,121.1057434,24.96672058,B,喘息服務,03-4770800,fifi0903@yahoo.com.tw,胡純純,20230921 16:00:38
財團法人桃園市私立國宏老人長期照顧中心(養護型),桃園市,平鎮區,桃園市平鎮區北貴里關爺東路19-5號,121.2206116,24.9292984,B,營養餐飲服務,03-4582977,chang7716@gmail.com,吳黃玉英,20201231 22:09:30
桃園市私立家淇社區長照機構,桃園市,蘆竹區,桃園市蘆竹區南崁里忠孝東路20號2樓,121.2950668,25.04552269,B,日間照顧服務,03-3116641,jiaqi5338@gmail.com,黃郁棋,20230118 17:02:36
桃園居家職能治療所,桃園市,中壢區,桃園市中壢區中華路一段617號2樓,121.2507782,24.96922684,B,專業照護服務,03-4553095,tyhotc@gmail.com,張玉婷,20230207 07:24:06
桃園市私立慈家老人長期照顧中心(養護型),桃園市,桃園區,桃園市桃園區新生路165號6樓之1,121.3078766,24.99598312,B,喘息服務,03-3331155,t33311.c55@msa.hinet.net,蕭敦仁,20230221 15:34:30
泓樂樂齡事業有限公司附設桃園市私立鳳凰居綜合長照機構,桃園市,平鎮區,桃園市平鎮區南勢里005鄰南東路2號4樓之1,121.2119751,24.91941071,B,居家服務,03-4395830,fenghuang850@gmail.com,翁端梧,20230118 16:03:48
桃園市私立慶安居家長照機構,桃園市,龜山區,桃園市龜山區樂善里文德路88號7樓,121.3814316,25.05725479,B,喘息服務,03-3277500,chingann2020@gmail.com,潘佩君,20200713 10:25:07
桃園市私立家瑞居家長照機構(元福),桃園市,大溪區,桃園市大溪區仁武里仁善一街108號,121.2521896,24.8651638,B,喘息服務,03-3804675,yuanfu3909835@gmail.com,張家溱,20230118 07:46:07
桃園市龜山區山頂里辦公處,桃園市,龜山區,桃園市龜山區山頂里明興街36號,121.3305817,24.98606873,C,巷弄長照站,0932-948899,s3293119@yahoo.com.tw,黃呈科,20191231 20:11:31
職物語長照事業有限公司附設桃園市私立樂職心綜合長照機構,桃園市,桃園區,桃園市桃園區春日里2鄰春日路1038號3樓,121.3087692,25.01913834,B,居家服務,03-3575608,ceo@ops-group.org,李柏毅,20220408 16:09:43
桃園市復興區衛生所附設居家護理所,桃園市,復興區,桃園市復興區澤仁里中正路42號,121.3513565,24.81690407,B,專業照護服務,03-3821265,10021351@mail.tycg.gov.tw,吳秋蘭,20230207 07:40:45
用心居家呼吸照護所,桃園市,蘆竹區,桃園市蘆竹區光明路2段225之5號,121.338501,25.00410652,B,專業照護服務,03-3175992,leslie670410@gmail.com,吳惠美,20230220 13:36:24
金色年代長照社團法人附設桃園市私立金色年華綜合長照機構,桃園市,中壢區,桃園市中壢區普義里立和路58巷66號1樓、68號1至4樓、70號1樓,121.2314148,24.95827866,B,喘息服務,03-4623626,med01@tcmg.com.tw,徐向謙,20230118 16:53:01
桃園市城鄉發展婦女協會,桃園市,楊梅區,桃園市楊梅區瑞塘里萬福街119號,121.1783676,24.91233063,C,巷弄長照站,0916-779066,ms772066@yahoo.com.tw,高芷若,20210128 10:02:27
財團法人台灣省新竹縣基督教改革宗長老會竹東教會附設中壢教會,桃園市,中壢區,桃園市中壢區明德里桃園市中壢區吉長街34號,121.2306442,24.94646835,C,巷弄長照站,,chihkun49@yahoo.com.tw,陳英誠,20210127 15:20:51
聯新國際醫院桃新分院附設居家護理所,桃園市,桃園區,桃園市桃園區南海街7號4樓,121.3089371,24.99149132,B,專業照護服務(CC01),03-3325678,hsuhf@landseed.com.tw,許香芬,20230802 17:19:14
桃園市蘆竹區外社社區發展協會,桃園市,蘆竹區,桃園市蘆竹區外社里山林路2段490號,121.3057404,25.08236122,C,巷弄長照站,03-3244735,lin298165@gmail.com,陳四軍,20210127 17:17:59
社團法人台灣福安照顧關懷協會,桃園市,大園區,桃園市大園區大觀路1156巷6弄28號六樓之3,121.198082,25.02557373,A,個案管理服務,03-3868700,fuana3868700@gmail.com,陳昱全,20230203 10:19:03
桃園市大溪區崎頂社區發展協會,桃園市,大溪區,桃園市大溪區仁武里公園路30號2樓,121.2818222,24.90478516,C,巷弄長照站,0932-273249,xst0932273249@gmail.com,巫村田,20210127 16:14:36
社團法人桃園市照顧服務協進會,桃園市,大溪區,桃園市大溪區天祥街1號,121.302124,24.97660446,B,到宅沐浴車服務,03-3873970,ch10553276@gmail.com,胡金蓮,20201209 13:10:05
瑞之盟營養機構,桃園市,桃園區,桃園市桃園區中寧街12巷14之3號4樓,121.3065414,24.99762726,B,專業照護服務(CC01),0907-010-671,rzm280301@gmail.com,劉懿庭,20230802 17:19:14
桃園市葛瑪璐長照資源整合協會,桃園市,復興區,桃園市復興區忠孝路34號2樓,121.3514252,24.81463242,B,交通接送服務,033-821-335,alicewang19891030@gmail.com,徐明瑛,20230201 09:08:25
民安診所,桃園市,楊梅區,桃園市楊梅區楊梅里大成路175號1樓,121.1457138,24.9124279,B,喘息服務,03-4757681,4826241@gmail.com,何建翰,20190628 21:10:18
桃園市私立怡宏居家長照機構,桃園市,桃園區,桃園市桃園區鎮南街1號7樓,121.3093567,24.99100113,B,喘息服務,003-378-280,3378280@gmail.com,卓添裕,20230118 14:18:02
桃園市龜山區衛生所附設居家護理所,桃園市,龜山區,桃園市龜山區自強南路103號,121.3384705,24.99149513,B,專業照護服務,03-3299645,10021351@mail.tycg.gov.tw,簡卉穎,20230118 15:31:55
桃園市新屋區大坡社區發展協會,桃園市,新屋區,桃園市新屋區大坡里5-1號,121.0382843,24.96014786,B,營養餐飲服務,03-4760283,dapovlg@yahoo.com.tw,陳俊良,20190723 16:52:45
洋恩居家物理治療所,桃園市,龜山區,桃園市龜山區文青路173號4樓之5,121.3691864,25.07296562,B,專業照護服務(CC01),03-3181652,lordkeepmyheart1128@gmail.com,陳慶儒,20230802 17:19:14
青松達觀股份有限公司附設桃園市私立長壽綜合長照機構,桃園市,龜山區,桃園市龜山區龜山里038鄰長壽路247號,121.3398285,24.99963379,B,交通接送服務,04-24060333,changshoumaster@qingsong.com.tw,周孟賢,20230426 16:15:27
桃園市大溪區衛生所附設居家護理所,桃園市,大溪區,桃園市大溪區仁愛路1號,121.2854767,24.88448906,B,專業照護服務,03-3882401,10019652@mail.tycg.gov.tw,李淑華,20230220 14:38:46
衛生福利部桃園療養院,桃園市,桃園區,桃園市桃園區龍壽街71號,121.2688904,24.97954559,B,專業照護服務,03-3698553,grace@typc.mohw.gov.tw,李新民,20211003 14:03:46
育盟紡織股份有限公司附設桃園市私立辰益居家長照機構,桃園市,桃園區,桃園市桃園區莊敬里同德十一街58號5樓之1,121.3013153,25.05342293,B,居家服務,03-3222200,chenyi@elitexs.com.tw,簡?庭,20230201 17:12:04
懷寧醫院附設護理之家,桃園市,中壢區,桃園市中壢區五權里志廣路119號8樓、9樓,121.2054977,24.96144295,B,喘息服務,03-2811177,hifumichu@gmail.com,黃子容,20230220 16:07:15
桃園市私立禾安老人長期照顧中心(養護型),桃園市,桃園區,桃園市桃園區朝陽街二段26、28號2樓,121.3157196,24.99160004,B,喘息服務,03-3329899,heanoffice1003@gmail.com,王世舜,20230301 11:01:43
桃園市復興區基國派部落產業發展協會,桃園市,復興區,桃園市復興區三民里17鄰基國派路328-1號,121.3406525,24.83773041,C,巷弄長照站,03-3825230,ccchungdaw@mohw.gov.tw,待補,20190903 09:15:36
財團法人天主教德來會,桃園市,桃園區,桃園市桃園區三民里三民路1段二號九樓,121.3251877,24.99320412,C,巷弄長照站,03-3317226#20,smile_l0ve125@hotmail.com,蔡宜芬,20230419 18:40:10
