agency,county,town,address,X,Y,O_ABC,Serve,fax,mail,name,data
臺北市政府社會局委託社團法人中華民國紅心字會經營管理臺北市信義社區長照機構,臺北市,信義區,臺北市信義區興雅里松隆路36號5樓,121.567543,25.04339409,B,營養餐飲服務,02-87870300,xinyitw@yahoo.com.tw,劉緒倫,20201230 16:59:33
耆康實業有限公司附設臺北市私立小太陽居家長照機構,臺北市,松山區,臺北市松山區自強里三民路35巷9號2樓,121.5624695,25.05532074,B,喘息服務,027-420-058,tw.softlife@gmail.com,嚴成茂,20220322 11:56:33
李文珍小兒科診所,臺北市,南港區,臺北市南港區研究院路二段74號,121.6151047,25.04557037,B,居家失能個案家庭醫師照護服務,026-541-871,liwennchenn@gmail.com,李文珍,20221230 21:47:40
李文珍小兒科診所,臺北市,南港區,臺北市南港區研究院路二段74號,121.6151047,25.04557037,B,居家失能個案家庭醫師照護服務,026-541-871,liwennchenn@gmail.com,李文珍,20220325 11:58:02
臺北市私立晨欣老人長期照顧中心(養護型),臺北市,中山區,臺北市中山區集英里中山北路2段96巷19號3樓,121.5219193,25.05989647,B,喘息服務,02-25212226,chenxin96193@gmail.com,李政勳,20221229 23:17:29
好物理治療所,臺北市,文山區,臺北市文山區萬隆里萬隆街64號,121.5370026,25.00092125,B,專業照護服務,0918-096373,imio1688@gmail.com,林佑青,20230406 16:11:19
社團法人臺灣職能治療學會,臺北市,中正區,臺北市中正區德義博愛路9號,121.5114441,25.04741669,B,專業照護服務,02-23820103,otaroc.taipei@gmail.com,吳菁宜,20201208 15:13:44
財團法人天主教聖母聖心會,臺北市,中正區,臺北市中正區中山北路一段2號,121.5194931,25.04605675,B,喘息服務,02-23028934,marie_la_frat@yahoo.com,王秀枝,20190417 00:00:00
百齡診所附設護理之家,臺北市,士林區,臺北市士林區葫東里重慶北路4段187號3-8樓,121.5112686,25.08425713,B,喘息服務,02 28113113,nursinghome2009@hotmail.com,陳雅玲,20221230 15:23:22
好朋友居家職能治療所,臺北市,中山區,臺北市中山區撫順街25號9樓之4,121.5203171,25.06358337,B,專業照護服務(CC01),02-89136000,hami610@gmail.com,陳偉修,20230802 17:19:14
臺北市文山區順興社區發展協會,臺北市,文山區,臺北市文山區順興里興隆路4段165巷12號1、2樓,121.5626144,24.98406219,C,巷弄長照站,2939-5932,penny235689@hotmail.com,單連城,20221230 18:51:56
臺北市內湖區大湖里辦公處,臺北市,內湖區,臺北市內湖區大湖里大湖山莊街117號3樓,121.6017456,25.08604431,C,巷弄長照站,0972-295-512,bl-abc526209@mail.taipei.gov.tw,郭坤祥,20210408 17:36:42
好物理治療所,臺北市,文山區,臺北市文山區萬隆里萬隆街64號,121.5370026,25.00092125,B,專業照護服務(CC01),0920-988-007,imio1688@gmail.com,林佑青,20230802 17:19:14
好物理治療所,臺北市,文山區,臺北市文山區萬隆里萬隆街64號,121.5370026,25.00092125,B,專業照護服務(CC01),0920-988-007,imio1688@gmail.com,林佑青,20230802 17:19:14
新富里辦公處,臺北市,南港區,臺北市南港區新富里富康街25號,121.6173782,25.05365181,C,巷弄長照站,02-27828495,ng_343@mail.taipei.gov.tw,許睦燦,20210412 14:51:02
財團法人基督教台灣信義會(內湖思恩堂),臺北市,內湖區,臺北市內湖區紫星里康寧路一段62號,121.5921555,25.08005524,C,巷弄長照站,0936-649-973,aa0936649973@gmail.com,吳英賓,20210408 18:05:45
臺北市士林區富光里辦公處,臺北市,士林區,臺北市士林區富光里葫蘆街62號,121.5087433,25.0808506,C,巷弄長照站,028-160-879,bn_443@mail.taipei.gov.tw,高毓紋,20210407 11:54:57
詮順居家長照有限公司附設臺北市私立詮順居家長照機構,臺北市,中山區,臺北市中山區力行里復興北路62號2樓之2,121.5427704,25.0483799,B,居家服務,02-2773-0398,welldone82941629@gmail.com,林倖如,20211230 16:12:37
社團法人台灣厝邊有愛關懷協會錫安教會,臺北市,南港區,臺北市南港區玉成里玉成街20號,121.5816498,25.05032539,C,巷弄長照站,02-23635546,lo1119@ms53.hinet.net,鄭忠仁,20210412 14:49:02
愛護家健康事業股份有限公司附設臺北市私立愛護家居家長照機構,臺北市,中山區,臺北市中山區晴光里中山北路3段31號7樓之1,121.5225296,25.06570244,B,居家服務,02-2599-5665,vera@inursingplus.com,張淑貞,20211230 16:00:50
財團法人台北市建成基督長老教會,臺北市,大同區,臺北市大同區建泰里承德路一段77巷29號,121.518425,25.05212593,C,巷弄長照站,02-2558-0685,jiancheng_church@yahoo.com.tw,許靜惠,20210407 14:19:30
廣和順科技股份有限公司附設私立家天使居家長照機構,臺北市,信義區,臺北市信義區中興里信義路4段401號8樓,121.5587234,25.03325844,B,喘息服務,027-588-708,mikekong@ghsha.com,龔文凱,20221229 22:49:50
臺北市立聯合醫院,臺北市,大同區,臺北市大同區鄭州路145號,121.5088882,25.0506916,B,專業照護服務,25553000#2030,B5646@tpech.gov.tw,蕭勝煌,20221229 23:03:19
泉益居家有限公司附設臺北市私立泉益居家長照機構,臺北市,文山區,臺北市文山區忠順街一段20號1樓,121.5587769,24.98389626,B,居家服務,02-86618880,chuanyi10910@gmail.com,詹弘毅,20220719 10:07:29
臺北市北投區清江社區發展協會,臺北市,北投區,臺北市北投區清江里清江路201號,121.501915,25.12750435,C,巷弄長照站,02-28922543,lung2433@gmail.com,李炳?,20210412 11:04:56
臺北市士林區幸福名山社區發展協會,臺北市,士林區,臺北市士林區名山里雨聲街68號,121.5287476,25.10368919,C,巷弄長照站,2836-6501,suling0800@gmail.com,薛群秀,20210407 11:45:09
臺北市政府社會局委託社團法人中華民國紅心字會經營管理臺北市信義社區長照機構,臺北市,信義區,臺北市信義區興雅里松隆路36號5樓,121.567543,25.04339409,B,日間照顧服務,02-87870300,xinyitw@yahoo.com.tw,劉緒倫,20190725 15:14:29
好物理治療所,臺北市,文山區,臺北市文山區萬隆里萬隆街64號,121.5370026,25.00092125,B,專業照護服務,,imio1688@gmail.com,林佑青,20221229 22:44:45
臺北市內湖社區安全與健康協進會,臺北市,內湖區,臺北市內湖區湖興里湖興里民權東路6段45號,121.5864105,25.06915474,C,巷弄長照站,88627-934-447,neihusafe@gmail.com,李明珠,20210408 17:51:57
臺北市政府社會局委託財團法人台灣省私立健順養護中心經營管理臺北市復華社區長照機構,臺北市,中山區,臺北市中山區遼寧街185巷11號2-3樓,121.5427628,25.05342484,B,喘息服務,02-27171393,fuhua1060810@gmail.com,黃禎祥,20221229 23:08:58
臺北市立聯合醫院,臺北市,大同區,臺北市大同區鄭州路145號,121.5088882,25.0506916,B,居家失能個案家庭醫師照護服務,25553000#2030,B5646@tpech.gov.tw,蕭勝煌,20221230 21:45:43
喜樂園長照股份有限公司附設臺北市私立喜樂園居家長照機構,臺北市,松山區,臺北市松山區吉祥里八德路4段123號2樓之4,121.5617523,25.04870987,B,居家服務,027-602-270,formosacpa@gmail.com,張經緯,20211230 14:57:48
有限責任台灣長期照顧勞動合作社附設臺北市私立一滴水居家長照機構,臺北市,中正區,臺北市中正區黎明里許昌街42之1號7樓715室,121.515625,25.0451622,B,喘息服務,02-66050759,taiwanltc001@gmail.com,葉芳枝,20230511 16:13:55
博仁綜合醫院附設居家護理所,臺北市,松山區,臺北市松山區復勢里光復北路66號,121.5576859,25.04990959,B,專業照護服務,02-25782518#2300,pojenghhomecare@gmail.com,王麗玲,20221229 23:18:37
中華民國紅十字會台灣省分會(社照C),臺北市,大安區,臺北市大安區龍坡里新生南路三段20-1號4樓,121.5344238,25.02418327,B,喘息服務,02-23630098,rct03702883@gmail.com,董光世,20210407 16:00:44
中華民國紅十字會台灣省分會(社照C),臺北市,大安區,臺北市大安區龍坡里新生南路三段20-1號4樓,121.5344238,25.02418327,C,巷弄長照站,02-23630098,rct03702883@gmail.com,董光世,20210407 16:00:44
臺北市私立跑居家長照機構,臺北市,士林區,臺北市士林區葫東里重慶北路4段250號3樓313室,121.5113525,25.08663177,B,居家服務,02-28161255,rcago313@gmail.com,吳正昕,20220126 15:30:31
財團法人伊甸社會福利基金會附設臺北市私立頤福社區式長期照顧服務機構,臺北市,北投區,臺北市北投區裕民六路120號3樓,121.5176315,25.1145401,B,日間照顧服務,02-28218267#105,dep419@eden.org.tw,羅紀?,20220503 17:13:21
臺北市政府社會局委託財團法人獎卿護理展望基金會經營管理臺北市文山老人養護中心,臺北市,文山區,臺北市文山區興豐里興隆路二段95巷8號,121.5468826,25.00002098,B,日間照顧服務,02-89313190,ccfws@yahoo.com.tw,王仁宏,20201203 09:42:16
臺北市私立全泰老人長期照顧中心(養護型),臺北市,北投區,臺北市北投區永和里007鄰行義路105號,121.5284348,25.12773514,B,喘息服務,02-28747739,ct28747739@gmail.com,陳莉茵,20221230 19:59:37
安理健康事業股份有限公司附設臺北市私立安理居家長照機構,臺北市,中正區,臺北市中正區光復里重慶南路1段10號8樓之15(111室),121.5131378,25.0465889,B,居家服務,0932-339-650,shih1112002@yahoo.com.tw,史辰雄,20220321 14:03:58
臺北市立聯合醫院(和平婦幼院區),臺北市,中正區,臺北市中正區社寮中華路二段33號,121.5066833,25.03553009,B,專業照護服務,02-23889595#8417,B1049@tpech.gov.tw,蕭勝煌,20221230 12:16:57
社團法人台灣厝邊有愛關懷協會中研教會,臺北市,南港區,臺北市南港區中研里研究院路二段11巷5號,121.6158295,25.04668236,C,巷弄長照站,02-23636356,lo1119@ms53.hinet.net,鄭忠仁,20210412 14:45:28
臺北市信義區永安社區發展協會,臺北市,信義區,臺北市信義區長春里松山路294號4樓,121.5776443,25.04301643,C,巷弄長照站,02-27238588,chen.cct2622@msa.hinet.net,陳林錦華,20210412 14:32:34
臺北市政府社會局委託社團法人中華民國紅心字會經營管理臺北市信義社區長照機構,臺北市,信義區,臺北市信義區興雅里松隆路36號5樓,121.567543,25.04339409,B,日間照顧服務,02-87870300,xinyitw@yahoo.com.tw,劉緒倫,20210201 13:53:02
臺北市立聯合醫院,臺北市,大同區,臺北市大同區鄭州路145號,121.5088882,25.0506916,A,個案管理服務,02-25989917,B5646@tpech.gov.tw,蕭勝煌,20230208 09:02:54
臺北市政府社會局委託財團法人台灣省私立健順養護中心經營管理臺北市松山社區式長期照顧服務機構,臺北市,松山區,臺北市松山區鵬程里健康路317號2樓,121.5665131,25.05443192,B,營養餐飲服務,02-27685636,sselder105@gmail.com,黃禎祥,20210118 17:26:40
社團法人台灣厝邊有愛關懷協會六張犁教會,臺北市,大安區,臺北市大安區黎元里臥龍街215號,121.553627,25.01852036,C,巷弄長照站,023-636-356,lo1119@ms53.hinet.net,鄭忠仁,20210407 15:52:21
耆康實業有限公司附設臺北市私立小太陽居家長照機構,臺北市,松山區,臺北市松山區自強里三民路35巷9號2樓,121.5624695,25.05532074,B,居家服務,027-420-058,tw.softlife@gmail.com,嚴成茂,20220322 11:55:26
金旺租賃有限公司,臺北市,中山區,臺北市中山區長春路172號7樓之8,121.5338516,25.05469131,B,交通接送服務,0981-896-108,a0975672263@gmail.com,盧逸穎,20230119 15:21:23
臺北市私立仁群居家長照機構,臺北市,中山區,臺北市中山區下埤里民族東路512巷12號1樓,121.5419846,25.06753922,B,居家服務,02-25016299,kindhomeservice@gmail.com,劉昱森,20211230 15:54:03
安歆居家護理所,臺北市,中山區,臺北市中山區松江路50號3樓,121.5326614,25.04817963,B,專業照護服務,02-25372586,crcanhsin@gmail.com,余建華,20220210 15:17:48
財團法人弘道老人福利基金會附設臺北市私立弘道居家式服務類長期照顧服務機構,臺北市,松山區,臺北市松山區民福里復興北路451號,121.5444794,25.06398392,B,居家服務,02-66131314,yvonne@hondao.org.tw,王乃弘,20211230 14:41:20
國立臺灣大學醫學院附設醫院北護分院,臺北市,萬華區,臺北市萬華區內江街87號,121.5035706,25.04171944,A,個案管理服務,0223-717-101,B40731@bh.ntuh.gov.tw,陳永銘,20230208 09:06:32
渥康國際股份有限公司附設臺北市私立康禾社區長照機構,臺北市,松山區,臺北市松山區南京東路三段285號3樓,121.5458374,25.05200768,B,喘息服務,077-056-178,khdaycare.service@gmail.com,林恩,20220315 11:46:06
臺北市文山區樟新社區發展協會,臺北市,文山區,臺北市文山區樟新里一壽街22號9樓教室二,121.5562744,24.97971153,C,巷弄長照站,0972-246-031,bs-781021@mail.taipei.gov.tw,歐陽禾英,20210409 16:03:09
(新北)社團法人臺灣58金融仕家協會,臺北市,萬華區,臺北市萬華區西昌街171之2號1、2樓,121.5007019,25.03891945,B,營養餐飲服務,(02)2311-2758,t58@t58fa.org,林仁豐,20220819 14:47:24
財團法人佳醫健康基金會附設臺北市私立佳醫居家長照機構,臺北市,松山區,臺北市松山區南京東路五段8-10號503室,121.5583496,25.0513382,B,居家服務,02-25280502,carrie516899@gmail.com,蘇秀鑾,20211230 14:50:46
臺北市政府社會局委託社團法人中華民國紅心字會經營管理臺北市信義社區長照機構,臺北市,信義區,臺北市信義區興雅里松隆路36號5樓,121.567543,25.04339409,B,日間照顧服務,02-87870300,xinyitw@yahoo.com.tw,劉緒倫,20201204 10:27:57
清山交通有限公司,臺北市,松山區,臺北市松山區八德路四段678號7樓之7,121.576416,25.04987144,B,交通接送服務,02-27457715,cingshan28@gmail.com,林青駿,20230605 21:16:52
臺北市大安區錦町社區發展協會,臺北市,大安區,臺北市大安區錦安里潮州街130巷3號1樓,121.5275726,25.02854347,C,巷弄長照站,02-2351-5967,chk550505168@gmail.com,龔志慧,20210407 15:54:08
財團法人福智慈善基金會(內湖路2段),臺北市,內湖區,臺北市內湖區內湖里內湖路2段484號4樓及482號、484號、486號、488號3樓,121.5932922,25.08428001,C,巷弄長照站,02-27963275,j141712@yahoo.com.tw,賴錫源,20210408 17:40:15
台北市石牌長青會,臺北市,北投區,臺北市北投區長安里中央北路1段12號3樓及4樓,121.5009995,25.13390732,C,巷弄長照站,0911-251-092,skyfu218@gmail.com,白惠萍,20221230 20:44:34
財團法人台灣基督教道生院附設臺北市私立道生院老人長期照顧中心(養護型),臺北市,北投區,臺北市北投區秀山里002鄰中和街錫安巷112號1.2樓及地下1樓,121.5004807,25.14772415,B,喘息服務,02-28936161,t28936161@yahoo.com.tw,翁瑞亨,20221229 23:07:20
臺北市立聯合醫院,臺北市,大同區,臺北市大同區鄭州路145號,121.5088882,25.0506916,B,專業照護服務,25553000#2030,B5646@tpech.gov.tw,蕭勝煌,20221229 23:03:09
台灣聽力語言學會,臺北市,中山區,臺北市中山區健民雙城街4巷2號,121.5241623,25.06327438,B,專業照護服務,02-25996095,slha.meeting@gmail.com,洪菱濃,20210112 11:34:07
旭生中醫診所,臺北市,萬華區,臺北市萬華區萬大路526號,120.3608455,22.5553185,B,專業照護服務,2314-3456#9,amanda.lee0933@gmail.com,陳贊文,20200311 18:14:35
臺北市中山區大直社區發展協會(第二區民活動中心),臺北市,中山區,臺北市中山區大直里大直街1號4樓,121.5469666,25.08034515,C,巷弄長照站,02-25329522,tachih70@yahoo.com.tw,戴思亭,20210408 16:12:54
臺北市私立和美居家長照機構,臺北市,北投區,臺北市北投區八仙里北投路一段59號2樓,121.500679,25.12595367,B,居家服務,02-28918131,huma1110224@gmail.com,詹弘毅,20220225 16:59:23
臺北市立聯合醫院,臺北市,大同區,臺北市大同區鄭州路145號,121.5088882,25.0506916,A,個案管理服務,02-25989917,B5646@tpech.gov.tw,蕭勝煌,20230208 09:03:13
北醫大管理顧問股份有限公司附設私立君蔚居家長照機構,臺北市,信義區,臺北市信義區中興里信義路4段375號4樓之7,121.5577316,25.03328323,B,居家服務,02-2345-5288,dreamway.hc@gmail.com,吳麥斯,20211203 10:03:35
渥康國際股份有限公司附設臺北市私立康禾社區長照機構,臺北市,松山區,臺北市松山區南京東路三段285號3樓,121.5458374,25.05200768,B,日間照顧服務,077-056-178,khdaycare.service@gmail.com,林恩,20220315 11:45:36
松德長照事業有限公司附設臺北市私立松德居家長照機構,臺北市,大同區,臺北市大同區永樂里西寧北路112號2樓之4,121.5088577,25.05611038,B,居家服務,02-25557985,songde2021@gmail.com,黃松共,20211130 16:45:18
臺北市政府社會局委託財團法人台灣省私立健順養護中心經營管理臺北市中山社區式長期照顧服務機構,臺北市,中山區,臺北市中山區新生北路二段101巷2號,121.5284271,25.05731773,B,營養餐飲服務,02-25420006,elder0006@gmail.com,黃禎祥,20210202 17:00:54
財團法人臺北市立心慈善基金會附設臺北市私立立心居家式服務類長期照顧服務機構,臺北市,萬華區,臺北市萬華區頂碩里艋舺大道120巷39弄3號,121.5023727,25.03202629,B,喘息服務,02-23361555#21,lishin.home@gmail.com,洪金桐,20230206 08:54:00
安安物理治療所,臺北市,士林區,臺北市士林區重慶北路四段136號1樓,121.5124817,25.08338928,B,專業照護服務,02-29161003,annysknt@gmail.com,簡淑霞,20221230 20:30:16
安安物理治療所,臺北市,士林區,臺北市士林區重慶北路四段136號1樓,121.5124817,25.08338928,B,專業照護服務(CC01),02-29161003,annysknt@gmail.com,簡淑霞,20230802 17:19:14
尚好物理治療所,臺北市,士林區,臺北市士林區重慶北路四段250號3樓,121.5113602,25.08666611,B,專業照護服務(CC01),2816-4533#325,gn01710202@gmail.com,周祺鈞,20230802 17:19:14
閤家福居家護理所,臺北市,文山區,臺北市文山區政大萬壽路75巷29號,121.5880127,24.9854908,B,專業照護服務,02-29381110,healthnurses0512@gmail.com,蔡宛婷,20201202 18:31:37
中華民國紅心字會(信義區),臺北市,信義區,臺北市信義區四維里虎林街74巷2號1樓,121.5133514,25.04495811,C,巷弄長照站,02-27660227,xinyitw@yahoo.com.tw,劉緒倫,20210412 17:34:13
臺北市大安區群英里辦公處,臺北市,大安區,臺北市大安區群英里四維路198巷30弄9號,121.5460968,25.02630425,C,巷弄長照站,2754-9339,cheng.kung2@gmail.com,石忠勝,20230202 15:26:11
臺北市麗山社區關懷協會,臺北市,內湖區,臺北市內湖區港都里麗山街348巷22號1-2樓及24號2樓,121.574234,25.08195305,C,巷弄長照站,26270443#20,t98765432135@yahoo.com.tw,王清瑩,20210408 17:50:26
國立臺灣大學醫學院附設醫院北護分院,臺北市,萬華區,臺北市萬華區內江街87號,121.5035706,25.04171944,B,居家失能個案家庭醫師照護服務,0223-717-101,B40731@bh.ntuh.gov.tw,陳永銘,20221230 22:03:46
原力復健科診所,臺北市,信義區,"臺北市信義區基隆路2段145號B1,1,2樓",121.5557404,25.02697372,B,專業照護服務,027-327-311,christine1040606@gmail.com,侯鐘堡,20200311 17:15:07
財團法人臺灣省私立臺北仁濟院附設仁濟醫院附設居家護理所,臺北市,萬華區,臺北市萬華區青山里廣州街243號,121.4980392,25.03688812,B,專業照護服務,023-021-133,homecare@tjci.org.tw,陳麗蘋,20221229 22:17:48
盤古銀髮股份有限公司附設臺北市私立家倍安居家長照機構,臺北市,大同區,臺北市大同區民權里民權西路118巷12號1樓,121.5168152,25.06228065,B,喘息服務,025-539-986,nancy.bear@lapangu.com.tw,林偉正,20221229 21:50:38
臺北市私立樂陽居家長照機構,臺北市,士林區,臺北市士林區後港里士商路110號1樓,121.5188828,25.09195137,B,居家服務,0988-423-585,cheerfulsun110@gmail.com,陳威仁,20221121 14:10:31
惠璿諮詢中心,臺北市,信義區,臺北市信義區智誠忠孝東路五段372巷29弄15號,121.5743866,25.03921127,B,專業照護服務,02-23457740,dietitian.shan@gmail.com,陳惠櫻,20200506 15:12:59
財團法人新北市基督教新希望教會(百齡長青),臺北市,士林區,臺北市士林區前港里承德路4段190號4樓,121.5222855,25.08720016,C,巷弄長照站,0982-985-298,rebecca401010@gmail.com,林淑萍,20221230 11:59:53
臺北市私立跑居家長照機構,臺北市,士林區,臺北市士林區葫東里重慶北路4段250號3樓313室,121.5113525,25.08663177,B,喘息服務,02-28161255,rcago313@gmail.com,吳正昕,20220126 15:30:31
臺北市松山區龍田里辦公處,臺北市,松山區,臺北市松山區龍田里光復北路230巷21號B1,121.5545654,25.0559845,C,巷弄長照站,0988-179-571,bh_ssda207@mail.taipei.gov.tw,袁俊麒,20210412 14:06:32
康年銀髮樂活股份有限公司附設臺北市私立康年復興社區長照機構,臺北市,松山區,臺北市松山區復興北路309號4樓,121.5444031,25.05865669,B,日間照顧服務,025-466-881,ss309fs@gmail.com,蔡淑芬,20220114 10:32:28
臺北市私立行義老人長期照顧中心(養護型),臺北市,北投區,臺北市北投區永和里001鄰石牌路2段357巷1號1~3樓,121.5248642,25.12366104,B,喘息服務,02-28729599,sy9599@gmail.com,林萬知,20220328 16:47:25
財團法人恆安社會福利慈善事業基金會附設臺北市私立恆安老人長期照顧中心(長期照護型),臺北市,萬華區,臺北市萬華區水源路187號,121.5107727,25.02360535,B,營養餐飲服務,02-23327973,1100330295@hangan.org,胡世賢,20210601 14:25:26
安德利互聯網股份有限公司附設臺北市私立安德利居家長照機構,臺北市,中山區,臺北市中山區復華里長春路410號10樓之1,121.5437469,25.05447388,B,喘息服務,02-2511-9069,Anderly0101@gmail.com,李盛豊,20220221 14:41:04
臺北市私立跑居家長照機構,臺北市,士林區,臺北市士林區葫東里重慶北路4段250號3樓313室,121.5113525,25.08663177,B,居家服務,02-28161255,rcago313@gmail.com,吳正昕,20201203 18:24:09
力麗長青長照社團法人附設台北市私立樂活社區長照機構,臺北市,萬華區,臺北市萬華區環河南路2段278號1樓,121.4911728,25.03236389,B,日間照顧服務,021-001-688,rita1126@regiant.com.tw,郭濟安,20211230 10:17:57
潤田健康有限公司附設臺北市私立潤田居家長照機構,臺北市,中正區,臺北市中正區龍福里湖口街1之3號1樓,121.5150299,25.03277588,B,居家服務,02-23435882,runtian0510@gmail.com,戴皇冠,20230509 09:26:08
臺北市立聯合醫院,臺北市,大同區,臺北市大同區鄭州路145號,121.5088882,25.0506916,A,個案管理服務,02-25989917,B5646@tpech.gov.tw,蕭勝煌,20230208 09:03:23
臺北市文山區順興社區發展協會,臺北市,文山區,臺北市文山區順興里興隆路4段165巷12號1、2樓,121.5626144,24.98406219,B,喘息服務,2939-5932,penny235689@hotmail.com,單連城,20230206 10:43:30
臺北市私立天玉老人長期照顧中心(長期照護型),臺北市,士林區,臺北市士林區天玉里天玉街38巷18弄18號1-6樓,121.5303421,25.12007141,B,喘息服務,02-2872-0239,tianyu3818@gmail.com,林海珠,20221230 15:08:31
與樂職能治療所,臺北市,南港區,臺北市南港區八德路四段881號2樓,121.580452,25.05083847,B,專業照護服務,3762-2208,withhappiness.service@gmail.com,陳姵君,20191218 11:30:19
臺北市立聯合醫院,臺北市,大同區,臺北市大同區鄭州路145號,121.5088882,25.0506916,A,個案管理服務,02-25989917,B5646@tpech.gov.tw,蕭勝煌,20230208 09:03:03
小藥師健保藥局,臺北市,南港區,臺北市南港區百福里福德街320之1號1樓,121.5879822,25.03948212,B,輔具及居家無障礙環境服務,02-27867002,a0227867002@gmail.com,江芝瑩,20230313 11:45:38
泉益居家有限公司附設臺北市私立泉益居家長照機構,臺北市,文山區,臺北市文山區忠順街一段20號1樓,121.5587769,24.98389626,B,居家服務,02-86618880,chuanyi10910@gmail.com,詹弘毅,20220104 19:07:39
芊潁顧問有限公司附設臺北市私立芊潁居家長照機構,臺北市,中山區,臺北市中山區行政里建國北路3段92號3樓(D316室),121.5344696,25.06668282,B,喘息服務,02-2508-0383,qianyingoffice@gmail.com,何冠潁,20220322 10:27:48
臺北市私立樂陽居家長照機構,臺北市,士林區,臺北市士林區後港里士商路110號1樓,121.5188828,25.09195137,B,喘息服務,0988-423-585,cheerfulsun110@gmail.com,陳威仁,20221229 22:51:53
臺北市私立和美居家長照機構,臺北市,北投區,臺北市北投區八仙里北投路一段59號2樓,121.500679,25.12595367,B,喘息服務,02-28918131,huma1110224@gmail.com,詹弘毅,20221230 20:34:33
財團法人獎卿護理展望基金會私立臺北居家長照機構,臺北市,大安區,臺北市大安區龍坡里和平東路一段216號,121.5318604,25.02602959,B,居家服務,02-23646040#24,ccfhcn@yahoo.com.tw,王仁宏,20211230 11:09:29
財團法人獎卿護理展望基金會私立臺北居家長照機構,臺北市,大安區,臺北市大安區龍坡里和平東路一段216號,121.5318604,25.02602959,B,喘息服務,02-23646040#24,ccfhcn@yahoo.com.tw,王仁宏,20221229 22:59:04
芊潁顧問有限公司附設臺北市私立芊潁居家長照機構,臺北市,中山區,臺北市中山區行政里建國北路3段92號3樓(D316室),121.5344696,25.06668282,B,喘息服務,02-2508-0383,qianyingoffice@gmail.com,何冠潁,20221229 23:18:22
安歆居家護理所,臺北市,中山區,臺北市中山區松江路50號3樓,121.5326614,25.04817963,B,專業照護服務,02-25372586,crcanhsin@gmail.com,余建華,20221229 22:34:41
臺北市立聯合醫院(和平婦幼院區),臺北市,中正區,臺北市中正區社寮中華路二段33號,121.5066833,25.03553009,B,專業照護服務,02-23889595#8417,B1049@tpech.gov.tw,蕭勝煌,20221230 12:17:11
安德利互聯網股份有限公司附設臺北市私立安德利居家長照機構,臺北市,中山區,臺北市中山區復華里長春路410號10樓之1,121.5437469,25.05447388,B,居家服務,02-2511-9069,Anderly0101@gmail.com,李盛豊,20220221 14:40:25
臺北市立聯合醫院,臺北市,大同區,臺北市大同區鄭州路145號,121.5088882,25.0506916,A,個案管理服務,02-25989917,B5646@tpech.gov.tw,蕭勝煌,20230208 09:08:00
清山交通有限公司,臺北市,松山區,臺北市松山區八德路四段678號7樓之7,121.576416,25.04987144,B,交通接送服務,02-27457715,cingshan28@gmail.com,林青駿,20230428 12:04:17
鴻源長期照顧股份有限公司附設臺北市私立旭樂居家長照機構,臺北市,士林區,臺北市士林區承德里承德路四段80巷2號3樓,121.5229187,25.08230591,B,喘息服務,028-858-000,P021158@alumni.cgust.edu.tw,杜彥甫,20220315 10:25:18
博珍服務事業股份有限公司附設臺北市私立博珍居家長照機構,臺北市,中正區,臺北市中正區黎明里忠孝西路1段45號7樓之6,121.5179367,25.04628181,B,居家服務,(02)23889028,bojen.homecare@gmail.com,朱雲鵬,20220530 17:34:11
好生活居家職能治療所,臺北市,中山區,臺北市中山區南京東路二段20號11樓,121.5286484,25.05188751,B,專業照護服務,0956-041-598,howlifeot@gmail.com,曾翊庭,20221229 22:33:08
臺北市政府社會局委託財團法人伊甸社會福利基金會經營管理民生身障社區長照機構（日間照顧）,臺北市,松山區,臺北市松山區三民里松山民生東路五段163之1號,121.562767,25.05908585,B,喘息服務,02-27609605,eden3779@eden.org.tw,羅紀?,20221229 22:27:05
財團法人雙福社會福利慈善事業基金會信義據點,臺北市,信義區,臺北市信義區正和里光復南路443巷9號,121.5585327,25.0357132,C,巷弄長照站,2392-2993分機12,yunhsuan1030tw@gmail.com,吳英賓,20210412 17:05:26
臺北市政府社會局委託財團法人中華民國唐氏症基金會經營管理信義身障社區長照機構（日間照顧）,臺北市,信義區,臺北市信義區西村里信義路５段15號５樓,121.5668488,25.0333271,B,日間照顧服務,02-27229933,minjungh1976@gmail.com,林正俠,20210121 15:05:20
愛護家健康事業股份有限公司附設臺北市私立愛護家居家長照機構,臺北市,中山區,臺北市中山區晴光里中山北路3段31號7樓之1,121.5225296,25.06570244,B,專業照護服務,02-2599-5665,vera@inursingplus.com,張淑貞,20220510 15:59:26
臺北市私立康健居家式長照機構,臺北市,內湖區,臺北市內湖區寶湖里民權東路6段180巷6號11F之19,121.5926514,25.06819534,B,居家服務,02-87919104,kjcare.tw@gmail.com,吳姁媛,20211230 18:21:18
中化銀髮事業股份有限公司附設臺北市私立暖時光社區長照機構,臺北市,中山區,臺北市中山區長安東路二段131-1號1-3樓及131-2號2-3樓,121.5361633,25.04850578,B,日間照顧服務,0978-511-719,kate.chang@ccpc.com.tw,王謝怡貞,20230317 16:45:03
惠安護康科技有限公司附設臺北市私立惠安居家長照機構,臺北市,文山區,臺北市文山區興隆路2段86巷2號1樓,121.5484314,24.99981117,B,居家服務,0952-654002,vicky6575@gmail.com,詹益發,20230906 15:24:10
財團法人全成社會福利基金會受託經營管理臺北市大安老人服務中心,臺北市,大安區,臺北市大安區德安里四維路76巷12號,121.547348,25.03420448,C,巷弄長照站,027-086-255,daanolder@gmail.com,聶玉美,20210407 15:46:07
喜樂園長照股份有限公司附設臺北市私立喜樂園居家長照機構,臺北市,松山區,臺北市松山區吉祥里八德路4段123號2樓之4,121.5617523,25.04870987,B,居家服務,027-602-270,formosacpa@gmail.com,張經緯,20220322 10:24:00
渥康國際股份有限公司附設臺北市私立康禾社區長照機構,臺北市,松山區,臺北市松山區南京東路三段285號3樓,121.5458374,25.05200768,B,日間照顧服務,077-056-178,khdaycare.service@gmail.com,林恩,20220209 10:30:21
圓石實業股份有限公司附設臺北市私立大稻埕圓石社區長照機構,臺北市,大同區,臺北市大同區延平北路2段96號3樓之1,121.5115204,25.05651665,B,日間照顧服務,2558-6900,19810313duck2024@gmail.com,侯克瀛,20220704 15:12:16
財團法人中華民國大同老人福利基金會,臺北市,信義區,臺北市信義區興雅里基隆路一段155號3樓之8,121.5654144,25.04218674,C,巷弄長照站,027-670-563,ew.yvonne@gmail.com,胡貽圓,20210412 14:41:49
臺北市私立悠樂活居家長照機構,臺北市,大同區,臺北市大同區重慶北路一段67號3樓,121.5142975,25.0664959,B,喘息服務,02-77467520,care.nursing1027@yahoo.com,周至衡,20221229 22:07:16
財團法人恆安社會福利慈善事業基金會附設臺北市私立恆安居家式服務類長期照顧服務機構,臺北市,大安區,臺北市大安區群賢里和平東路二段295號12樓,121.544693,25.02499199,B,居家服務,02-2333-1955,hanganhomecare@gmail.com,胡世賢,20211223 15:07:11
臺北市私立大園老人長期照顧中心(養護型),臺北市,中正區,臺北市中正區三愛里001鄰新生南路1段124之3號1~4樓,121.5325317,25.03750992,B,喘息服務,02-33931662,biggardenbiggarden@yahoo.com.tw,黃慶玉,20221229 22:06:11
臺北市信義區雙春社區發展協會,臺北市,信義區,臺北市信義區長春里松山路294號2樓,121.5775757,25.04306984,C,巷弄長照站,02-27695123,klcg612@gmail.com,黃秀玉,20210412 14:32:56
松山慈惠堂,臺北市,信義區,臺北市信義區中行里中行里中行里福德街251巷33號,121.5875092,25.0365448,C,巷弄長照站,27261735 分機601,isc3838@gmail.com,郭葉子,20210412 14:18:10
光明診所,臺北市,北投區,臺北市北投區石牌路二段99巷55號1樓,121.5168076,25.11832809,B,居家失能個案家庭醫師照護服務,02-28210197,kuang_c@hotmail.com,張光明,20221230 21:55:38
臺北市大安區通安里辦公處,臺北市,大安區,臺北市大安區通安里通安街98號 (臺北市通安區民活動中心),121.5529404,25.0298481,C,巷弄長照站,02-2703-8807,bi-garytu@mail.taipei.gov.tw,鄭文明,20210407 15:36:28
金旺租賃有限公司,臺北市,中山區,臺北市中山區長春路172號7樓之8,121.5338516,25.05469131,B,交通接送服務,0981-896-108,a0975672263@gmail.com,盧逸穎,20210720 13:35:07
臺北市私立全寶老人長期照顧中心(養護型),臺北市,北投區,臺北市北投區永欣里013石牌路二段315巷2號-2之一號1樓,121.5231552,25.12213135,B,喘息服務,02-28710792,cb28710792@yahoo.com,古倩,20220328 16:40:54
純居家物理治療所,臺北市,萬華區,臺北市萬華區東園街73巷60號3樓,121.4981308,25.02652931,B,專業照護服務(CC01),0921-607-540,charliology@gmail.com,鍾詩偉,20230802 17:19:14
財團法人臺北市松年長春社會福利基金會(士林),臺北市,士林區,臺北市士林區天山里中山北路七段122號3樓,121.5321045,25.12242889,C,巷弄長照站,02-28723425,sandy0422@hotmail.com,王淑惠,20210407 11:25:55
基督復臨安息日會醫療財團法人臺安醫院附設居家護理所,臺北市,松山區,臺北市松山區民福里八德路二段424號,121.5473404,25.04805374,B,專業照護服務,02-27718151#2831,130679@tahsda.org.tw,夏姿慧,20221229 23:19:25
臺北市立萬芳醫院-委託臺北醫學大學辦理,臺北市,文山區,臺北市文山區興光里興隆路三段111號,121.5581436,24.99990082,A,個案管理服務,02-29307930#1683,90236@w.tmu.edu.tw,陳作孝,20230626 14:57:11
宗展股份有限公司附設臺北市私立辰心居家長照機構,臺北市,大同區,臺北市大同區永樂里西寧北路112號4樓之1,121.5088577,25.05611038,B,喘息服務,02-25580208,8hq008@gmail.com,簡裕宗,20221229 21:33:35
財團法人全成社會福利基金會受託經營管理臺北市大安老人服務中心,臺北市,大安區,臺北市大安區德安里四維路76巷12號,121.547348,25.03420448,B,喘息服務,027-086-255,daanolder@gmail.com,聶玉美,20230202 16:51:17
普眾股份有限公司附設臺北市私立普眾居家長照機構,臺北市,南港區,臺北市南港區新光里昆陽街152巷39號1樓,121.5929642,25.04913521,B,居家服務,02-27887966,pj83485803@gmail.com,陳秀麗,20220324 10:53:50
財團法人一粒麥子社會福利慈善事業基金會(中正國宅社區照顧關懷據點),臺北市,萬華區,臺北市萬華區青年路52號1樓之2,121.5034943,25.02548409,B,喘息服務,02-2309-0660,liz@wheat.org.tw,呂信雄,20220407 13:34:42
聖照股份有限公司附設臺北市私立邦寧居家長照機構,臺北市,信義區,臺北市信義區中興里信義路4段375號6樓之6,121.5577316,25.03328323,B,居家服務,2758-2106,bonnin.tpe@gmail.com,戴仕豪,20220831 15:02:51
適群居家物理治療所,臺北市,大安區,臺北市大安區四維路198巷38弄8號2樓之4,121.5456543,25.02655792,B,專業照護服務,2706-3700,mollylin2886@gmail.com,林禹橦,20221230 20:01:38
社團法人愛福家協會附設私立愛活樂園社區長照機構,臺北市,中正區,臺北市中正區羅斯福路2段5號2樓,121.5210876,25.02924538,B,小規模多機能服務,02-23510005,maruko700707@gmail.com,涂福增,20220208 12:40:17
喜樂園長照股份有限公司附設臺北市私立喜樂園居家長照機構,臺北市,松山區,臺北市松山區吉祥里八德路4段123號2樓之4,121.5617523,25.04870987,B,喘息服務,027-602-270,formosacpa@gmail.com,張經緯,20221229 22:26:35
社團法人台灣愛鄰社區服務協會(信義區),臺北市,大安區,臺北市大安區和平東路2段24號11樓,121.5364227,25.02563667,B,營養餐飲服務,23676646#8716,cws102@llc.org.tw,王永慈,20210128 20:27:05
大東健保藥局,臺北市,士林區,臺北市士林區仁勇里大東路86之4號,121.5257492,25.09113121,B,專業照護服務,02-28838940,newly_beer@yahoo.com.tw,郭雅芝,20210112 11:42:01
秉心有限公司附設臺北市私立秉心居家長照機構,臺北市,松山區,臺北市松山區光復北路119-1號2樓,121.5573959,25.05211639,B,喘息服務,02-27666683,pingshinghome@gmail.com,陳欣怡,20221229 22:42:26
富康活力藥局,臺北市,南港區,臺北市南港區研究院路一段101巷8號,121.6165085,25.05180931,B,專業照護服務,0937-964-046,cgaryz1688@gmail.com,蘇崑彰,20200311 18:06:23
劉秀娥長照社團法人附設臺北市私立宜恩住宿長照機構,臺北市,中山區,臺北市中山區朱園里伊通街28號1-7樓,121.5346603,25.05081177,B,喘息服務,0916-777-616,en@longterm.center,黃慶玉,20221102 10:16:25
有限責任台灣長期照顧勞動合作社附設臺北市私立一滴水居家長照機構,臺北市,中正區,臺北市中正區黎明里許昌街42之1號7樓715室,121.515625,25.0451622,B,居家服務,02-66050759,taiwanltc001@gmail.com,葉芳枝,20221125 13:54:29
臺北市政府社會局委託財團法人台灣省私立健順養護中心經營管理臺北市松山社區式長期照顧服務機構,臺北市,松山區,臺北市松山區鵬程里健康路317號2樓,121.5665131,25.05443192,B,喘息服務,02-27685636,sselder105@gmail.com,黃禎祥,20210112 23:37:19
台北市大同區圓環社區發展協會,臺北市,大同區,臺北市大同區建功里重慶北路1段83巷37號,121.5141449,25.05266953,C,巷弄長照站,02-25564651,cherry480812@yahoo.com.tw,邱麗秋,20210407 14:19:09
財團法人臺北市華夏婦女文教基金會,臺北市,士林區,臺北市士林區岩山里至誠路1段62巷28號,121.5362778,25.10164452,C,巷弄長照站,02-28318025,nwltp2733@yahoo.com.tw,蘇龍華,20210407 11:50:14
臺北市大安區住安社區發展協會,臺北市,大安區,臺北市大安區住安里信義路4段30巷27弄24號,121.5457077,25.03215599,C,巷弄長照站,027-550-387,ou.ou4650@msa.hinet.net,歐秀珠,20210407 15:26:11
普眾股份有限公司附設臺北市私立普眾居家長照機構,臺北市,南港區,臺北市南港區新光里昆陽街152巷39號1樓,121.5929642,25.04913521,B,居家服務,02-27887966,pj83485803@gmail.com,陳秀麗,20220207 16:10:08
臺北市私立璞馨居家長照機構,臺北市,萬華區,臺北市萬華區忠德里東園街66巷21弄51號2樓,121.4953766,25.02660942,B,喘息服務,0937-927-528,daphne19840804@gmail.com,李凱婷,20221229 21:24:44
耆康實業有限公司附設臺北市私立小太陽居家長照機構,臺北市,松山區,臺北市松山區自強里三民路35巷9號2樓,121.5624695,25.05532074,B,居家服務,027-420-058,tw.softlife@gmail.com,嚴成茂,20211230 14:52:50
國泰醫療財團法人附設居家護理所,臺北市,大安區,臺北市大安區敦煌里仁愛路四段280號,121.5535812,25.03688812,B,專業照護服務,02-27082121#3956,273118@cgh.org.tw,洪怡蘋,20221230 20:31:42
優活健康顧問有限公司附設臺北市私立優活居家長照機構,臺北市,文山區,臺北市文山區景福街133巷30號1樓,121.5733566,24.98967552,B,喘息服務,02-2933-6682,cynthia5434@gmail.com,林亭如,20221229 22:33:26
福倫交通股份有限公司,臺北市,信義區,臺北市信義區松隆路337號1樓,121.5797272,25.04851723,B,交通接送服務,02-27635888#18,successtaxi@gmail.com,吳俊德,20190805 14:42:45
臺北市政府社會局委託社團法人中華民國士林靈糧堂社會福利協會經營管理臺北市奇岩樂活社區長照機構,臺北市,北投區,臺北市北投區三合街1段119號5樓,121.5039291,25.12655258,B,日間照顧服務,028-921-033,beitou@slsc.org.tw,劉群茂,20210118 12:29:51
臺北市政府社會局委託財團法人台灣省私立健順養護中心經營管理臺北市復華社區長照機構,臺北市,中山區,臺北市中山區遼寧街185巷11號2-3樓,121.5427628,25.05342484,B,小規模多機能服務,02-27171393,fuhua1060810@gmail.com,黃禎祥,20220207 14:26:40
臺北市政府社會局委託財團法人台灣省私立健順養護中心經營管理臺北市復華社區長照機構,臺北市,中山區,臺北市中山區遼寧街185巷11號2-3樓,121.5427628,25.05342484,B,小規模多機能服務,02-27171393,fuhua1060810@gmail.com,黃禎祥,20190628 17:13:07
社團法人中華民國沐光家園癌友關懷協會,臺北市,文山區,臺北市文山區興業里興隆路二段220巷51-1號,121.5520096,24.99966621,C,巷弄長照站,0970-028-002,divine201056@gmail.com,溫鴻基,20210409 17:11:56
育睿診所,臺北市,內湖區,臺北市內湖區 內湖路1段217巷35號,121.5653992,25.08377457,B,居家失能個案家庭醫師照護服務,026-560-801,yourray99@gmail.com,賴曉虹,20221230 21:56:06
財團法人弘道老人福利基金會附設臺北市私立西松社區長照機構,臺北市,松山區,臺北市松山區東榮里南京東路五段251巷46弄5號,121.5646896,25.05332184,B,日間照顧服務,02-27616300,laughing@hondao.org.tw,王乃弘,20210503 17:09:32
劉秀娥長照社團法人附設臺北市私立宜恩住宿長照機構,臺北市,中山區,臺北市中山區朱園里伊通街28號1-7樓,121.5346603,25.05081177,B,喘息服務,0916-777-616,en@longterm.center,黃慶玉,20221229 22:13:56
臺北市文山區景美社區發展協會,臺北市,文山區,臺北市文山區景行里羅斯福路6段393號8樓,121.540741,24.99209976,C,巷弄長照站,02-29316166,liujinlian00068@gmail.com,劉金蓮,20210409 15:15:44
社團法人中華民國明健慈善公益協進會,臺北市,中山區,臺北市中山區民安里民生西路6號6樓,121.5223236,25.05771828,C,巷弄長照站,0987-326-467,joinfood1005@gmail.com,陳奕霖,20210408 16:16:36
財團法人中保關懷社會福利基金會附設臺北市私立芝山社區長照機構,臺北市,士林區,臺北市士林區德行東路285號忠孝樓3樓,121.5364304,25.11038589,B,日間照顧服務,028-330-868,peggy120622@gmail.com,洪培修,20230905 16:39:35
國立臺灣大學醫學院附設醫院北護分院,臺北市,萬華區,臺北市萬華區內江街87號,121.5035706,25.04171944,B,專業照護服務,0223-717-101,B40731@bh.ntuh.gov.tw,陳永銘,20221229 21:39:12
臺北市立聯合醫院,臺北市,大同區,臺北市大同區鄭州路145號,121.5088882,25.0506916,A,個案管理服務,02-25989917,B5646@tpech.gov.tw,蕭勝煌,20230208 09:02:48
台北市北投區新石牌社區發展協會,臺北市,北投區,臺北市北投區石牌里自強街120巷15弄8號,121.5162964,25.11034393,C,巷弄長照站,(02)2823-6699,j19830406@gmail.com,劉世豪,20210409 17:22:21
臺北市萬華區日祥里辦公處,臺北市,萬華區,臺北市萬華區日祥里萬大路423巷54號1樓,121.5005264,25.02122498,C,巷弄長照站,0933-719-446,juliesun2009@gmail.com,鍾駿,20210412 14:56:39
臺北市政府社會局委託財團法人台灣省私立健順養護中心經營管理臺北市松山社區式長期照顧服務機構,臺北市,松山區,臺北市松山區鵬程里健康路317號2樓,121.5665131,25.05443192,A,個案管理服務,02-27685636,sselder105@gmail.com,黃禎祥,20210118 17:26:40
財團法人台北市中國基督教靈糧世界佈道會士林靈糧堂,臺北市,士林區,臺北市士林區忠誠路二段53巷7號5樓,121.5322876,25.11143684,A,個案管理服務,02-26561700#253,a.xihu@slsc.org.tw,許本爵,20230208 09:08:53
宗展股份有限公司附設臺北市私立辰心居家長照機構,臺北市,大同區,臺北市大同區永樂里西寧北路112號4樓之1,121.5088577,25.05611038,B,居家服務,02-25580208,8hq008@gmail.com,簡裕宗,20220104 18:03:07
(臺北市C+)財團法人弘道老人福利基金會,臺北市,中正區,臺北市中正區紹興北街２巷３樓４樓,121.607933,25.05376244,C,巷弄長照站,02-23221735,jinewang5@hondao.org.tw,王乃弘,20221229 22:04:33
財團法人台北市東門基督長老教會,臺北市,中正區,臺北市中正區三愛里仁愛路二段76號,121.5302582,25.03802109,C,巷弄長照站,02-23513589,egate.tp@gmail.com,鄭愛玲,20210408 16:34:21
馨瀅股份有限公司附設私立馨瀅居家長照機構,臺北市,大同區,臺北市大同區永樂里迪化街一段149號3樓,121.5105133,25.05236435,B,居家服務,02-2552-7626,xinying.heidi@gmail.com,陳佳良,20220323 11:08:16
財團法人弘道老人福利基金會附設臺北市私立西松社區長照機構,臺北市,松山區,臺北市松山區東榮里南京東路五段251巷46弄5號,121.5646896,25.05332184,B,小規模多機能服務,02-27616300,laughing@hondao.org.tw,王乃弘,20220209 09:54:07
愛護家健康事業股份有限公司附設臺北市私立愛護家居家長照機構,臺北市,中山區,臺北市中山區晴光里中山北路3段31號7樓之1,121.5225296,25.06570244,B,居家服務,02-2599-5665,vera@inursingplus.com,張淑貞,20220510 16:00:27
荃能職能治療所,臺北市,松山區,臺北市松山區寶清街89巷46號,121.5692749,25.05227852,B,專業照護服務,0928-610-797,clever6405@gmail.com,?俞慧,20221229 23:15:16
金旺租賃有限公司,臺北市,中山區,臺北市中山區長春路172號7樓之8,121.5338516,25.05469131,B,交通接送服務,0981-896-108,a0975672263@gmail.com,盧逸穎,20230605 21:14:43
惠安護康科技有限公司附設臺北市私立惠安居家長照機構,臺北市,文山區,臺北市文山區興隆路2段86巷2號1樓,121.5484314,24.99981117,B,喘息服務,0952-654002,vicky6575@gmail.com,詹益發,20230525 10:48:07
臺北市中正區新林興社區發展協會,臺北市,中正區,臺北市中正區林興里汀州路三段27巷16號,121.5273285,25.01968956,C,巷弄長照站,0933-213-180,wy5411u70@yahoo.com.tw,吳四海,20210408 16:50:31
松光里辦公處,臺北市,信義區,臺北市信義區松光里忠孝東路5段492巷32號,121.5783005,25.03973579,C,巷弄長照站,0961-364-097,lichi06290@hotmail.com,蔡福來,20210412 14:31:23
臺北榮民總醫院,臺北市,北投區,臺北市北投區北投石牌路二段201號,121.5203857,25.1192112,A,個案管理服務,02-28712121#2998,peach82021608@gmail.com,陳威明,20230208 09:03:31
一心健康事業股份有限公司附設臺北市私立繫心居家長照機構,臺北市,松山區,臺北市松山區吉仁里延吉街11號4樓之1（A室）,121.553688,25.04672623,B,居家服務,0955-082-062,gentlecare.ltc@gmail.com,黃淑華,20211230 14:37:58
私立好幫守居家長照機構,臺北市,士林區,臺北市士林區葫蘆里延平北路5段225號4樓之2,121.5098038,25.08423424,B,居家服務,028-112-766,ucareliving@gmail.com,林玟葉,20220126 15:46:00
德力居家有限公司附設臺北市私立德力居家長照機構,臺北市,大安區,臺北市大安區華聲里臺北市大安區忠孝東路4段300號5樓S21室,121.5562668,25.04115486,B,居家服務,0978-634-913,deli.dailycare@gmail.com,蔡宗棋,20221121 14:08:47
優活健康顧問有限公司附設臺北市私立優活居家長照機構,臺北市,文山區,臺北市文山區景福街133巷30號1樓,121.5733566,24.98967552,B,居家服務,02-2933-6682,cynthia5434@gmail.com,林亭如,20230322 10:02:31
臺北市政府社會局委託中華民國紅心字會經營管理臺北市廣慈社區長照機構,臺北市,信義區,臺北市信義區大道路116號4樓之3,121.5828857,25.03861618,B,日間照顧服務,8787-0300,xinyitw@yahoo.com.tw,劉緒倫,20230822 14:50:31
臺北市政府社會局委託財團法人台灣省私立健順養護中心經營管理臺北市松山社區式長期照顧服務機構,臺北市,松山區,臺北市松山區鵬程里健康路317號2樓,121.5665131,25.05443192,B,日間照顧服務,02-27685636,sselder105@gmail.com,黃禎祥,20220301 15:34:57
臺北市後山埤文化發展協會,臺北市,南港區,臺北市南港區聯成里東新街91號,121.5891113,25.04671097,C,巷弄長照站,0938-327-576,lee.tracy0404@gmail.com,李翠華,20230113 15:48:59
欣然銀髮發展服務事業股份有限公司附設臺北市私立欣然綜合長照機構,臺北市,大同區,臺北市大同區星明里寧夏路32號4樓,121.5151672,25.05597878,B,日間照顧服務,2550-3500,xr85099741@gmail.com,吳紹涵,20220606 11:11:22
(新北)大豐國際租賃有限公司,臺北市,南港區,臺北市南港區忠孝東路六段278巷23弄14號,121.590065,25.04853821,B,交通接送服務,02-2942-2233,dafegcare906070@gmail.com,沈恒昌,20220323 11:55:51
庇卡任意門健康顧問有限公司附設臺北市私立庇卡居家長照機構,臺北市,中正區,臺北市中正區黎明里衡陽路10號12樓1203室,121.5136261,25.0422287,B,居家服務,02-2331-7627,mike@holdingforce.com.tw,蔡文玉,20230720 14:00:34
社團法人台北市基督教萬芳浸信會,臺北市,文山區,臺北市文山區萬芳里萬美街一段19巷五號一樓,121.5698929,25.00237465,C,巷弄長照站,02-22303518,20140401@mail.taipei.gov.tw,張志榮,20210409 15:28:12
臺北市心悅成福文化協會,臺北市,南港區,臺北市南港區成福里成福路121巷34-1號1樓,121.5881348,25.04253769,C,巷弄長照站,0937-914680,liaokahui8196@gmail.com,廖惠,20210412 14:49:32
臺北市南港區好厝邊社區發展協會,臺北市,南港區,臺北市南港區中研里研究院路2段70巷12號2樓（中研區民活動中心）,121.6144867,25.04541779,C,巷弄長照站,02-27827592,amyamy4891@gmail.com,張永霖,20210412 14:45:08
泉益居家有限公司附設臺北市私立泉益居家長照機構,臺北市,文山區,臺北市文山區忠順街一段20號1樓,121.5587769,24.98389626,B,喘息服務,02-86618880,chuanyi10910@gmail.com,詹弘毅,20220719 10:08:12
財團法人佳醫健康基金會附設臺北市私立佳醫居家長照機構,臺北市,松山區,臺北市松山區南京東路五段8-10號503室,121.5583496,25.0513382,B,喘息服務,02-25280502,carrie516899@gmail.com,蘇秀鑾,20221229 20:55:06
永昱居家呼吸照護所,臺北市,大同區,臺北市大同區玉泉里南京西路155巷28號,121.5136032,25.05461884,B,專業照護服務,02-25560795,mg1314520@gmail.com,林育如,20210112 11:41:37
同仁院醫療財團法人附設居家護理所,臺北市,萬華區,臺北市萬華區中華路2段606巷6號6樓,121.509819,25.02399826,B,專業照護服務,(02)2305-5794,無,黃懿維,20221230 19:14:20
宗展股份有限公司附設臺北市私立辰心居家長照機構,臺北市,大同區,臺北市大同區永樂里西寧北路112號4樓之1,121.5088577,25.05611038,B,喘息服務,02-25580208,8hq008@gmail.com,簡裕宗,20220126 15:39:05
財團法人臺北市阿瑪社會福利慈善事業基金會,臺北市,大安區,臺北市大安區永康里信義路二段148巷6號1樓,121.5285034,25.03298187,C,巷弄長照站,02-23212663,amah21486@gmail.com,蘇淳瑩,20210407 15:20:15
臺北市私立福成老人長期照顧中心(養護型),臺北市,中山區,臺北市中山區松江路374、380、382號4樓,121.5329514,25.06341171,B,喘息服務,02-25982507,fc25982507@gmail.com,蕭憲宗,20221230 18:21:29
美而美居家長照股份有限公司附設臺北市私立美而美居家長照機構,臺北市,中山區,臺北市中山區新生里吉林路245號4樓403室,121.5303802,25.06129265,B,喘息服務,02-2821-2412,tgn82848095@gmail.com,郭力維,20220207 10:31:56
盤古銀髮股份有限公司附設臺北市私立家倍安居家長照機構,臺北市,大同區,臺北市大同區民權里民權西路118巷12號1樓,121.5168152,25.06228065,B,居家服務,025-539-986,nancy.bear@lapangu.com.tw,林偉正,20220104 18:20:06
社團法人臺北市永健長青促進協會,臺北市,大安區,臺北市大安區龍陣里瑞安街71巷5弄1號1F,121.5416489,25.02815628,C,巷弄長照站,2709 7719,y23250717@gmail.com,吳增友,20230202 17:07:52
雲朵實業股份有限公司附設臺北市私立太陽社區長照機構,臺北市,中山區,臺北市中山區中山北路三段53-4號5樓,121.5229492,25.06789207,B,日間照顧服務,2599-1135,cloudceo2023@gmail.com,方明,20230907 15:35:44
永鑫物理治療所,臺北市,南港區,臺北市南港區八德路四段885號3樓,121.580513,25.05086327,B,專業照護服務,2396-2222,pthao30@gmail.com,張清豪,20221229 22:22:05
臺北市立萬芳醫院-委託財團法人臺北醫學大學辦理附設居家護理所,臺北市,文山區,臺北市文山區萬美街一段25號B1,121.5583267,25.00030518,B,專業照護服務,2930-7930 #1766,110051@w.tmu.edu.tw,何雲仙,20230302 09:55:44
純居家物理治療所,臺北市,萬華區,臺北市萬華區東園街73巷60號3樓,121.4981308,25.02652931,B,專業照護服務,0921-607-540,charliology@gmail.com,鍾詩偉,20221229 22:20:52
社團法人愛樂福關懷文創發展協會,臺北市,松山區,臺北市松山區莊敬里撫遠街367巷4號,121.5661087,25.06380081,C,巷弄長照站,0926-623-482,tyy59792000@gmail.com,王澤民,20210412 13:49:09
財團法人臺北市松年長春社會福利基金會(中山),臺北市,中山區,臺北市中山區行仁里龍江路318巷7號1樓,121.5404205,25.06484032,C,巷弄長照站,02-2500-0206,pine004@twdc.org.tw,王淑惠,20210408 16:23:16
臺北市私立康健居家式長照機構,臺北市,內湖區,臺北市內湖區寶湖里民權東路6段180巷6號11F之19,121.5926514,25.06819534,B,喘息服務,02-87919104,kjcare.tw@gmail.com,吳姁媛,20221229 23:02:51
臺北市北投區幸福永和社區發展協會,臺北市,北投區,臺北市北投區永和里行義路63號,121.5279465,25.12621307,C,巷弄長照站,0928-363-298,rita354169@gmail.com,高秀蘭,20210409 17:21:16
財團法人天主教失智老人社會福利基金會,臺北市,萬華區,臺北市萬華區德昌街125巷11號,121.496933,25.02363968,A,個案管理服務,02-23096500,a23096500@gmail.com,鍾安住,20230504 18:26:02
原力復健科診所,臺北市,信義區,"臺北市信義區基隆路2段145號B1,1,2樓",121.5557404,25.02697372,B,居家失能個案家庭醫師照護服務,027-327-311,christine1040606@gmail.com,侯鐘堡,20191005 19:30:36
臺北市萬華區華江社區發展協會,臺北市,萬華區,臺北市萬華區華江里長順街臨62號,121.4907455,25.03134918,C,巷弄長照站,2308-1454,fann2319@yahoo.com.tw,洪佳君,20210412 15:01:58
安心好生活股份有限公司附設臺北市私立佳愛居家長照機構,臺北市,中山區,臺北市中山區朱崙里長安東路2段230號6樓之5,121.4425278,24.98450279,B,喘息服務,02-2711-0922,Home22258688@gmail.com,蘇秀鑾,20221229 22:05:07
臺北市私立寶貝社區長照機構,臺北市,北投區,臺北市北投區關渡里知行路245巷14號1樓,121.4665146,25.12081528,B,家庭托顧服務,0926-186-370,crazymark33@gmail.com,林嘉銘,20230616 16:34:47
臺北市政府社會局委託財團法人台灣省私立健順養護中心經營管理臺北市松山社區式長期照顧服務機構,臺北市,松山區,臺北市松山區鵬程里健康路317號2樓,121.5665131,25.05443192,B,日間照顧服務,02-27685636,sselder105@gmail.com,黃禎祥,20220209 09:57:18
臺北市中正區螢橋社區發展協會,臺北市,中正區,臺北市中正區螢雪里福州街59號1樓,121.5143585,25.02670288,C,巷弄長照站,02-23052201,yijyechen@gmail.com,陳文質,20210408 17:31:50
社團法人台灣基督教展翔天地全人發展協會(展翔據點),臺北市,中正區,臺北市中正區文盛里汀州路3段127號1樓,121.5305939,25.01638603,C,巷弄長照站,0927-304-899,aa0927304899@yahoo.com.tw,封雅頌,20221230 18:44:14
馨瀅股份有限公司附設私立馨瀅居家長照機構,臺北市,大同區,臺北市大同區永樂里迪化街一段149號3樓,121.5105133,25.05236435,B,居家服務,02-2552-7626,xinying.heidi@gmail.com,陳佳良,20201203 19:41:59
社團法人台北市文山區明興社區發展協會,臺北市,文山區,臺北市文山區明興里木柵路二段109巷25弄6號,121.562851,24.99014473,C,巷弄長照站,2234-0391,jmian430@gmail.com,鄢健民,20230113 09:50:50
臺北市文山區德芳社區發展協會,臺北市,文山區,臺北市文山區興邦里興隆路二段153巷6弄5號1樓,121.5480804,25.0012188,C,巷弄長照站,0952-572-176,hsucc29355706@gmail.com,陳啟志,20210409 16:15:40
財團法人中華基督教衛理公會平安堂,臺北市,文山區,臺北市文山區興安里仙岩路16巷37號,121.5489426,24.9983139,C,巷弄長照站,02-29342105,kennykung38837@gmail.com,賴玲,20210409 16:15:14
臺北市政府社會局委託財團法人台灣省私立健順養護中心經營管理臺北市復華社區長照機構,臺北市,中山區,臺北市中山區遼寧街185巷11號2-3樓,121.5427628,25.05342484,B,日間照顧服務,02-27171393,fuhua1060810@gmail.com,黃禎祥,20210201 20:29:41
財團法人伊甸社會福利基金會附設臺北市私立頤福社區式長期照顧服務機構,臺北市,北投區,臺北市北投區裕民六路120號3樓,121.5176315,25.1145401,B,日間照顧服務,02-28218267#105,dep419@eden.org.tw,羅紀?,20201201 11:52:47
聖照股份有限公司附設臺北市私立邦寧居家長照機構,臺北市,信義區,臺北市信義區中興里信義路4段375號6樓之6,121.5577316,25.03328323,B,喘息服務,2758-2106,bonnin.tpe@gmail.com,戴仕豪,20221229 22:54:25
臺北市獨立型態成福居家護理所,臺北市,南港區,臺北市南港區百福里成福路204號,121.5885696,25.04058266,B,專業照護服務,02-27850802,chen_41@yahoo.com.tw,張美娟,20221229 23:18:53
宜寧居家護理所,臺北市,士林區,臺北市士林區前港里承德路四段235號9樓,121.522377,25.08704567,B,專業照護服務,02-28822382,karenchang0913@gmail.com,張肇仙,20221230 15:20:28
社團法人台灣厝邊有愛關懷協會(永吉教會),臺北市,信義區,臺北市信義區廣居里虎林街155、157、159號,121.5767975,25.03945541,C,巷弄長照站,02-23635546,lo1119@ms53.hinet.net,鄭忠仁,20210412 14:35:05
臺北市復華長青多元服務中心(財團法人台灣省私立健順養護中心),臺北市,中山區,臺北市中山區復華里遼寧街185巷11號,121.5427628,25.05342484,C,巷弄長照站,02-2717-1393#16,fuhua1060810@gmail.com,黃禎祥,20210408 16:29:06
普眾股份有限公司附設臺北市私立普眾居家長照機構,臺北市,南港區,臺北市南港區新光里昆陽街152巷39號1樓,121.5929642,25.04913521,B,喘息服務,02-27887966,pj83485803@gmail.com,陳秀麗,20221229 22:30:19
臺北市私立璞馨居家長照機構,臺北市,萬華區,臺北市萬華區忠德里東園街66巷21弄51號2樓,121.4953766,25.02660942,B,居家服務,0937-927-528,daphne19840804@gmail.com,李凱婷,20191212 13:49:43
安德利互聯網股份有限公司附設臺北市私立安德利居家長照機構,臺北市,中山區,臺北市中山區復華里長春路410號10樓之1,121.5437469,25.05447388,B,居家服務,02-2511-9069,Anderly0101@gmail.com,李盛豊,20211230 16:02:43
臺北市私立安歆居家式服務類長期照顧服務機構,臺北市,中山區,臺北市中山區興亞里松江路50號3樓,121.5326614,25.04817963,B,專業照護服務,02-25372586,crcanhsin@gmail.com,余建華,20221229 22:50:47
臺北市私立永安老人養護所,臺北市,大同區,臺北市大同區老師里008鄰重慶北路3段284號2~4樓、286號1~4樓,121.513588,25.07314682,B,喘息服務,025-980-197,taipeiyungan@gmail.com,莊增瀧,20221229 21:00:42
紙飛機服務科技股份有限公司附設臺北市私立紙飛機居家長照機構,臺北市,萬華區,臺北市萬華區青山里西園路一段200號8樓之3,121.4992065,25.035923,B,居家服務,0909-139-394,teitei3432@gmail.com,李學真,20230523 15:13:28
社團法人台北市銀髮族協會,臺北市,信義區,臺北市信義區中坡里中坡南路277號1樓,121.5674744,25.04336166,C,巷弄長照站,0986-038-688,fredwa88@gmail.com,胡寶惠,20210412 14:21:31
臺北市政府社會局委託社團法人中華民國紅心字會經營管理臺北市信義社區長照機構,臺北市,信義區,臺北市信義區興雅里松隆路36號5樓,121.567543,25.04339409,B,日間照顧服務,02-87870300,xinyitw@yahoo.com.tw,劉緒倫,20230207 11:09:20
共護家居家護理所,臺北市,大同區,臺北市大同區西寧北路86巷9號2樓之1,121.5085907,25.05525017,B,專業照護服務,0933-875-142,tnch841120@gmail.com,凌麗惠,20221229 20:57:43
臺北市立萬芳醫院-委託臺北醫學大學辦理,臺北市,文山區,臺北市文山區興光里興隆路三段111號,121.5581436,24.99990082,B,專業照護服務,02-29307930#1683,90236@w.tmu.edu.tw,陳作孝,20221230 18:22:01
台北市寶藏巖文化村協會,臺北市,中正區,臺北市中正區水源里汀州路三段230巷14弄10號,121.5324173,25.01056671,C,巷弄長照站,0926-579-112,thcca2012@gmail.com,徐聖情,20210408 16:46:24
好物理治療所,臺北市,文山區,臺北市文山區萬隆里萬隆街64號,121.5370026,25.00092125,B,專業照護服務,,imio1688@gmail.com,林佑青,20220221 16:39:27
(臺北市C+)中華民國天使之家全人關懷協會,臺北市,內湖區,臺北市內湖區湖興里成功路2段242號1樓,121.590065,25.06588745,C,巷弄長照站,02-27909454,honest0716@gmail.com,林榮任,20221229 22:52:39
潤田健康有限公司附設臺北市私立潤田居家長照機構,臺北市,中正區,臺北市中正區龍福里湖口街1之3號1樓,121.5150299,25.03277588,B,喘息服務,02-23435882,runtian0510@gmail.com,戴皇冠,20230417 10:46:17
逸居股份有限公司附設臺北市私立幸福時光居家長照機構,臺北市,大安區,臺北市大安區錦安里永康街75巷1號1樓,121.5299149,25.02896118,B,居家服務,02-77058110#118,blessedsheeptime@gmail.com,李淑貞,20211230 11:15:47
起辰物理治療所,臺北市,大安區,臺北市大安區信義路四段65號3樓,121.5454865,25.0335331,B,專業照護服務,2706-0055,probrain27060055@gmail.com,胡曼文,20221230 20:06:29
財團法人台北市中國基督教靈糧世界佈道會台北靈糧堂(雙園靈糧福音中心),臺北市,萬華區,臺北市萬華區和德里西園路2段362及 364號4樓、362號5樓,121.4915848,25.02531242,C,巷弄長照站,02-2362-3022#8713,niko.tsai@breadoflife.taipei,曾國生,20210412 14:55:34
中華民國紅十字會台灣省分會附設臺北市私立紅十字居家式服務類長期照顧服務機構,臺北市,大安區,臺北市大安區龍坡里新生南路三段20號,121.5344238,25.02418327,B,居家服務,02-23637794,rct@seed.net.tw,董光世,20220315 10:58:55
財團法人私立台北仁濟院(大同區),臺北市,萬華區,臺北市萬華區廣州街200號,121.4980927,25.03668022,B,營養餐飲服務,,chieh.chi@tjci.org.tw,林明成,20210128 20:19:56
財團法人環宇國際文化教育基金會(中正文盛),臺北市,中正區,臺北市中正區文盛里羅斯福路三段240巷17弄3號,121.5291443,25.0177002,C,巷弄長照站,02-2309-8844,bad179352boy@gmail.com,黃石城,20221230 19:05:34
台北市通化玫瑰社會關懷協會,臺北市,大安區,臺北市大安區法治里通化街178號,121.5532837,25.0274868,C,巷弄長照站,0975-227919,peteryeh2009@gmail.com,葉永誠,20210407 15:25:22
臺北市私立平安喜樂社區長照機構,臺北市,北投區,臺北市北投區溫泉里公?路63巷9弄7號,121.5046158,25.13312149,B,家庭托顧服務,0909-535-286,ff0915388526@gmail.com,饒昱晴,20220210 14:58:43
恩揚有限公司附設臺北市私立恩揚居家長照機構,臺北市,文山區,臺北市文山區萬祥里羅斯福路5段225之1號1樓,121.5392532,25.00196457,B,喘息服務,029-301-999,eym@enyang.com.tw,林子哲,20221229 22:40:10
鴻源長期照顧股份有限公司附設臺北市私立旭樂居家長照機構,臺北市,士林區,臺北市士林區承德里承德路四段80巷2號3樓,121.5229187,25.08230591,B,居家服務,028-858-000,P021158@alumni.cgust.edu.tw,杜彥甫,20211129 17:01:44
馨瀅股份有限公司附設私立馨瀅居家長照機構,臺北市,大同區,臺北市大同區永樂里迪化街一段149號3樓,121.5105133,25.05236435,B,喘息服務,02-2552-7626,xinying.heidi@gmail.com,陳佳良,20220323 11:10:13
衛生福利部基隆醫院附設南港綜合長照機構,臺北市,南港區,臺北市南港區南港路二段78號3-5樓,121.603447,25.05398178,B,日間照顧服務,02-24292525,ngltc@kln.mohw.gov.tw,林三齊,20230202 13:32:53
王永良診所,臺北市,北投區,臺北市北投區自強街94號1樓,121.5149765,25.11063766,B,居家失能個案家庭醫師照護服務,0921-125-765,emer2314@gmail.com,王永良,20221230 21:55:06
臺北市私立安民居家長照機構,臺北市,士林區,臺北市士林區福德里文林路342號7樓K711室,121.5253906,25.09334373,B,居家服務,0926-885-625,anmin0625@gmail.com,黃逸民,20211228 14:32:49
耆康實業有限公司附設臺北市私立小太陽居家長照機構,臺北市,松山區,臺北市松山區自強里三民路35巷9號2樓,121.5624695,25.05532074,B,喘息服務,027-420-058,tw.softlife@gmail.com,嚴成茂,20221230 18:30:17
新康居家職能治療所,臺北市,士林區,臺北市士林區葫東里重慶北路四段248號,121.5113983,25.08662033,B,專業照護服務,02-28164533#312,newhealthot@gmail.com,洪于婷,20221230 20:27:12
佳顧股份有限公司附設臺北市私立佳顧居家長照機構,臺北市,中山區,臺北市中山區集英里中山北路2段102號11樓,121.5227127,25.06007195,B,喘息服務,02-2511-2595,drmake888@gmail.com,孫蓁如,20221229 23:13:53
臺北市私立全泰老人長期照顧中心(養護型),臺北市,北投區,臺北市北投區永和里007鄰行義路105號,121.5284348,25.12773514,B,喘息服務,02-28747739,ct28747739@gmail.com,陳莉茵,20220328 16:43:05
財團法人全成社會福利基金會受託經營管理臺北市大安老人服務中心,臺北市,大安區,臺北市大安區德安里四維路76巷12號,121.547348,25.03420448,B,營養餐飲服務,027-086-255,daanolder@gmail.com,聶玉美,20190627 17:56:51
財團法人全成社會福利基金會受託經營管理臺北市大安老人服務中心,臺北市,大安區,臺北市大安區德安里四維路76巷12號,121.547348,25.03420448,B,營養餐飲服務,027-086-255,daanolder@gmail.com,聶玉美,20210112 12:07:55
臺北市信義區惠安里辦公處,臺北市,信義區,臺北市信義區惠安里吳興街506巷21號,121.568512,25.02299309,C,巷弄長照站,0921-912-430,bp-30290@mail.taipei.gov.tw,周葉長,20210412 14:33:49
台北市北投區林泉社區發展協會,臺北市,北投區,臺北市北投區林泉里新民路46巷37號,121.5075836,25.13908577,C,巷弄長照站,0953-728-197,jack255136@gmail.com,張中模,20210412 10:53:45
財團法人基督教台灣信義會(大直真理堂),臺北市,中山區,臺北市中山區金泰里樂群二路142號及144號2樓敬業三路162巷109號1樓,121.5575409,25.08039474,C,巷弄長照站,(02)8501-1754,churchesgreat@gmail.com,吳英賓,20210408 16:24:30
善食營養中心,臺北市,士林區,臺北市士林區承德路4段81號6樓之1,121.5211639,25.07883072,B,專業照護服務,02-28837300#1450,ncnc@enutrition.com.tw,張馨怡,20230110 15:04:20
樂親居家職能治療所,臺北市,萬華區,臺北市萬華區和平西路三段396號106室,121.4909744,25.03534317,B,專業照護服務,0971-119-909,happylc888@gmail.com,林煜涵,20220126 15:46:36
臺北市私立跑居家長照機構,臺北市,士林區,臺北市士林區葫東里重慶北路4段250號3樓313室,121.5113525,25.08663177,B,居家服務,02-28161255,rcago313@gmail.com,吳正昕,20211230 10:10:25
社團法人中華生命關愛協會,臺北市,大安區,臺北市大安區芳和里和平東路3段212巷12號,121.5536728,25.02220535,C,巷弄長照站,0922-407-837,chowyinhwa@gmail.com,周音華,20210407 15:34:41
愛護家健康事業股份有限公司附設臺北市私立愛護家居家長照機構,臺北市,中山區,臺北市中山區晴光里中山北路3段31號7樓之1,121.5225296,25.06570244,B,居家服務,02-2599-5665,vera@inursingplus.com,張淑貞,20201203 16:45:21
臺北市私立一心居家長照機構,臺北市,松山區,臺北市松山區吉仁里八德路3段186號6樓之1,121.556015,25.04775238,B,居家服務,025-781-018,xue.oneheart@gmail.com,黃淑華,20211230 14:38:38
鴻源長期照顧股份有限公司附設臺北市私立旭樂居家長照機構,臺北市,士林區,臺北市士林區承德里承德路四段80巷2號3樓,121.5229187,25.08230591,B,喘息服務,028-858-000,P021158@alumni.cgust.edu.tw,杜彥甫,20221230 20:29:35
財團法人台北市基督教全人福利事業基金會(吳興教會),臺北市,信義區,臺北市信義區三張里吳興街269巷18弄6號,121.5647736,25.02709579,C,巷弄長照站,02-2758-9796,joan0801@ms68.hinet.net,鍾梅香,20210412 14:13:36
臺北市私立千千之家社區式服務類長期照顧服務機構(家庭托顧),臺北市,北投區,臺北市北投區永欣里同德街27巷16號,121.5291824,25.12496376,B,家庭托顧服務,02-28722140,naro@ms66.url.com.tw,彭麗蓉,20230207 14:55:46
有限責任臺北市全國照服員勞動合作社附設臺北市私立全方位居家長照機構,臺北市,萬華區,臺北市萬華區青年路106巷9號,121.5021286,25.0226593,B,居家服務,023-033-909,a88119480@gmail.com,李宗玟,20211207 12:30:40
財團法人伊甸社會福利基金會,臺北市,文山區,臺北市文山區萬芳里文山區萬美街一段55號3樓,121.5681152,25.00234222,B,交通接送服務,05-2622631,edenC0619@eden.org.tw,羅紀?,20230130 09:07:23
社團法人國際奔享體驗教育發展協會(吉利真光),臺北市,北投區,臺北市北投區吉利里石牌路一段39巷80弄41號1樓,121.5109406,25.11593819,C,巷弄長照站,02-28288884,gieeda.gieeda@gmail.com,曾美蘭,20210412 10:28:20
吉馨安居家護理所,臺北市,大同區,臺北市大同區甘州路51號4樓,121.5128784,25.05964851,B,專業照護服務,0921-066248,sinannurse@gmail.com,黃湘茹,20230106 20:33:25
財團法人臺北市立心慈善基金會附設臺北市私立立心居家式服務類長期照顧服務機構,臺北市,萬華區,臺北市萬華區頂碩里艋舺大道120巷39弄3號,121.5023727,25.03202629,B,居家服務,02-23361555#21,lishin.home@gmail.com,洪金桐,20211230 15:01:57
臺北市政府社會局委託財團法人喜憨兒社會福利基金會經營管理中山身障社區長照機構（日間照顧）,臺北市,中山區,臺北市中山區中山里長安西路5巷2號4樓,121.5212479,25.04983711,B,日間照顧服務,02-25211032,t01058@careus.org.tw,蕭淑珍,20220210 10:19:25
財團法人台灣基督教恩惠福音會,臺北市,內湖區,臺北市內湖區港墘里內湖路1段608號,121.5785828,25.07859421,C,巷弄長照站,02-27971000,cke25@hotmail.com,蔡錫安,20221230 20:07:47
社團法人臺灣職能學會,臺北市,中正區,臺北市中正區德義博愛路9號,121.5114441,25.04741669,B,專業照護服務,02-23820103,otaroc.taipei@gmail.com,張玲慧,20190417 00:00:00
紙飛機服務科技股份有限公司附設臺北市私立紙飛機居家長照機構,臺北市,萬華區,臺北市萬華區青山里西園路一段200號8樓之3,121.4992065,25.035923,B,喘息服務,0909-139-394,teitei3432@gmail.com,李學真,20230317 15:21:48
社團法人台北市二村基石關懷協會,臺北市,松山區,臺北市松山區東榮里民生東路5段69巷2弄10、12號,121.5587311,25.05908394,C,巷弄長照站,02-27632002,windowcchuang@gmail.com,趙明榮,20210412 13:46:27
優福國際股份有限公司附設臺北市私立優福居家長照機構,臺北市,大同區,臺北市大同區延平北路三段4號5樓(521室),121.5115738,25.06377029,B,喘息服務,0976-804-827,ufo90367886@gmail.com,李盛豊,20230220 15:28:19
臺北市政府社會局委託財團法人喜憨兒社會福利基金會經營管理中山身障社區長照機構（日間照顧）,臺北市,中山區,臺北市中山區中山里長安西路5巷2號4樓,121.5212479,25.04983711,B,喘息服務,02-25211032,t01058@careus.org.tw,蕭淑珍,20221229 22:58:29
欣昇復健科診所,臺北市,大安區,臺北市大安區復興南路一段283號,121.5438538,25.03549767,B,居家失能個案家庭醫師照護服務,2700-8805,xsrehab@gmail.com,洪維,20191005 19:00:35
臺北市內湖區灣仔社區發展協會,臺北市,內湖區,臺北市內湖區寶湖里民權東路6段208號,121.5966949,25.0676384,C,巷弄長照站,0961-365-688,yen7679@gmail.com,顏聰明,20210408 18:06:39
臺北市士林區忠義社區發展協會,臺北市,士林區,臺北市士林區忠誠里德行東路104巷9弄8號,121.5290375,25.10674667,C,巷弄長照站,028-310-943,bn_930@mail.taipei.gov.tw,曾坤來,20210407 11:50:38
臺北市信義區五全里辦公處,臺北市,信義區,臺北市信義區五全里永吉路278巷1弄13號,121.574585,25.04502296,C,巷弄長照站,02-2762-0007,wu--quan@hotmail.com,吳秀好,20210412 14:23:54
馨瀅股份有限公司附設私立馨瀅居家長照機構,臺北市,大同區,臺北市大同區永樂里迪化街一段149號3樓,121.5105133,25.05236435,B,居家服務,02-2552-7626,xinying.heidi@gmail.com,陳佳良,20220104 18:52:36
永鑫物理治療所,臺北市,南港區,臺北市南港區八德路四段885號3樓,121.580513,25.05086327,B,專業照護服務,2396-2222,pthao30@gmail.com,張清豪,20220317 10:20:50
台灣基督長老教會馬偕醫療財團法人馬偕紀念醫院,臺北市,中山區,臺北市中山區中山北路二段92號,121.5223694,25.05883217,A,個案管理服務,02-25604176,mwang@mmh.org.tw,張文瀚,20230208 09:08:13
福倫交通股份有限公司,臺北市,信義區,臺北市信義區松隆路337號1樓,121.5797272,25.04851723,B,交通接送服務,02-27635888#18,successtaxi@gmail.com,吳俊德,20230201 09:05:31
東和居家有限公司附設臺北市私立東和居家長照機構,臺北市,松山區,臺北市松山區南京東路四段170號4樓之1,121.5568161,25.05136871,B,喘息服務,02-6605-0630,rubie1218@yahoo.com.tw,林溦,20221229 22:39:01
台灣基督長老教會馬偕醫療財團法人馬偕紀念醫院,臺北市,中山區,臺北市中山區中山北路二段92號,121.5223694,25.05883217,B,專業照護服務,02-25604176,mwang@mmh.org.tw,張文瀚,20221230 18:22:27
臺北市私立千意居家長照機構,臺北市,松山區,臺北市松山區中崙里復興南路一段37號2樓,121.5441055,25.0462265,B,居家服務,027-786-287,cianyi6287@gmail.com,楊歆研,20230303 18:15:07
社團法人中華健康美好生活協會(建民),臺北市,北投區,臺北市北投區建民里文林北路80巷38弄2號,121.5188599,25.10569954,C,巷弄長照站,0910-302-055,linchia7288@gmail.com,林佳蓉,20210412 10:48:54
社團法人台灣厝邊有愛關懷協會榮星教會,臺北市,中山區,臺北市中山區正守里新生北路一段82號B1,121.5299454,25.04752159,C,巷弄長照站,02-23635546,lo1119@ms53.hinet.net,鄭忠仁,20210408 16:17:23
社團法人台灣多元社會福利協會,臺北市,北投區,臺北市北投區溫泉里溫泉里68-10號,121.5049057,25.13496971,C,巷弄長照站,02-28921099,tapdsw@gmail.com,林政緯,20210412 11:04:07
臺北市私立群英老人長期照顧中心(養護型),臺北市,松山區,臺北市松山區敦化里敦化南路一段7號4樓,121.5492859,25.04690552,B,喘息服務,02-25791400,tai_da_168@yahoo.com.tw,鄭淑芬,20221229 22:51:23
社團法人台北市信義區雙和社區發展協會,臺北市,信義區,臺北市信義區雙和里吳興街284巷24弄12號,121.5630798,25.02436256,C,巷弄長照站,02-2738-1447,shsc1688@yahoo.com.tw,葉清意,20210412 14:42:16
財團法人中華基督教衛理公會恩友堂,臺北市,松山區,臺北市松山區安平里寶清街123號,121.5675964,25.05415916,C,巷弄長照站,02-27670760,qjjaneyu@gmail.com,林烽銓,20210412 11:53:04
臺北市立聯合醫院(陽明院區),臺北市,士林區,臺北市士林區岩山里雨聲街105號,121.5314865,25.1048317,B,專業照護服務,02-28353456,B1882@tpech.gov.tw,蕭勝煌,20221230 12:16:21
臺北市北投區立群社區發展協會,臺北市,北投區,臺北市北投區立賢里尊賢街251巷18號1樓 (里民活動場所),121.5056915,25.11769295,C,巷弄長照站,02-28225613,jenfu5565@yahoo.com.tw,許瑛珍,20210412 10:30:01
社團法人台灣樂活服務發展協會附設臺北市私立樂活居家長照機構,臺北市,大安區,臺北市大安區信義路4段306號2樓L1室,121.554863,25.03294373,B,居家服務,027-552-733,happy@happylife.org.tw,馬瑞辰,20211202 17:25:45
跑居家物理治療所,臺北市,士林區,臺北市士林區葫東里重慶北路四段248號,121.5113983,25.08662033,B,專業照護服務(CC01),0907-091302,a770222boy@gmail.com,張沅輔,20230802 17:19:14
臺北市私立安歆居家式服務類長期照顧服務機構,臺北市,中山區,臺北市中山區興亞里松江路50號3樓,121.5326614,25.04817963,B,居家服務,02-25372586,crcanhsin@gmail.com,余建華,20221229 22:50:47
永誠復健科診所,臺北市,大安區,臺北市大安區復興南路二段236號2樓,121.5431366,25.0251255,B,專業照護服務,2707-1608,yc.clinic@msa.hinet.net,裴松毅,20200311 17:44:34
逸滿心有限公司附設臺北市私立逸滿心社區長照機構,臺北市,士林區,臺北市士林區中山北路5段687號3樓之1,121.5272903,25.09718513,B,日間照顧服務,02-28353535,momosss2014@gmail.com,羅順芳,20220718 13:44:06
中華民國紅十字會台灣省分會附設臺北市私立紅十字居家式服務類長期照顧服務機構,臺北市,大安區,臺北市大安區龍坡里新生南路三段20號,121.5344238,25.02418327,B,居家服務,02-23637794,rct@seed.net.tw,董光世,20211230 11:20:39
財團法人私立台北仁濟院(萬華區),臺北市,萬華區,臺北市萬華區廣州街200號,121.4980927,25.03668022,B,營養餐飲服務,,hanwei.chen@tjci.org.tw,林明成,20210128 20:21:00
臺北市私立仁群居家長照機構,臺北市,中山區,臺北市中山區下埤里民族東路512巷12號1樓,121.5419846,25.06753922,B,喘息服務,02-25016299,kindhomeservice@gmail.com,劉昱森,20221229 22:43:00
社團法人台北市銀髮族協會,臺北市,松山區,臺北市松山區安平里寶清街42號2樓,121.5675964,25.05315781,C,巷弄長照站,0986-038-688,fredwa88@gmail.com,張茂楠,20210412 16:07:33
謙和園健康福祉有限公司附設臺北市私立溫邸家居家長照機構,臺北市,中山區,臺北市中山區民安里新生北路2段72巷23號1樓,121.5212479,25.05708694,B,居家服務,02-25681589,hc.hereforyou@gmail.com,王志剛,20211230 16:04:21
臺北市私立大心居家長照機構,臺北市,萬華區,臺北市萬華區富民里康定路348號2f-1,121.4925003,25.0255661,B,喘息服務,02-23390179,a0970358370@gmail.com,趙重凱,20220623 13:41:24
勁緻物理治療所,臺北市,中山區,臺北市中山區安民樂群三路71號,121.5535583,25.08280373,B,專業照護服務,02-85025822,zenithptc@gmail.com,邱炫偉,20221229 22:36:43
純居家物理治療所,臺北市,萬華區,臺北市萬華區東園街73巷60號3樓,121.4981308,25.02652931,B,專業照護服務,0921-607-540,charliology@gmail.com,鍾詩偉,20220210 16:40:48
家恩長期照顧服務股份有限公司附設臺北市私立恩上家恩居家長照機構,臺北市,大安區,臺北市大安區忠孝東路三段54號2樓之1（105室）,121.5355606,25.04172707,B,喘息服務,0928-268-613,smalldog148@gmail.com,呂秉霖,20230912 14:36:20
財團法人伊甸社會福利基金會,臺北市,文山區,臺北市文山區萬芳里萬美街一段55號3樓,121.5681152,25.00234222,A,個案管理服務,02-22307715,eden8378@eden.org.tw,羅紀?,20230425 17:18:42
財團法人弘道老人福利基金會,臺北市,松山區,臺北市松山區復興北路451號1樓,121.5444336,25.06398773,A,個案管理服務,02-66131314,yvonne@hondao.org.tw,王乃弘,20230208 09:09:04
臺北市三樂樂齡關懷協會,臺北市,士林區,臺北市士林區社園里社中街240號,121.5075989,25.09156609,C,巷弄長照站,0937-070-078,syyeh888@gmail.com,葉子芸,20210407 11:51:33
臺北市私立一心居家長照機構,臺北市,松山區,臺北市松山區吉仁里八德路3段186號6樓之1,121.556015,25.04775238,B,喘息服務,025-781-018,xue.oneheart@gmail.com,黃淑華,20221229 22:47:03
中華民國紅十字會附設私立博愛居家長照機構,臺北市,萬華區,臺北市萬華區菜園里康定路62號11樓,121.5023117,25.04244232,B,居家服務,023-310-500,lily1015@redcross.org.tw,王清峰,20221230 15:22:23
國立臺灣大學醫學院附設醫院北護分院,臺北市,萬華區,臺北市萬華區內江街87號,121.5035706,25.04171944,B,喘息服務,0223-717-101,B40731@bh.ntuh.gov.tw,陳永銘,20221229 21:38:54
三合利計程車客運有限公司,臺北市,文山區,臺北市文山區興隆路四段151號2樓之4,121.5617447,24.98472404,B,交通接送服務,02-2929-0577,hearts1266@gmail.com,蔡豐吉,20230628 09:12:50
愛馨居服有限公司附設臺北市私立松山悅馨社區長照機構,臺北市,松山區,臺北市松山區南京東路5段230號2樓之4、2樓之5及2樓之6,121.5656815,25.05117607,B,日間照顧服務,087-862-031,yueshindaycare@gmail.com,傅翰強,20230921 14:43:06
中華民國紅十字會台灣省分會附設臺北市私立紅十字居家式服務類長期照顧服務機構,臺北市,大安區,臺北市大安區龍坡里新生南路三段20號,121.5344238,25.02418327,B,喘息服務,02-23637794,rct@seed.net.tw,董光世,20220509 13:33:35
臺北市立聯合醫院,臺北市,大同區,臺北市大同區鄭州路145號,121.5088882,25.0506916,B,居家失能個案家庭醫師照護服務,25553000#2030,B5646@tpech.gov.tw,蕭勝煌,20221216 13:04:16
臺北市私立安民居家長照機構,臺北市,士林區,臺北市士林區福德里文林路342號7樓K711室,121.5253906,25.09334373,B,喘息服務,0926-885-625,anmin0625@gmail.com,黃逸民,20221230 14:52:55
台北市大同區慶安社區發展協會,臺北市,大同區,臺北市大同區重慶里敦煌路90-92號1樓,121.5171356,25.07583809,C,巷弄長照站,0225-965-927,shun0531@kimo.com,林王雪娥,20210407 14:34:16
欣然銀髮發展服務事業股份有限公司附設臺北市私立欣然綜合長照機構,臺北市,大同區,臺北市大同區星明里寧夏路32號4樓,121.5151672,25.05597878,B,居家服務,2550-3500,xr85099741@gmail.com,吳紹涵,20230919 12:01:50
財團法人台北市中國基督教靈糧世界佈道會台北靈糧堂(古亭靈糧福音中心),臺北市,中正區,臺北市中正區永功里三元街198號1樓,121.5119019,25.02767372,C,巷弄長照站,02-23396540,vinclynn@hotmail.com,曾國生,20210408 16:45:30
台灣基督長老教會馬偕醫療財團法人馬偕紀念醫院,臺北市,中山區,臺北市中山區中山北路二段92號,121.5223694,25.05883217,A,個案管理服務,02-25604176,mwang@mmh.org.tw,張文瀚,20230208 09:02:21
施達實業有限公司附設臺北市私立施達社區長照機構,臺北市,士林區,臺北市士林區德行東路109巷104號2樓,121.5288544,25.11095619,B,喘息服務,028-381-313,starstory1313@gmail.com,施婉苓,20230814 09:17:16
哈佛物理治療所,臺北市,萬華區,臺北市萬華區西圓路二段362號7樓,121.4916,25.02540779,B,專業照護服務,02-82588536,jeffreytseng91@yahoo.com,曾致傑,20221229 21:47:34
康健居家護理所,臺北市,內湖區,臺北市內湖區民權東路六段180巷6號11樓之19,121.5926514,25.06819534,B,專業照護服務,02-87917001,kjcare.tw@gmail.com,吳姁媛,20221230 20:21:03
開南學校財團法人臺北市開南高級中等學校附設臺北市私立開南社區式長照機構,臺北市,中正區,臺北市中正區濟南路1段6號1樓,121.5218353,25.04241753,B,日間照顧服務,02-23939406,a1649@knvs.tp.edu.tw,胡毓富,20211223 14:21:25
新康居家職能治療所,臺北市,士林區,臺北市士林區葫東里重慶北路四段248號,121.5113983,25.08662033,B,專業照護服務(CC01),02-28164533#312,newhealthot@gmail.com,洪于婷,20230802 17:19:14
臺北市內湖區清白社區發展協會,臺北市,內湖區,臺北市內湖區清白里星雲街168巷29號&清白區民活動中心(星雲街168巷29號),121.597023,25.08003235,C,巷弄長照站,02-27909195,g066700@gmail.com,陳文中,20210408 17:47:06
臺北市私立大心居家長照機構,臺北市,萬華區,臺北市萬華區富民里康定路348號2f-1,121.4925003,25.0255661,B,居家服務,02-23390179,a0970358370@gmail.com,趙重凱,20211230 15:06:00
百齡診所附設護理之家,臺北市,士林區,臺北市士林區葫東里重慶北路4段187號3-8樓,121.5112686,25.08425713,B,喘息服務,02 28113113,nursinghome2009@hotmail.com,陳雅玲,20220126 15:38:50
社團法人愛福家協會,臺北市,中正區,臺北市中正區愛國東路110巷16號,121.5210571,25.03214836,A,個案管理服務,02-23567317,as03@ilive.org.tw,涂林德媛,20230208 09:12:21
臺北市私立賢暉老人長期照顧中心(養護型),臺北市,北投區,臺北市北投區永欣里016鄰石牌路2段315巷34弄14、16號1樓,121.5231781,25.12323761,B,喘息服務,02-28710770,sabinaangel1214@gmail.com,蔡玉真,20210112 23:27:02
安安物理治療所,臺北市,士林區,臺北市士林區重慶北路四段136號1樓,121.5124817,25.08338928,B,專業照護服務(CC01),02-29161003,annysknt@gmail.com,簡淑霞,20230802 17:19:14
美而美居家長照股份有限公司附設臺北市私立美而美居家長照機構,臺北市,中山區,臺北市中山區新生里吉林路245號4樓403室,121.5303802,25.06129265,B,居家服務,02-2821-2412,tgn82848095@gmail.com,郭力維,20211230 16:14:14
宗展股份有限公司附設臺北市私立辰心居家長照機構,臺北市,大同區,臺北市大同區永樂里西寧北路112號4樓之1,121.5088577,25.05611038,B,居家服務,02-25580208,8hq008@gmail.com,簡裕宗,20220126 15:39:05
愛護家健康事業股份有限公司附設臺北市私立愛護家居家長照機構,臺北市,中山區,臺北市中山區晴光里中山北路3段31號7樓之1,121.5225296,25.06570244,B,喘息服務,02-2599-5665,vera@inursingplus.com,張淑貞,20220510 16:01:09
三軍總醫院松山分院附設民眾診療服務處附設居家護理所,臺北市,松山區,臺北市松山區龍田里健康路131號,121.5576706,25.05437279,B,專業照護服務,02-27617086,avid.nemuca@msa.hinet.net,張郁敏,20221229 22:56:48
施達實業有限公司附設臺北市私立施達社區長照機構,臺北市,士林區,臺北市士林區德行東路109巷104號2樓,121.5288544,25.11095619,B,日間照顧服務,028-381-313,starstory1313@gmail.com,施婉苓,20230814 09:16:47
臺北市私立快樂之家社區式服務類長期照顧服務機構(家庭托顧),臺北市,北投區,臺北市北投區溫泉里光明路240之4號,121.5076828,25.13619232,B,家庭托顧服務,02-28947640,ab0935220571@gmail.com,王桂英,20230207 14:07:27
跑居家物理治療所,臺北市,士林區,臺北市士林區葫東里重慶北路四段248號,121.5113983,25.08662033,B,專業照護服務,0907-091302,a770222boy@gmail.com,張沅輔,20221230 20:19:49
康和文山樂活股份有限公司附設臺北市私立杏花學塾社區長照機構,臺北市,文山區,臺北市文山區辛亥路4段128-1號2樓,121.5566864,25.00517845,B,小規模多機能服務,029-356-802,wsflower128@gmail.com,蔡淑芬,20221226 18:33:26
臺北市政府社會局委託財團法人伊甸社會福利基金會經營管理民生身障社區長照機構（日間照顧）,臺北市,松山區,臺北市松山區三民里松山民生東路五段163之1號,121.562767,25.05908585,B,日間照顧服務,02-27609605,eden3779@eden.org.tw,羅紀?,20210202 10:47:29
中化銀髮事業股份有限公司附設臺北市私立中化銀髮居家式服務類長期照顧服務機構,臺北市,士林區,臺北市士林區舊佳里中山北路5段699巷1號1樓,121.5269547,25.09767342,B,喘息服務,02-27970880#208,rainbow@ccpc.com.tw,王謝怡貞,20221230 15:26:00
臺北市政府社會局委託中華民國紅十字會台灣省分會經營管理臺北市中正社區長照機構,臺北市,中正區,臺北市中正區建國里貴陽街一段60號3樓,121.5090408,25.03892517,B,日間照顧服務,02-23831958,rct03702883@gmail.com,董光式,20220314 11:32:19
宜寧居家護理所,臺北市,士林區,臺北市士林區前港里承德路四段235號9樓,121.522377,25.08704567,B,專業照護服務,02-28822382,karenchang0913@gmail.com,張肇仙,20230407 17:31:42
社團法人寧祈全人健康生命關懷協會附設臺北市私立寧祈居家長照機構,臺北市,中山區,臺北市中山區中山里民生東路1段42號12樓之14,121.524437,25.05792809,B,居家服務,02-2521-3282,homeservice@ningchi.org,吳健樑,20211230 16:13:19
財團法人臺北市松年長春社會福利基金會(中正),臺北市,中正區,臺北市中正區南福里羅斯福路1段94、96號11樓(中央教會),121.5198975,25.03001213,C,巷弄長照站,02-25000261,pine003@twdc.org.tw,王淑惠,20210408 17:01:54
財團法人中華民國佛教慈濟慈善事業基金會臺北市私立慈濟居家長照機構,臺北市,萬華區,臺北市萬華區莒光路222號5樓,121.5002518,25.03133583,A,個案管理服務,02-23023479,Ltc000517@tzuchi.org.tw,釋證嚴,20230208 09:00:53
元愷有限公司附設臺北市私立安愷居家長照機構,臺北市,中山區,臺北市中山區恆安里農安街32號8樓之3之4,121.5266724,25.06481361,B,居家服務,2522-1993,taco062169@gmail.com,蔡秉峰,20211230 16:01:54
財團法人耕莘文教基金會,臺北市,中正區,臺北市中正區文盛里辛亥路1段22號4樓,121.5289078,25.01891327,C,巷弄長照站,,yvonne@tiencf.org.tw,饒志成,20210408 16:41:31
樂親居家職能治療所,臺北市,萬華區,臺北市萬華區和平西路三段396號106室,121.4909744,25.03534317,B,專業照護服務(CC01),0971-119-909,happylc888@gmail.com,林煜涵,20230802 17:19:14
財團法人台北市中華基督教藝人之家,臺北市,信義區,臺北市信義區五常里松隆路102號13樓,121.5710297,25.04588318,C,巷弄長照站,02-27674567,artists.as@gmail.com,黃榮勇,20210412 14:25:03
暐淩居家物理治療所,臺北市,中正區,臺北市中正區重慶南路一段57號,121.5133896,25.0446167,B,專業照護服務,02-23121816,weiling.ihpt@gmail.com,蘇信昌,20221229 21:41:01
財團法人中華民國佛教慈濟慈善事業基金會臺北市私立慈濟居家長照機構,臺北市,萬華區,臺北市萬華區莒光路222號5樓,121.5002518,25.03133583,B,居家服務,02-23023479,Ltc000517@tzuchi.org.tw,釋證嚴,20220209 15:18:54
財團法人恆安社會福利慈善事業基金會,臺北市,大安區,臺北市大安區群賢里和平東路二段295號12樓,121.5421219,25.02499199,A,個案管理服務,02-23331955,hanganhomecare@gmail.com,胡世賢,20230605 09:35:02
柴寮仔社區發展協會,臺北市,大同區,臺北市大同區民權里民權西路172號1樓,121.5149841,25.06276894,C,巷弄長照站,2557-1918,yunna8383163@gmail.com,林美菊,20210407 14:14:41
大豐國際租賃有限公司,臺北市,南港區,臺北市南港區忠孝東路6段278巷23弄16號,120.4594054,23.1223579,B,交通接送服務,029-426-882,dafegcare906070@gmail.com,沈恒昌,20220429 10:18:13
財團法人台北市中國基督教靈糧世界佈道會台北靈糧堂(松江靈糧福音中心),臺北市,中山區,臺北市中山區松江里民權東路二段146號2樓,121.5342331,25.06223488,C,巷弄長照站,02-23623022#8713,niko.tsai@breadoflife.taipei,曾國生,20210408 16:24:51
臺北市大安區法治里辦公處,臺北市,大安區,臺北市大安區法治里通化街192號,121.5529251,25.02617073,C,巷弄長照站,0980-403-536,michellelin0207@yahoo.com.tw,林佩燕,20210407 11:34:46
與樂職能治療所,臺北市,南港區,臺北市南港區八德路四段881號2樓,121.580452,25.05083847,B,專業照護服務,3762-2208,withhappiness.service@gmail.com,陳姵君,20221229 22:22:41
臺北市獨立型態南港居家護理所,臺北市,南港區,臺北市南港區聯成里東新街13巷7號,121.5858383,25.04794502,B,專業照護服務,02-27856997,nancybear1314@gmail.com,施人文,20221229 23:19:09
臺北市政府社會局委託財團法人台灣省私立健順養護中心經營管理南港社區式長照機構,臺北市,南港區,臺北市南港區重陽里重陽路187巷5號,121.5987625,25.05712891,B,日間照顧服務,02-26535311,nkelder@gmail.com,黃禎祥,20210226 17:22:27
臺北市政府社會局委託財團法人台灣省私立健順養護中心經營管理南港社區式長照機構,臺北市,南港區,臺北市南港區重陽里重陽路187巷5號,121.5987625,25.05712891,B,日間照顧服務,02-26535311,nkelder@gmail.com,黃禎祥,20220406 14:13:30
臺北市政府社會局委託財團法人恆安社會福利慈善基金會經營管理臺北市兆如老人安養護中心,臺北市,文山區,臺北市文山區政大二街129號,121.5841904,24.98931503,B,日間照顧服務,02-86616365,Customer_Service@hangan.org,胡世賢,20201203 13:37:39
樂親居家職能治療所,臺北市,萬華區,臺北市萬華區和平西路三段396號106室,121.4909744,25.03534317,B,專業照護服務,0971-119-909,happylc888@gmail.com,林煜涵,20221229 22:18:17
台北市北投區福興社區發展協會,臺北市,北投區,臺北市北投區福興里自強街5巷22號,121.5123749,25.11046028,C,巷弄長照站,02-2827-9392,jeo55404968@gmail.com,張國龍,20210412 11:12:12
崇仁長照股份有限公司私立元泰社區長照機構,臺北市,士林區,臺北市士林區中山北路5段685號2樓,121.5273132,25.09709549,B,日間照顧服務,028-322-779,crczyt@gmail.com,楊學慧,20221229 23:02:04
臺北市大安區錦華里辦公處,臺北市,大安區,臺北市大安區錦泰里羅斯福路2段35巷19弄6號1樓,121.5230103,25.02825356,C,巷弄長照站,02-23511711#8238,bi-s9091006@mail.taipei.gov.tw,溫美珠,20210407 15:55:11
一心健康事業股份有限公司附設臺北市私立繫心居家長照機構,臺北市,松山區,臺北市松山區吉仁里延吉街11號4樓之1（A室）,121.553688,25.04672623,B,喘息服務,0955-082-062,gentlecare.ltc@gmail.com,黃淑華,20221229 22:46:08
台灣基督長老教會馬偕醫療財團法人馬偕紀念醫院,臺北市,中山區,臺北市中山區中山北路二段92號,121.5223694,25.05883217,B,營養餐飲服務,02-25604176,mwang@mmh.org.tw,張文瀚,20190627 18:01:41
財團法人天主教遣使會-聖文生之友社區關懷據點,臺北市,士林區,臺北市士林區天山里中山北路7段134號,121.5322495,25.12278938,C,巷弄長照站,02-29286060#10657,ssd@cthyh.org.tw,費克強,20210406 09:46:35
臺北市萬華區萬大社區發展協會,臺北市,萬華區,臺北市萬華區壽德里萬大路329巷25號1樓(里民活動場所)台北市壽德里萬大路329巷27弄4號1樓(協會新增活動場所)台北市萬大路411號2樓(萬青區民活動中心),121.5010757,25.02375793,C,巷弄長照站,02-23090713,linche39@kimo.com,蔡素麗,20210412 15:03:22
臺北市私立加恩居家長照機構,臺北市,中正區,臺北市中正區南福里羅斯福路1段28號4樓,121.5189743,25.03141594,B,喘息服務,2322-2757,ghs201988@gmail.com,江家穎,20221229 21:47:05
社團法人臺北市臻佶祥社會服務協會,臺北市,中正區,臺北市中正區忠勤里中華路2段315巷16、18號,121.5069962,25.02845764,C,巷弄長照站,02-23036281,tsc1168@yahoo.com.tw,方荷生,20230106 20:32:57
社團法人台灣美滿家庭社區服務協會,臺北市,文山區,臺北市文山區萬興里指南路二11號,121.5756226,24.98645592,C,巷弄長照站,0952-650-867,NTURCHIANG@GMAIL.COM,洪英正,20210409 16:03:45
財團法人台北市活石基督徒團契,臺北市,文山區,臺北市文山區萬興里指南路二段45巷24弄17號,121.5753632,24.98946381,C,巷弄長照站,0925-230-295,lingling7475@yahoo.com.tw,謝長安,20210409 16:04:42
財團法人恆安社會福利慈善事業基金會附設臺北市私立恆安居家式服務類長期照顧服務機構,臺北市,大安區,臺北市大安區群賢里和平東路二段295號12樓,121.544693,25.02499199,B,喘息服務,02-2333-1955,hanganhomecare@gmail.com,胡世賢,20230103 19:33:58
大直復健科診所,臺北市,中山區,臺北市中山區北安路630巷25弄16號,121.5499115,25.08360291,B,居家失能個案家庭醫師照護服務,085-096-879,paoshow@hotmail.com,陳奕錫,20221230 22:00:42
大直復健科診所,臺北市,中山區,臺北市中山區北安路630巷25弄16號,121.5499115,25.08360291,B,專業照護服務,085-096-879,paoshow@hotmail.com,陳奕錫,20221229 22:51:05
財團法人弘道老人福利基金會附設臺北市私立西松社區長照機構,臺北市,松山區,臺北市松山區東榮里南京東路五段251巷46弄5號,121.5646896,25.05332184,B,營養餐飲服務,02-27616300,laughing@hondao.org.tw,王乃弘,20210303 16:55:50
臺北市私立上美老人長期照顧中心(養護型),臺北市,士林區,臺北市士林區重慶北路四段162號,121.51194,25.08454323,B,喘息服務,02-28122366,yilien3@hotmail.com,李依蓮,20230508 14:22:22
尚好物理治療所,臺北市,士林區,臺北市士林區重慶北路四段250號3樓,121.5113602,25.08666611,B,專業照護服務,2816-4533#325,gn01710202@gmail.com,周祺鈞,20221230 20:03:36
溫心企業有限公司附設臺北市私立溫心居家長照機構,臺北市,中山區,臺北市中山區力行里復興北路62號3樓之1(6室),121.5437851,25.0504818,B,喘息服務,02-2751-0515,hopelight825@gmail.com,張正松,20221229 23:16:12
崇仁長照股份有限公司私立元泰社區長照機構,臺北市,士林區,臺北市士林區中山北路5段685號2樓,121.5273132,25.09709549,B,喘息服務,028-322-779,crczyt@gmail.com,楊學慧,20221229 23:02:04
欣昇復健科診所,臺北市,大安區,臺北市大安區復興南路一段283號,121.5438538,25.03549767,B,專業照護服務,2700-8805,xsrehab@gmail.com,洪維,20190821 09:44:26
財團法人臺北市中國基督教靈糧世界佈道會士林靈糧堂附設臺北市私立天母社區式服務類長期照顧服務機構,臺北市,士林區,臺北市士林區芝山里德行東路338巷12之1號,121.5394974,25.10848236,B,團體家屋服務,02-28381749,grouphome@slsc.org.tw,許本爵,20200326 16:03:40
(新北)曼巴租賃有限公司,臺北市,大安區,臺北市大安區敦化南路一段225號地下三層之7,121.5492859,25.0405674,B,交通接送服務,02-25039779,gary22124@gmail.com,陳國勇,20220601 11:50:14
臺北市私立大千之家社區式服務類長期照顧機構(家庭托顧),臺北市,北投區,臺北市北投區中庸里雙全街48巷5號,121.5006714,25.13801575,B,家庭托顧服務,0929-314-190,naro@ms66.url.com.tw,李元傑,20220315 13:46:01
寶珠職能治療所,臺北市,大安區,臺北市大安區140巷17號2樓,121.5532761,25.02911949,B,專業照護服務,02-27329012,eagle72130steven@gmail.com,陳奕丞,20221230 20:07:06
優福國際股份有限公司附設臺北市私立優福居家長照機構,臺北市,大同區,臺北市大同區延平北路三段4號5樓(521室),121.5115738,25.06377029,B,居家服務,0976-804-827,ufo90367886@gmail.com,李盛豊,20230509 16:49:58
臺北市南港區鴻福社區發展協會,臺北市,南港區,臺北市南港區鴻福里成福路82號,121.5865097,25.04386902,C,巷弄長照站,02-27834848,mk4436@yahoo.com.tw,劉明康,20210412 14:51:46
社團法人臺灣58金融仕家協會,臺北市,萬華區,臺北市萬華區桂林路171號,121.49646,25.03874779,B,營養餐飲服務,02-2311-2758,windliongodlin@gmail.com,林仁豐,20201230 09:04:27
臺北市私立安歆居家式服務類長期照顧服務機構,臺北市,中山區,臺北市中山區興亞里松江路50號3樓,121.5326614,25.04817963,B,喘息服務,02-25372586,crcanhsin@gmail.com,余建華,20220318 14:16:46
臺北市私立仁群居家長照機構,臺北市,中山區,臺北市中山區下埤里民族東路512巷12號1樓,121.5419846,25.06753922,B,居家服務,02-25016299,kindhomeservice@gmail.com,劉昱森,20211230 15:58:54
生活交通有限公司,臺北市,中山區,臺北市中山區民權東路一段55號六樓,121.5248871,25.06290627,B,交通接送服務,02-25997667,pingancar168@gmail.com,周政佳,20230627 17:22:32
臺北市中正區櫻花社區發展協會,臺北市,中正區,臺北市中正區網溪里牯嶺街165號,121.5191345,25.02184105,C,巷弄長照站,0919-940-027,s33651923@yahoo.com.tw,夏萬浪,20210616 18:04:03
財團法人新北市基督教新希望教會(德行據點),臺北市,士林區,臺北市士林區德行里雙溪街140號1樓,121.5243759,25.10042191,C,巷弄長照站,0982-985-298,rebecca401010@gmail.com,林淑萍,20210312 17:46:37
挺好居家職能治療所,臺北市,北投區,臺北市北投區石牌路二段130巷4號,121.5174484,25.11764145,B,專業照護服務,0970-595-059,ihcr3975@gmail.com,?添源,20190823 10:46:48
普眾股份有限公司附設臺北市私立普眾居家長照機構,臺北市,南港區,臺北市南港區新光里昆陽街152巷39號1樓,121.5929642,25.04913521,B,喘息服務,02-27887966,pj83485803@gmail.com,陳秀麗,20220324 10:54:15
臺北市大安區臺北龍雲社區發展協會,臺北市,大安區,臺北市大安區龍雲里大安路二段160巷24號及復興南路二段151巷43號,121.5455017,25.02846909,C,巷弄長照站,02-2754-7302,longyun027@gmail.com,黃廣明,20210408 16:07:53
社團法人台灣樂活服務發展協會(樂活社子),臺北市,士林區,臺北市士林區社子里延平北路6段82巷5號,121.508606,25.08907127,C,巷弄長照站,0983-108-777,saxochi@gmail.com,馬瑞辰,20210407 11:53:31
銀享全球股份有限公司附設臺北市私立銀享居家長照機構,臺北市,大安區,臺北市大安區仁慈里復興南路1段259號8樓之1(805室),121.5438766,25.03650093,B,喘息服務,02-27009805,slghomecare@gmail.com,蔡昕伶,20221230 15:01:57
寶珠職能治療所,臺北市,大安區,臺北市大安區140巷17號2樓,121.5532761,25.02911949,B,專業照護服務(CC01),02-27329012,eagle72130steven@gmail.com,陳奕丞,20230802 17:19:14
財團法人恆安社會福利慈善事業基金會,臺北市,大安區,臺北市大安區群賢里和平東路二段295號12樓,121.5421219,25.02499199,A,個案管理服務,02-23331955,hanganhomecare@gmail.com,胡世賢,20230626 15:02:33
永愛居家護理所,臺北市,中正區,臺北市中正區福州街1號10樓之2,121.5071564,25.03488922,B,專業照護服務,02-23711959,yang9492@yahoo.com.tw,楊耀儀,20221229 21:39:44
寶珠職能治療所,臺北市,大安區,臺北市大安區140巷17號2樓,121.5532761,25.02911949,B,專業照護服務,02-27329012,eagle72130steven@gmail.com,陳奕丞,20230314 09:41:34
台灣迦美福音傳播協會,臺北市,文山區,臺北市文山區景華里三福街74巷2號1樓,121.5443573,24.99765396,C,巷弄長照站,02-29348952,olivetreepeng@yahoo.com.tw,朱信介,20210409 15:23:17
臺北市文山區木柵社區發展協會,臺北市,文山區,臺北市文山區木柵里久康街92-1號,121.5671692,24.99044418,C,巷弄長照站,0933-220278,kh8113@gmail.com,高銘傳,20210408 18:16:32
泉益居家有限公司附設臺北市私立泉益居家長照機構,臺北市,文山區,臺北市文山區忠順街一段20號1樓,121.5587769,24.98389626,B,喘息服務,02-86618880,chuanyi10910@gmail.com,詹弘毅,20221229 22:14:27
泰安醫院,臺北市,中山區,臺北市中山區新生里民權東路2段92巷2-1號,121.5315552,25.06146812,B,專業照護服務,02-25671855,gracefuber@gmail.com,應?煇,20190807 11:42:47
德力居家有限公司附設臺北市私立德力居家長照機構,臺北市,大安區,臺北市大安區華聲里臺北市大安區忠孝東路4段300號5樓S21室,121.5562668,25.04115486,B,喘息服務,0978-634-913,deli.dailycare@gmail.com,蔡宗棋,20221229 22:48:47
臺北市私立幸福時光居家護理所,臺北市,大安區,臺北市大安區永康里75巷1號1樓,121.5272827,25.03170395,B,專業照護服務,02-77058110,goodtime21393@gmail.com,林千代,20221230 15:18:55
同仁醫療財團法人萬華醫院,臺北市,萬華區,臺北市萬華區中華路2段606巷6號,121.5098267,25.02404976,B,專業照護服務,02-23059292*603,wanhuahospital@gmail.com,蕭竹生,20201202 20:20:59
財團法人臺北市立心慈善基金會附設臺北市私立立心居家式服務類長期照顧服務機構,臺北市,萬華區,臺北市萬華區頂碩里艋舺大道120巷39弄3號,121.5023727,25.03202629,B,居家服務,02-23361555#21,lishin.home@gmail.com,洪金桐,20230206 08:54:00
智慧長照有限公司附設臺北市私立愛關懷居家長照機構,臺北市,信義區,臺北市信義區忠孝東路5段1號2樓207室,121.5412292,24.99171638,B,喘息服務,7729-7769,e2frank2020@gmail.com,王純鍵,20221229 22:54:05
中華民國紅十字會台灣省分會(社照C),臺北市,大安區,臺北市大安區龍坡里新生南路三段20-1號4樓,121.5344238,25.02418327,A,個案管理服務,02-23630098,rct03702883@gmail.com,董光世,20220315 10:56:17
鴻源長期照顧股份有限公司附設臺北市私立旭樂居家長照機構,臺北市,士林區,臺北市士林區承德里承德路四段80巷2號3樓,121.5229187,25.08230591,B,居家服務,028-858-000,P021158@alumni.cgust.edu.tw,杜彥甫,20220315 10:24:38
臺北市私立喜宇居家長照機構,臺北市,松山區,臺北市松山區慈祐里臺北市松山區八德路四段678號6樓之1,121.5754166,25.04985046,B,喘息服務,0966-200-297,tsai_you@yahoo.com.tw,劉敬喜,20221229 22:34:03
財團法人陽明山基督教天母禮拜堂,臺北市,士林區,臺北市士林區天母里中山北路7段216巷1號1樓,121.5330048,25.12586021,C,巷弄長照站,02-2871-1622#25,bible2312@gmail.com,王騰敏,20210407 11:36:22
臺北市私立上美老人長期照顧中心(養護型),臺北市,士林區,臺北市士林區重慶北路四段162號,121.51194,25.08454323,B,喘息服務,02-28122366,yilien3@hotmail.com,李依蓮,20220207 10:10:14
寶珠職能治療所,臺北市,大安區,臺北市大安區140巷17號2樓,121.5532761,25.02911949,B,專業照護服務(CC01),02-27329012,eagle72130steven@gmail.com,陳奕丞,20230802 17:19:14
中華民國紅十字會臺北市分會,臺北市,信義區,臺北市信義區中興里中興里信義路4段415號5樓-3,121.5592117,25.03327942,C,巷弄長照站,02-2758-3009,kennylasa0829@tp.edu.tw,胡坤佑,20210412 14:22:14
丁大元診所,臺北市,內湖區,臺北市內湖區東湖路119巷49弄4號,121.6171341,25.06990433,B,居家失能個案家庭醫師照護服務,02-26331010,dauyuan@hotmail.com,丁大元,20230524 11:40:20
中華民國紅十字會台灣省分會附設臺北市私立紅十字居家式服務類長期照顧服務機構,臺北市,大安區,臺北市大安區龍坡里新生南路三段20號,121.5344238,25.02418327,A,個案管理服務,02-23637794,rct@seed.net.tw,董光世,20230208 09:09:33
惠璿諮詢中心,臺北市,信義區,臺北市信義區智誠忠孝東路五段372巷29弄15號,121.5743866,25.03921127,B,專業照護服務,02-23457740,dietitian.shan@gmail.com,陳惠櫻,20190417 00:00:00
台北市北投區榮光社區發展協會,臺北市,北投區,臺北市北投區榮光里石牌路1段166巷43弄15號,121.5150146,25.11403275,C,巷弄長照站,02-2823-1593,gym5118@yahoo.com.tw,蘇寶鈴,20210412 11:14:38
臺北市內湖區石潭社區發展協會,臺北市,內湖區,臺北市內湖區石潭里成功路二段1號2樓,120.9655411,24.8155717,C,巷弄長照站,02-27937177,shuru571110@gmail.com,廖煒國,20210408 17:41:16
沐晨職能治療所,臺北市,內湖區,臺北市內湖區安泰街125巷19號5樓,121.6170425,25.07715988,B,專業照護服務(CC01),2633-3506,muchenot@gmail.com,徐瑛雅,20230802 17:19:14
臺北市和德長壽健康促進協會,臺北市,萬華區,臺北市萬華區和德里興義街25號,121.4921494,25.02685928,C,巷弄長照站,02-23395285,wh-178@mail.taipei.gov.tw,李文通,20210412 14:58:53
臺北市私立加恩居家長照機構,臺北市,中正區,臺北市中正區南福里羅斯福路1段28號4樓,121.5189743,25.03141594,B,居家服務,2322-2757,ghs201988@gmail.com,江家穎,20220207 16:04:56
優福國際股份有限公司附設臺北市私立優福居家長照機構,臺北市,大同區,臺北市大同區延平北路三段4號5樓(521室),121.5115738,25.06377029,B,居家服務,0976-804-827,ufo90367886@gmail.com,李盛豊,20230220 15:27:48
神同行小客車租賃有限公司,臺北市,松山區,臺北市松山區八德路二段386號12樓之7,121.5877457,25.05285835,B,交通接送服務,02-2652-1567,ss46005176@gmail.com,葉書含,20220222 10:28:06
康寧醫療財團法人附設臺北市私立康寧社區長照機構,臺北市,內湖區,臺北市內湖區成功路五段420巷28號2樓之二,121.6088028,25.07563782,B,日間照顧服務,(02)2634-5500,kao8563@gmail.com,鄭予菲,20220802 17:19:09
臺北市政府社會局委託財團法人台北市立心慈善基金會經營管理 臺北市大同老人服務暨日間照顧中心,臺北市,大同區,臺北市大同區重慶里重慶北路三段347號3樓,121.5140762,25.07478333,B,營養餐飲服務,（02）2592-9808#13,datongold@gmail.com,洪金桐,20210119 17:08:50
臺北市私立朵朵居家長照機構,臺北市,中正區,臺北市中正區光復里衡陽路85號6樓之6,121.5108109,25.04232407,B,居家服務,02-23826700,duoduo20220609@gmail.com,方珍珍,20220825 15:38:54
財團法人天主教失智老人社會福利基金會附設臺北市私立聖若瑟失智老人養護中心,臺北市,萬華區,臺北市萬華區保德里德昌街125巷11號,121.496933,25.02363968,B,小規模多機能服務,02-23046716#108,s8910009@ms61.hinet.net,鍾安住,20221229 21:29:38
臺北市私立悠樂活居家長照機構,臺北市,大同區,臺北市大同區重慶北路一段67號3樓,121.5142975,25.0664959,B,居家服務,02-77467520,care.nursing1027@yahoo.com,周至衡,20221229 22:07:16
社團法人台灣多元社會福利協會私立多福居家長照機構,臺北市,北投區,臺北市北投區溫泉里溫泉路68之10號,121.5048065,25.13516617,B,居家服務,02-28927001,dofuhs@gmail.com,林政緯,20220207 16:17:14
臺北市內湖區碧湖社區發展協會,臺北市,內湖區,臺北市內湖區金龍里金龍里金龍路136-1號,121.5900574,25.08576393,C,巷弄長照站,0935-245293,ulp6018@ms23.hinet.net,賴炎煌,20210408 17:48:30
芊潁顧問有限公司附設臺北市私立芊潁居家長照機構,臺北市,中山區,臺北市中山區行政里建國北路3段92號3樓(D316室),121.5344696,25.06668282,B,居家服務,02-2508-0383,qianyingoffice@gmail.com,何冠潁,20230727 08:35:03
壽合居家職能治療所,臺北市,文山區,臺北市文山區興家里興隆路三段221巷4弄14號,121.560112,24.9936924,B,專業照護服務,0933-004397,ensonwhj@yahoo.com.tw,吳鴻章,20220302 10:32:30
財團法人伊甸社會福利基金會,臺北市,文山區,臺北市文山區萬芳里萬美街一段55號3樓,121.5681152,25.00234222,A,個案管理服務,02-22307715,eden8378@eden.org.tw,羅紀?,20230208 09:04:01
財團法人中華基督教廈門街浸信會,臺北市,中正區,臺北市中正區螢圃里15鄰廈門街81巷20號,121.5192871,25.02429581,C,巷弄長照站,2368-7582#211,tammylee99@gmail.com,柯德仁,20210408 17:33:33
回復點藥局,臺北市,大安區,臺北市大安區大安路一段65號2樓之1,121.5462799,25.04253578,B,專業照護服務,2721-8597,recoverypointmacy@gmail.com,許凱婷,20190821 15:17:34
臺北市松山區東勢里辦公處,臺北市,松山區,臺北市松山區東勢里南京東路4段133巷8弄17號,121.5543442,25.05303764,C,巷弄長照站,02-27170369,bh_ssda207@mail.taipei.gov.tw,王叔珍,20210412 12:01:15
台北市?尾關懷互助協會,臺北市,文山區,臺北市文山區景慶里萬慶街6號,121.5402527,24.99232483,B,喘息服務,02-89351788,older.hearing@msa.hinet.net,蔡淵輝,20221229 23:12:13
沐晨職能治療所,臺北市,內湖區,臺北市內湖區安泰街125巷19號5樓,121.6170425,25.07715988,B,專業照護服務,2633-3506,muchenot@gmail.com,徐瑛雅,20221230 20:17:31
振興醫療財團法人附設振興居家護理所,臺北市,北投區,臺北市北投區榮華里振興街45號,121.5224686,25.11751175,B,專業照護服務,02-28264400,ch7727@chgh.org.tw,李怡慧,20230501 09:29:05
財團法人台灣基督教福利會,臺北市,中正區,臺北市中正區杭州南路1段101巷28-4號2樓,121.5271225,25.03734016,B,營養餐飲服務,02-23940297,1954tcsevrvice@gmail.com,劉仁海,20220329 16:38:05
台灣樂康協會,臺北市,松山區,臺北市松山區三民路113巷12號6樓,121.466038,24.9871382,B,交通接送服務,02-77230088,laughflower@gmail.com,陳淑貞,20220429 10:36:17
私立好幫守居家長照機構,臺北市,士林區,臺北市士林區葫蘆里延平北路5段225號4樓之2,121.5098038,25.08423424,B,專業照護服務,028-112-766,ucareliving@gmail.com,林玟葉,20220719 19:48:21
臺北市政府衛生局委託臺北榮民總醫院經營管理稻陣社區長照機構,臺北市,北投區,臺北市北投區稻香路81號5樓,121.4892883,25.14091301,B,喘息服務,02-28958576,daoxiangfacility@gmail.com,陳威明,20230607 13:37:52
社團法人中華仁親社區關懷協會(北投好厝邊),臺北市,北投區,臺北市北投區中心里大業路721號一樓,121.5022278,25.13727188,C,巷弄長照站,02-28803408#2280,lily.hsu275310@yahoo.com.tw,劉群茂,20210409 17:13:14
社團法人臺北市艾馨公益慈善會,臺北市,萬華區,臺北市萬華區福音里康定路229號6樓,121.501358,25.03536606,C,巷弄長照站,02-2336-6516,allen920g@yahoo.com.tw,陳嘉銘,20210412 15:12:00
臺北市私立晉安老人長期照顧中心(養護型),臺北市,大同區,臺北市大同區至聖里032鄰重慶北路3段175、177號1~4樓,121.5134888,25.06528473,B,喘息服務,02-2598-2301,jinan.yanghu@msa.hinet.net,吳世均,20221230 19:11:38
台北市基督教新城教會,臺北市,北投區,臺北市北投區東華里東華街2段180之1號,121.5110168,25.12021637,C,巷弄長照站,02-28236310,a0916983917@gmail.com,黎秉劼,20210412 10:49:52
愛迪樂居家職能治療所,臺北市,南港區,臺北市南港區福德街373巷5號15樓,121.5912399,25.04034233,B,專業照護服務(CC01),,adlers0615@gmail.com,鍾孟修,20230802 17:19:14
艾可居家物理治療所,臺北市,中山區,臺北市中山區農安街148號,121.5322876,25.06471252,B,專業照護服務,2599-2630,icarephysiotherapyclinic@gmail.com,張家豪,20221229 23:00:44
芊潁顧問有限公司附設臺北市私立芊潁居家長照機構,臺北市,中山區,臺北市中山區行政里建國北路3段92號3樓(D316室),121.5344696,25.06668282,B,居家服務,02-2508-0383,qianyingoffice@gmail.com,何冠潁,20220322 10:27:11
寶珠職能治療所,臺北市,大安區,臺北市大安區140巷17號2樓,121.5532761,25.02911949,B,專業照護服務,02-27329012,eagle72130steven@gmail.com,陳奕丞,20230602 10:24:13
財團法人老五老基金會附設臺北市私立老五老居家式服務類長期照顧服務機構,臺北市,北投區,臺北市北投區吉慶里石牌路1段14號3樓,121.5131073,25.11036682,B,喘息服務,02-28929702,bt@ofo.org.tw,陳麗欣,20221230 14:50:05
臺北市私立豪門老人長期照顧中心(養護型),臺北市,北投區,臺北市北投區北投大業路452巷2號6-9F,121.4972916,25.13171959,B,喘息服務,0228-954-492,noahsang@gmail.com,張妤安,20221230 20:18:13
育和有限公司附設臺北市私立育和居家長照機構,臺北市,大同區,臺北市大同區寧夏路23-1號2樓202室,121.5151367,25.05516624,B,居家服務,0918-026-709,yuhe829@gmail.com,陳彥凱,20220530 16:12:34
泰安醫院,臺北市,中山區,臺北市中山區新生里民權東路2段92巷2-1號,121.5315552,25.06146812,B,喘息服務,02-25671855,gracefuber@gmail.com,應?煇,20190808 11:20:50
愛護家健康事業股份有限公司附設臺北市私立愛護家居家長照機構,臺北市,中山區,臺北市中山區晴光里中山北路3段31號7樓之1,121.5225296,25.06570244,B,專業照護服務,02-2599-5665,vera@inursingplus.com,張淑貞,20221229 22:49:51
臺北市大安區大安新龍社區發展協會,臺北市,大安區,臺北市大安區新龍里信義路三段134巷98號1樓,121.5389481,25.02908134,C,巷弄長照站,02-2706-7771,t123411@hotmail.com,李沈素勤,20210407 15:37:38
臺北市立聯合醫院附設中興住宿長照機構,臺北市,大同區,臺北市大同區玉泉里鄭州路145號10樓C區,121.5088882,25.0506916,B,喘息服務,02-25523234-1056,B1713@tpech.gov.tw,蔡景耀,20221229 20:48:45
財團法人福智慈善基金會(東湖教室),臺北市,內湖區,臺北市內湖區五分里東湖路106巷2號、6號、8號,121.6154556,25.06830215,C,巷弄長照站,02-26335547,john4721@ymail.com,賴錫源,20210408 17:39:56
美而美居家長照股份有限公司附設臺北市私立美而美居家長照機構,臺北市,中山區,臺北市中山區新生里吉林路245號4樓403室,121.5303802,25.06129265,B,喘息服務,02-2821-2412,tgn82848095@gmail.com,郭力維,20211230 16:14:14
社團法人台北市家庭照顧者關懷協會,臺北市,中山區,臺北市中山區北安里北安路805巷4弄5號地下,121.5545883,25.08613396,C,巷弄長照站,0916-780-645,tachih70@yahoo.com.tw,李孟芬,20210408 16:14:33
摩克動力資訊股份有限公司,臺北市,大同區,臺北市大同區昌吉街186號,121.5120468,25.06584549,B,交通接送服務,02-25866533,agentservice@mocca.com.tw,徐龍翔,20220315 16:48:03
優福國際股份有限公司附設臺北市私立優福居家長照機構,臺北市,大同區,臺北市大同區延平北路三段4號5樓(521室),121.5115738,25.06377029,B,喘息服務,0976-804-827,ufo90367886@gmail.com,李盛豊,20230509 16:49:58
臺北市私立安歆松江社區長照機構,臺北市,中山區,臺北市中山區中央里松江路50號3樓,121.5326614,25.04817963,B,喘息服務,02-25371116,yaru42@gmail.com,張維庭,20221229 22:37:11
臺北市士林海光社區發展協會,臺北市,士林區,臺北市士林區富光里延平北路5段99號,121.5104218,25.08123016,C,巷弄長照站,0932-023-186,weiyuan.comm@yahoo.com.tw,廖品筑,20210407 11:55:21
社團法人中華民國香柏樹長者社區關懷協會大安台電據點,臺北市,大安區,臺北市大安區大學里羅斯福路3段275號3樓,121.5309753,25.01836014,C,巷弄長照站,02-2363-2096#121,kunlin65@gmail.com,楊寧亞,20210407 14:50:48
國泰醫療財團法人國泰綜合醫院附設居家護理所,臺北市,大安區,臺北市大安區敦煌里仁愛路4段280號第一分館(B2F),121.5548172,25.03645325,B,專業照護服務,02-27082121*3956、3959,273118@cgh.org.tw,洪怡蘋,20230202 17:19:50
秉心有限公司附設臺北市私立秉心居家長照機構,臺北市,松山區,臺北市松山區光復北路119-1號2樓,121.5573959,25.05211639,B,居家服務,02-27666683,pingshinghome@gmail.com,陳欣怡,20211230 14:52:14
台灣健康社區自主發展協會,臺北市,士林區,臺北市士林區三玉里德行東路203巷2號1樓,121.5321426,25.1092453,C,巷弄長照站,02-28369493或0919-206-511,yunn7@hotmail.com,黃兆麟,20221229 23:03:34
宜蘭縣B級單位-佳音營養諮詢中心,臺北市,士林區,臺北市士林區延平北路五段253號2F,121.5096741,25.08486176,B,營養餐飲服務,02-28162898,Justgood015@gmail.com,丁敏玉,20210121 15:17:02
智慧長照有限公司附設臺北市私立愛關懷居家長照機構,臺北市,信義區,臺北市信義區忠孝東路5段1號2樓207室,121.5412292,24.99171638,B,居家服務,7729-7769,e2frank2020@gmail.com,王純鍵,20220331 14:56:25
臺北市私立璞馨居家長照機構,臺北市,萬華區,臺北市萬華區忠德里東園街66巷21弄51號2樓,121.4953766,25.02660942,B,居家服務,0937-927-528,daphne19840804@gmail.com,李凱婷,20211230 15:08:17
北醫大管理顧問股份有限公司附設私立君蔚居家長照機構,臺北市,信義區,臺北市信義區中興里信義路4段375號4樓之7,121.5577316,25.03328323,B,喘息服務,02-2345-5288,dreamway.hc@gmail.com,吳麥斯,20221229 22:30:15
餘慶之家健康股份有限公司附設臺北市私立餘慶居家長照機構,臺北市,大同區,臺北市大同區永樂里塔城街39號10樓,121.5105057,25.05241585,B,喘息服務,02-2558-1655,w26547183@gmail.com,郭濟安,20211230 16:11:52
財團法人天主教失智老人社會福利基金會附設臺北市私立聖若瑟失智老人養護中心,臺北市,萬華區,臺北市萬華區保德里德昌街125巷11號,121.496933,25.02363968,B,日間照顧服務,02-23046716#108,s8910009@ms61.hinet.net,鍾安住,20221229 21:30:47
凱風長照股份有限公司附設臺北市私立凱風民權社區長照機構,臺北市,中山區,臺北市中山區民權東路三段21號2樓之1及之2,121.5416946,25.06255722,B,日間照顧服務,02-2508-0810,dc001@kfcare.com.tw,郭銘仁,20220207 14:46:25
財團法人福智慈善基金會(安和據點),臺北市,大安區,臺北市大安區光信里信義路4段265巷21弄1號1樓3號1樓,121.554985,25.03432846,C,巷弄長照站,02-2701-5861,kingfisher.taiwan@mail.com,賴錫源,20210407 15:27:13
台北市文山區樟林社區發展協會,臺北市,文山區,臺北市文山區樟文里木新路310巷4號2樓之1,121.5569839,24.98177338,C,巷弄長照站,02-29369071,20140401@mail.taipei.gov.tw,邱秀玲,20210409 16:03:28
社團法人愛福家協會附設私立愛活樂園社區長照機構,臺北市,中正區,臺北市中正區羅斯福路2段5號2樓,121.5210876,25.02924538,B,小規模多機能服務,02-23510005,maruko700707@gmail.com,涂福增,20210202 11:46:00
喜樂園長照股份有限公司附設臺北市私立喜樂園居家長照機構,臺北市,松山區,臺北市松山區吉祥里八德路4段123號2樓之4,121.5617523,25.04870987,B,喘息服務,027-602-270,formosacpa@gmail.com,張經緯,20220322 10:25:01
福倫交通股份有限公司,臺北市,信義區,臺北市信義區松隆路337號1樓,121.5797272,25.04851723,B,交通接送服務,02-27635888#18,successtaxi@gmail.com,吳俊德,20220406 13:35:06
財團法人私立廣恩老人養護中心附設臺北市私立松山健康社區長照機構,臺北市,松山區,臺北市松山區健康路225巷11號1樓,121.5622635,25.05453491,B,喘息服務,027-568-777,gndc_ss@guannenn.org.tw,林偉峰,20221229 23:05:26
臺北市私立全寶老人長期照顧中心(養護型),臺北市,北投區,臺北市北投區永欣里013石牌路二段315巷2號-2之一號1樓,121.5231552,25.12213135,B,喘息服務,02-28710792,cb28710792@yahoo.com,古倩,20221230 15:10:18
安心好生活股份有限公司附設臺北市私立佳愛居家長照機構,臺北市,中山區,臺北市中山區朱崙里長安東路2段230號6樓之5,121.4425278,24.98450279,B,居家服務,02-2711-0922,Home22258688@gmail.com,蘇秀鑾,20220906 14:37:57
中化銀髮事業股份有限公司附設臺北市私立中化銀髮居家式服務類長期照顧服務機構,臺北市,士林區,臺北市士林區舊佳里中山北路5段699巷1號1樓,121.5269547,25.09767342,B,喘息服務,02-27970880#208,rainbow@ccpc.com.tw,王謝怡貞,20230214 13:56:13
(新北)安銓國際租賃有限公司,臺北市,信義區,臺北市信義區基隆路一段155號13樓之5,121.5628738,25.08468246,B,交通接送服務,0975-675-878,tonychen90034@gmail.com,邱柏叡,20220302 09:45:03
東和居家有限公司附設臺北市私立東正居家長照機構,臺北市,文山區,臺北市文山區景文街42號3樓323室,121.5412292,24.99171638,B,居家服務,0908-650-417,donchenjujia@gmail.com,林溦,20220608 17:37:26
瑞禾長照有限公司附設私立春江居家長照機構,臺北市,中山區,臺北市中山區松江里松江路293之705號(F室),121.5310364,25.05175972,B,居家服務,02-66236828,Chunjiang@Ruihe.tw,周佳呈,20230706 13:52:53
社團法人中華民國香柏樹長者社區關懷協會台大據點,臺北市,大安區,臺北市大安區大學里新生南路3段86號4、9樓(真理堂),121.5334396,25.01858711,C,巷弄長照站,02-23632096#121,kunlin65@gmail.com,楊寧亞,20210407 14:51:34
臺北市私立中山老人長期照顧中心(養護型),臺北市,萬華區,臺北市萬華區菜園里峨眉街124號1樓,121.501976,25.04462242,B,喘息服務,02-23759590,fen.lan8888@gmail.com,趙芬蘭,20220221 15:10:02
適健復健科診所,臺北市,大安區,臺北市大安區忠孝東路四段166號8樓,121.550499,25.04128075,B,居家失能個案家庭醫師照護服務,02-8771-7039,cj41668@gmail.com.tw,陳昭蓉,20221230 21:51:30
大心居家職能治療所,臺北市,士林區,臺北市士林區天祿里中山北路六段754巷22之1號,121.5290527,25.1145649,B,專業照護服務,02-77518056,bigheartot@gmail.com,彭紹宇,20221226 13:18:54
樂昱有限公司附設臺北市私立樂昱居家長照機構,臺北市,北投區,臺北市北投區文林里文林北路262號2樓,121.5109787,25.11374664,B,喘息服務,028-225-423,roc.ceda@gmail.com,鄭宇明,20221230 14:53:52
臺北市樂齡發展協會(松基分會),臺北市,松山區,臺北市松山區松基里民生東路三段130巷5弄20號,121.5470581,25.05686951,C,巷弄長照站,02-25083440,kgy3071688@yah00.com.tw,孫合興,20210408 16:21:52
臺北市大安區古風社區發展協會,臺北市,大安區,臺北市大安區古風里師大路117巷1號  雲和街72巷9號,121.5286484,25.02223396,C,巷弄長照站,0983-293-018,fanghui100@gmail.com,邱信賢,20210407 14:54:32
社團法人中華民國士林靈糧堂社會福利協會附設臺北市私立西湖社區長照機構,臺北市,內湖區,臺北市內湖區西湖里內湖路一段285號6樓,121.5664978,25.08241653,B,日間照顧服務,02-26561700,xihudaycare@slsc.org.tw,劉群茂,20220210 15:23:12
逸居股份有限公司附設臺北市私立幸福時光居家長照機構,臺北市,大安區,臺北市大安區錦安里永康街75巷1號1樓,121.5299149,25.02896118,B,喘息服務,02-77058110#118,blessedsheeptime@gmail.com,李淑貞,20221230 20:04:26
忠孝事業有限公司附設臺北市私立忠孝居家長照機構,臺北市,北投區,臺北市北投區榮華里明德路283號3樓,121.5221329,25.1145134,B,喘息服務,2821-4922,hui287@yahoo.com.tw,陳君慧,20221229 23:01:08
社團法人中華長照協會附設臺北市私立永樂居家長照機構,臺北市,文山區,臺北市文山區臺北市文山區羅斯福路六段134號2樓,121.5442276,24.99927902,B,居家服務,02-2930-6919,chxclc001@gmail.com,金國良,20220324 15:19:56
臺北市私立前瞻居家長照機構,臺北市,文山區,臺北市文山區興昌里辛亥路4段21巷10號9樓,121.5590286,25.00873756,B,喘息服務,02-8931-2545,h89312545@gmail.com,楊邦媛,20221229 22:45:17
臺北市政府社會局委託財團法人全成社會福利基金會經營管理臺北市大安社區長照機構,臺北市,大安區,臺北市大安區德安里四維路76巷12號,121.547348,25.03420448,B,小規模多機能服務,02-27086255,daanolder@gmail.com,聶玉美,20221230 15:24:19
聊聊心理治療所,臺北市,松山區,臺北市松山區復源里八德路三段106巷67號,121.5544357,25.0447464,B,專業照護服務,02-25798519,psy.julia@gmail.com,張銘倫,20220126 15:27:34
臺北市南港區久如社區發展協會,臺北市,南港區,臺北市南港區九如里研究院路2段208號1樓,121.6170807,25.03670692,C,巷弄長照站,2651-6600,7823828@gmail.com,陳碧玉,20221229 22:30:49
臺北市私立跑居家長照機構,臺北市,士林區,臺北市士林區葫東里重慶北路4段250號3樓313室,121.5113525,25.08663177,B,喘息服務,02-28161255,rcago313@gmail.com,吳正昕,20221229 22:57:32
財團法人天主教失智老人社會福利基金會附設臺北市私立聖若瑟居家式服務類長期照顧服務機構,臺北市,萬華區,臺北市萬華區保德里德昌街119號,121.4968491,25.02417946,B,居家服務,02-23098728,s8910009@gmail.com,鍾安住,20211230 14:59:22
育和有限公司附設臺北市私立育和居家長照機構,臺北市,大同區,臺北市大同區寧夏路23-1號2樓202室,121.5151367,25.05516624,B,喘息服務,0918-026-709,yuhe829@gmail.com,陳彥凱,20221229 21:01:39
恩揚有限公司附設臺北市私立恩揚居家長照機構,臺北市,文山區,臺北市文山區萬祥里羅斯福路5段225之1號1樓,121.5392532,25.00196457,B,喘息服務,029-301-999,eym@enyang.com.tw,林子哲,20220221 15:34:53
臺北市政府社會局委託中華民國紅心字會經營管理臺北市興隆社區長照機構,臺北市,文山區,臺北市文山區明義里興隆路四段105巷47號,121.5631256,24.98828125,B,日間照顧服務,02-29367119,ankangtw@gmail.com,劉緒倫,20190729 13:16:30
臺北市私立群仁老人長期照顧中心(養護型),臺北市,中山區,臺北市中山區下埤里民族東路512巷14號3-5樓,121.5419006,25.067379,B,喘息服務,02-25010048,rcl73627418@gmail.com,陳怡岑,20221229 22:18:42
社團法人中華民國士林靈糧堂社會福利協會,臺北市,士林區,臺北市士林區延平北路五段83巷28弄11號1樓,121.5091858,25.08159065,A,個案管理服務,02-28110515,homeservice@slsc.org.tw,劉群茂,20230208 09:02:02
忠孝事業有限公司附設臺北市私立忠孝居家長照機構,臺北市,北投區,臺北市北投區榮華里明德路283號3樓,121.5221329,25.1145134,B,居家服務,2821-4922,hui287@yahoo.com.tw,陳君慧,20221229 23:01:08
安安物理治療所,臺北市,士林區,臺北市士林區重慶北路四段136號1樓,121.5124817,25.08338928,B,專業照護服務,02-29161003,annysknt@gmail.com,簡淑霞,20220127 16:11:43
善食營養中心,臺北市,士林區,臺北市士林區承德路4段81號6樓之1,121.5211639,25.07883072,B,專業照護服務,02-28837300#1450,ncnc@enutrition.com.tw,張馨怡,20211229 11:52:12
善食營養中心,臺北市,士林區,臺北市士林區承德路4段81號6樓之1,121.5211639,25.07883072,B,專業照護服務,02-28837300#1450,ncnc@enutrition.com.tw,張馨怡,20230118 14:11:50
暖時光職能治療所,臺北市,中山區,臺北市中山區長安東路2段131之2號(1樓),121.4806716,25.0128159,B,專業照護服務,02-2797-2225,fys.cscc@gmail.com,許富淵,20221229 23:14:11
財團法人臺北市松年長春社會福利基金會私立松年長春居家長照機構,臺北市,中山區,臺北市中山區行仁里龍江路318巷5、7號1樓及5號地下室,121.5407028,25.06481743,B,居家服務,02-25000261,pinema@twdc.org.tw,王淑惠,20211230 15:58:27
臺北市私立安歆松江社區長照機構,臺北市,中山區,臺北市中山區中央里松江路50號3樓,121.5326614,25.04817963,B,喘息服務,02-25371116,yaru42@gmail.com,張維庭,20220318 15:44:37
松山區建源社區發展協會,臺北市,松山區,臺北市松山區復建里八德路3段158巷7弄20號(復建區民活動中心),121.5560532,25.04736328,C,巷弄長照站,02-25791689,shiohow@yahoo.com.tw,陳秀華,20210412 13:50:10
京鶴實業有限公司附設臺北市私立悅康居家長照機構,臺北市,中正區,臺北市中正區黎明里許昌街42之1號7樓700室,121.5154343,25.0454483,B,喘息服務,02-23709008,jinghemedical@gmail.com,林廣盛,20221229 21:58:25
台北市文山區萬和社區發展協會,臺北市,文山區,臺北市文山區萬和里汀州路4段215號1樓,121.5355377,25.00416374,C,巷弄長照站,02-2931-0147,bs-011@mail.taipei.gov.tw,吳祚榮,20210409 15:28:31
財團法人中華民國佛教慈濟慈善事業基金會,臺北市,信義區,臺北市信義區永吉里永吉里松隆路327號,121.5787506,25.04840469,C,巷弄長照站,0937-903-855,sayyes103@gmail.com,釋證嚴,20210412 14:27:47
?麗恆全人診所,臺北市,信義區,臺北市信義區忠孝東路五段431號2樓,121.5756073,25.04101372,B,居家失能個案家庭醫師照護服務,02-2765-7065,ymyhl2@gmail.com,葉恒良,20221230 22:07:19
臺北市政府社會局委託中華民國紅十字會台灣省分會經營管理臺北市中正社區長照機構,臺北市,中正區,臺北市中正區建國里貴陽街一段60號3樓,121.5090408,25.03892517,B,營養餐飲服務,02-23831958,rct03702883@gmail.com,董光式,20210303 17:34:31
臺北市北投區永和社區發展協會,臺北市,北投區,臺北市北投區永和里行義路138-1號1樓,121.5279617,25.12960434,C,巷弄長照站,0910-069-290,l5168@hotmail.com,陳世正,20210409 17:20:16
臺北市文山區興旺社區發展協會,臺北市,文山區,臺北市文山區興旺里福興路27號,121.5511627,25.0028038,C,巷弄長照站,0936-048-808,junghuiliao@gmail.com,陳忠榮,20210409 16:16:31
杏誠復健科診所,臺北市,大安區,臺北市大安區信義路四段173號2樓,121.5504608,25.03342819,B,喘息服務,2706-1732,xc.clinic@gmail.com,楊?芃,20200311 17:40:36
快樂兒童診所,臺北市,萬華區,臺北市萬華區寶興街121號,121.4948044,25.0252285,B,居家失能個案家庭醫師照護服務,2332-8610,Happy3233@yahoo.com.tw,黃妙玲,20221230 21:46:31
(新北)吉盛交通股份有限公司,臺北市,北投區,臺北市北投區育仁路155之1號2樓,121.5006485,25.13677025,B,交通接送服務,02-28280333,sammi@sharecar.tw,吳大鴻,20221219 10:22:16
康和文山樂活股份有限公司附設臺北市私立杏花學塾社區長照機構,臺北市,文山區,臺北市文山區辛亥路4段128-1號2樓,121.5566864,25.00517845,B,喘息服務,029-356-802,wsflower128@gmail.com,蔡淑芬,20230330 11:17:17
臺北市私立福喜老人長期照顧中心(養護型),臺北市,中山區,臺北市中山區松江路374、380、382號7樓,121.5329514,25.06314278,B,喘息服務,02-25919087,xi25917151@gmail.com,柯乾元,20221230 18:21:08
臺北市政府社會局委託中華民國紅心字會經營管理臺北市興隆社區長照機構,臺北市,文山區,臺北市文山區明義里興隆路四段105巷47號,121.5631256,24.98828125,B,日間照顧服務,02-29367119,ankangtw@gmail.com,劉緒倫,20220325 14:01:47
合康居家護理所,臺北市,萬華區,臺北市萬華區頂碩里西藏路170號,121.5033646,25.03004265,B,專業照護服務,,biglongtoday0706@gmail.com,鄭歆悅,20221229 22:23:13
新光醫療財團法人附設新光居家護理所,臺北市,士林區,臺北市士林區福佳里文昌路95號,121.5209808,25.09628105,B,專業照護服務,02-28332211#2600,R000264@ms.skh.org.tw,張芬娥,20221230 20:41:53
社團法人台灣享福銀髮協會,臺北市,士林區,臺北市士林區承德路4段81號5樓之1,120.5240527,24.2420553,B,交通接送服務,02-6613-1419,chefu1314@gmail.com,賴仲騰,20220429 10:48:11
(臺北市)亞捷汽車租賃股份有限公司,臺北市,士林區,臺北市士林區中正路499號1樓,121.5182648,25.09184647,B,交通接送服務,(02)2882-2277,yj2020@csgroup-bus.com.tw,呂奇龍,20230908 14:44:17
臺北市私立大心居家長照機構,臺北市,萬華區,臺北市萬華區富民里康定路348號2f-1,121.4925003,25.0255661,B,居家服務,02-23390179,a0970358370@gmail.com,趙重凱,20220331 14:55:04
東和居家有限公司附設臺北市私立東正居家長照機構,臺北市,文山區,臺北市文山區景文街42號3樓323室,121.5412292,24.99171638,B,喘息服務,0908-650-417,donchenjujia@gmail.com,林溦,20221229 22:37:54
社團法人台灣愛喜樂關懷協會,臺北市,北投區,臺北市北投區裕民里明德路161號1樓,121.5206604,25.11151695,C,巷弄長照站,02-28224466#22,iseeloveassociation@gmail.com,黃芬宜,20210412 11:14:56
社團法人中華健康美好生活協會(洲美),臺北市,北投區,臺北市北投區洲美里福美街207號,121.5050049,25.10009193,C,巷弄長照站,0910-302-055,abaaroma@gmail.com,林佳蓉,20210412 10:58:53
臺北市私立行義老人長期照顧中心(養護型),臺北市,北投區,臺北市北投區永和里001鄰石牌路2段357巷1號1~3樓,121.5248642,25.12366104,B,喘息服務,02-28729599,sy9599@gmail.com,林萬知,20221230 20:35:57
財團法人伊甸社會福利基金會附設臺北市私立頤福社區式長期照顧服務機構,臺北市,北投區,臺北市北投區裕民六路120號3樓,121.5176315,25.1145401,B,日間照顧服務,02-28218267#105,dep419@eden.org.tw,羅紀?,20210202 12:33:01
財團法人老五老基金會附設臺北市私立老五老居家式服務類長期照顧服務機構,臺北市,北投區,臺北市北投區吉慶里石牌路1段14號3樓,121.5131073,25.11036682,B,居家服務,02-28929702,bt@ofo.org.tw,陳麗欣,20220207 16:14:40
有限責任臺北市樂見在照顧服務勞動合作社附設私立樂見在居家長照機構,臺北市,松山區,臺北市松山區中崙里松山區八德路二段447號7樓,121.5052032,25.12405777,B,專業照護服務,02-2303-0369,Lcancarer@gmail.com,倪玲娜,20221229 22:24:14
臺北市私立寬安居家長照機構,臺北市,萬華區,臺北市萬華區雙園里莒光路328號6樓,121.4974976,25.03124809,B,居家服務,02-2308-1977,newlife6832@gmail.com,林菡雅,20220830 11:47:10
善食營養中心,臺北市,士林區,臺北市士林區承德路4段81號6樓之1,121.5211639,25.07883072,B,專業照護服務,02-28837300#1450,ncnc@enutrition.com.tw,張馨怡,20210203 15:25:32
景美醫院附設護理之家,臺北市,文山區,臺北市文山區萬慶街18號3、4樓,121.539772,24.99257088,B,喘息服務,02 29332962,abhnh.jmn@gmail.com,蘇芝慧,20220224 11:26:00
禾悅物理治療所,臺北市,松山區,臺北市松山區光復北路8號2樓,121.557663,25.04861259,B,專業照護服務,2578-3923,heyuept@gmail.com,陳欽得,20221229 22:19:22
溫心企業有限公司附設臺北市私立溫心居家長照機構,臺北市,中山區,臺北市中山區力行里復興北路62號3樓之1(6室),121.5437851,25.0504818,B,居家服務,02-2751-0515,hopelight825@gmail.com,張正松,20220225 18:32:37
壽合居家職能治療所,臺北市,文山區,臺北市文山區興家里興隆路三段221巷4弄14號,121.560112,24.9936924,B,專業照護服務,0933-004397,ensonwhj@yahoo.com.tw,吳鴻章,20221229 22:56:29
社團法人臺北市長期照護發展協會,臺北市,松山區,臺北市松山區自強里三民路35巷9號1、2樓,121.5627136,25.0552845,C,巷弄長照站,0918-015-617,tw.softlfie@gmail.com,羅慧文,20210412 11:55:23
財團法人台北市聖佳蘭先開懷社會福利慈善基金會,臺北市,士林區,臺北市士林區陽明里建業路73巷10 號,120.5450447,22.5860814,C,巷弄長照站,02-28614057,sylg.533@gmail.com,黃翠芳,20210407 12:00:02
行一診所,臺北市,大安區,臺北市大安區新生南路3段19巷8號3樓之1,121.5354919,25.02488518,B,居家失能個案家庭醫師照護服務,02-2784-0735,tpedulanclinic@gmail.com,張凱評,20221230 22:06:54
有限責任臺灣第二照顧服務勞動合作社附設臺北市私立二顧居家長照機構,臺北市,中正區,臺北市中正區羅斯福路一段102號8樓,121.508812,25.05327988,B,居家服務,02-25527608,tpservice@secondcare.org.tw,伍崑崙,20220104 17:22:01
社團法人台灣多元社會福利協會私立多福居家長照機構,臺北市,北投區,臺北市北投區溫泉里溫泉路68之10號,121.5048065,25.13516617,B,喘息服務,02-28927001,dofuhs@gmail.com,林政緯,20220315 16:50:42
財團法人新北市基督教新希望教會(中山五常),臺北市,中山區,臺北市中山區下埤里龍江路377巷20號1樓,121.5421143,25.06456757,C,巷弄長照站,0982-985-298,rebecca401010@gmail.com,林淑萍,20221229 22:27:45
臺北市文山區忠順社區發展協會,臺北市,文山區,臺北市文山區忠順里興隆路4段145巷30號,121.562973,24.98510361,C,巷弄長照站,2939-9569,chung.s30@msa.hinet.net,曾寧旖,20221230 18:51:38
財團法人環宇國際文化教育基金會古亭據點,臺北市,萬華區,臺北市萬華區錦德里寶興街136號1樓,121.4947586,25.02487946,C,巷弄長照站,(02)2364-1334,gutingfamily@icef.org.tw,黃石城,20210312 19:51:57
愛迪樂居家職能治療所,臺北市,南港區,臺北市南港區福德街373巷5號15樓,121.5912399,25.04034233,B,專業照護服務,,adlers0615@gmail.com,鍾孟修,20230407 17:28:06
愛迪樂居家職能治療所,臺北市,南港區,臺北市南港區福德街373巷5號15樓,121.5912399,25.04034233,B,專業照護服務,,adlers0615@gmail.com,鍾孟修,20220321 15:33:34
美樺股份有限公司附設私立美美居家長照機構,臺北市,中正區,臺北市中正區黎明里重慶南路1段121號5樓之2,121.5133743,25.04222488,B,喘息服務,02-23700021,meihua10903@gmail.com,穆秀芬,20221229 21:35:02
台北市松山區松榮社區發展協會,臺北市,松山區,臺北市松山區東榮里民生東路5段69巷3號1樓,121.558136,25.05908203,C,巷弄長照站,02-27676931,eliahom@gmail.com,鄭玉梅,20210412 12:00:14
好朋友居家職能治療所,臺北市,中山區,臺北市中山區撫順街25號9樓之4,121.5203171,25.06358337,B,專業照護服務,02-89136000,hami610@gmail.com,陳偉修,20220126 15:27:18
臺北市基督教新榮耀堂福音協進會,臺北市,信義區,臺北市信義區大道里大道里忠孝東路5段782號,121.5816803,25.04347801,C,巷弄長照站,02-27276003,gracer0928@gmail.com,李家忠,20210412 14:15:45
臺北市私立福樂居家長照機構,臺北市,大同區,臺北市大同區西寧北路78號8樓J室,121.5086899,25.05443001,B,居家服務,02-2558168,flowerhomeservices@gmail.com,陳姿璇,20220314 14:36:00
(基隆)亞捷汽車租賃股份有限公司,臺北市,士林區,臺北市士林區中正路499號1樓,121.5097733,25.06927872,B,交通接送服務,02-28826780分機595,yj2020@csgroup-bus.com.tw,呂奇龍,20221228 14:33:13
辰信健康有限公司附設臺北市私立辰信居家長照機構,臺北市,大安區,臺北市大安區群英里四維路198巷30弄12號2樓,121.545845,25.02644348,B,喘息服務,02-2558-0208,cxin@elitexs.com.tw,簡裕宗,20221229 22:55:03
財團法人臺安基金會(基督復臨安息日會松山教會),臺北市,松山區,臺北市松山區福成里敦化南路一段78號,121.5480194,25.04703903,C,巷弄長照站,02-27716823,sungshan@hotmail.com.tw,周輝政,20210412 14:05:20
大心居家職能治療所,臺北市,士林區,臺北市士林區天祿里中山北路六段754巷22之1號,121.5290527,25.1145649,B,專業照護服務,02-77518056,bigheartot@gmail.com,彭紹宇,20220314 14:47:50
大心居家職能治療所,臺北市,士林區,臺北市士林區天祿里中山北路六段754巷22之1號,121.5290527,25.1145649,B,專業照護服務(CC01),02-77518056,bigheartot@gmail.com,彭紹宇,20230802 17:19:14
臺北市敬老協會,臺北市,中山區,臺北市中山區中原里新生北路2段41巷7號1樓,121.528183,25.05543137,C,巷弄長照站,0225-819-955,hsuchaplon@pchome.com.tw,陳石林,20210408 16:14:54
財團法人台北市中國基督教靈糧世界佈道會台北靈糧堂,臺北市,萬華區,臺北市萬華區仁德里桂林路27號1樓及桂林路31號1樓,121.5048599,25.03798103,C,巷弄長照站,23623022#8713,niko@llc.org.tw,曾國生,20210412 14:56:26
中崙諮商中心心理諮商所,臺北市,大安區,臺北市大安區忠孝東路三段54號4樓之一,121.5355606,25.04172707,B,專業照護服務,2731-9731,g27319731@gmail.com,李予澄,20230202 17:17:25
臺北市私立大千之家社區式服務類長期照顧機構(家庭托顧),臺北市,北投區,臺北市北投區中庸里雙全街48巷5號,121.5006714,25.13801575,B,家庭托顧服務,0929-314-190,naro@ms66.url.com.tw,李元傑,20220315 13:46:12
臺北市士林區葫蘆里辦公處,臺北市,士林區,臺北市士林區葫蘆里葫蘆街137號,121.508606,25.08380127,C,巷弄長照站,0958-972-685,mrbean1685@yahoo.com.tw,許振禮,20210407 13:56:07
臺北市立奇岩長青住宿長照機構(委託社團法人中華民國士林靈糧堂社會褔利協會經營管理),臺北市,北投區,臺北市北投區奇岩里三合街一段119號2-3樓,121.5039291,25.12655258,B,日間照顧服務,02-28921033,beitou@slsc.org.tw,劉群茂,20210118 12:34:49
臺北市政府社會局委託社團法人中華民國士林靈糧堂社會福利協會經營管理臺北市士林社區式服務類長期照顧服務機構,臺北市,士林區,臺北市士林區三玉里忠誠路二段53巷7號6樓,121.5322876,25.11143684,B,營養餐飲服務,02-28381571,sldaycare@slsc.org.tw,劉群茂,20210122 11:06:54
沐晨職能治療所,臺北市,內湖區,臺北市內湖區安泰街125巷19號5樓,121.6170425,25.07715988,B,專業照護服務,2633-3506,muchenot@gmail.com,徐瑛雅,20220208 14:44:21
寶珠職能治療所,臺北市,大安區,臺北市大安區140巷17號2樓,121.5532761,25.02911949,B,專業照護服務,02-27329012,eagle72130steven@gmail.com,陳奕丞,20220302 10:39:34
安民家庭醫學科診所,臺北市,大安區,臺北市大安區大安路一段65號2樓之1,121.5462799,25.04253578,B,專業照護服務,2721-8556,am.clinic@msa.hinet.net,林安民,20190821 14:49:59
臺北市私立中山老人長期照顧中心(養護型),臺北市,萬華區,臺北市萬華區菜園里峨眉街124號1樓,121.501976,25.04462242,B,喘息服務,02-23759590,fen.lan8888@gmail.com,趙芬蘭,20221230 19:10:01
(新北)三合利計程車客運有限公司,臺北市,文山區,臺北市文山區興隆路四段151號3樓之4,121.561676,24.98475075,B,交通接送服務,02-29290577,hearts.alanhsu@gmail.com,蔡豐吉,20230725 15:28:09
社團法人中華民國士林靈糧堂社會福利協會附設臺北市私立新生社區長照機構老人日間照顧中心,臺北市,大安區,臺北市大安區新龍里新生南路三段52之5號,121.5339279,25.02120399,B,日間照顧服務,02-23661321,xinshengdaycare@slsc.org.tw,劉群茂,20220208 16:12:39
悠藝股份有限公司附設臺北市私立悠藝居家長照機構,臺北市,中正區,臺北市中正區南福里南昌路2段206號3樓之1,121.5243073,25.02403641,B,居家服務,02-23650157,yoyicare.hs@gmail.com,吳國豪,20230629 09:04:06
財團法人私立健順養護中心受託經營管理本市南港老人服務中心,臺北市,南港區,臺北市南港區重陽路187巷5號1、2樓,121.5987015,25.057724,B,營養餐飲服務,026-535-311,nkelder@gmail.com,黃禎祥,20230512 17:14:42
壽合居家職能治療所,臺北市,文山區,臺北市文山區興家里興隆路三段221巷4弄14號,121.560112,24.9936924,B,專業照護服務(CC01),0933-004397,ensonwhj@yahoo.com.tw,吳鴻章,20230802 17:19:14
臺北市大安區永康里辦公處,臺北市,大安區,臺北市大安區永康里金華街199巷3弄6號1樓,121.5284195,25.03056145,C,巷弄長照站,0931-234-954,yongkangvillage@gmail.com,李明螢,20210407 15:19:39
智慧長照有限公司附設臺北市私立愛關懷居家長照機構,臺北市,信義區,臺北市信義區忠孝東路5段1號2樓207室,121.5412292,24.99171638,B,喘息服務,7729-7769,e2frank2020@gmail.com,王純鍵,20220331 14:57:00
謙和園健康福祉有限公司附設臺北市私立溫邸家居家長照機構,臺北市,中山區,臺北市中山區民安里新生北路2段72巷23號1樓,121.5212479,25.05708694,B,喘息服務,02-25681589,hc.hereforyou@gmail.com,王志剛,20221229 22:35:32
福田居家有限公司私立福田居家長照機構,臺北市,信義區,臺北市信義區松光里忠孝東路5段492巷2號2樓,121.5783005,25.04051209,B,居家服務,02-27270065,futain@futaincare.com.tw,林永峰,20211227 16:08:58
中華民國紅心字會(信義區),臺北市,信義區,臺北市信義區四維里虎林街74巷2號1樓,121.5133514,25.04495811,A,個案管理服務,02-27660227,xinyitw@yahoo.com.tw,劉緒倫,20230801 08:25:44
益百利國際實業有限公司,臺北市,文山區,臺北市文山區景興路42巷8弄2、4號1樓,121.5428467,24.99723816,B,輔具及居家無障礙環境服務,02-23681235,ebaili@100power.com.tw,蔡博文,20230810 09:54:13
振芝心身醫學診所,臺北市,中山區,臺北市中山區復興北路282號2樓,121.5439301,25.05878448,B,專業照護服務,2506-9169,info@blossomclinic.org,洪敬倫,20200311 17:37:11
美而美居家長照股份有限公司附設臺北市私立美而美居家長照機構,臺北市,中山區,臺北市中山區新生里吉林路245號4樓403室,121.5303802,25.06129265,B,居家服務,02-2821-2412,tgn82848095@gmail.com,郭力維,20220207 10:30:27
台北市?尾關懷互助協會,臺北市,文山區,臺北市文山區景慶里萬慶街6號,121.5402527,24.99232483,C,巷弄長照站,02-89351788,older.hearing@msa.hinet.net,蔡淵輝,20221229 23:11:16
恩揚有限公司附設臺北市私立恩揚居家長照機構,臺北市,文山區,臺北市文山區萬祥里羅斯福路5段225之1號1樓,121.5392532,25.00196457,B,居家服務,029-301-999,eym@enyang.com.tw,林子哲,20220221 15:34:02
吉盛交通股份有限公司,臺北市,北投區,臺北市北投區育仁路155之1號2樓,120.943936,22.486314,B,交通接送服務,028-289-000,service@sharecar.tw,張竣凱,20220429 10:29:59
李細祥內科診所,臺北市,大安區,臺北市大安區龍淵里辛亥路二段171巷6弄4號16樓,121.5408936,25.02193451,B,居家失能個案家庭醫師照護服務,02-27018159,lee0975360651@gmail.com,李細祥,20230808 16:51:48
聊聊心理治療所,臺北市,松山區,臺北市松山區復源里八德路三段106巷67號,121.5544357,25.0447464,B,專業照護服務,02-25798519,psy.julia@gmail.com,張銘倫,20221229 22:25:37
圓石實業股份有限公司附設臺北市私立大同圓石社區長照機構,臺北市,大同區,臺北市大同區永樂里延平北路2段96號3樓,121.511261,25.05659676,B,小規模多機能服務,025-583-800,winniehou.tw@gmail.com,侯克瀛,20220613 16:32:46
宜寧居家護理所,臺北市,士林區,臺北市士林區前港里承德路四段235號9樓,121.522377,25.08704567,B,專業照護服務,02-28822382,karenchang0913@gmail.com,張肇仙,20220315 15:23:17
凱風長照股份有限公司附設臺北市私立凱風新生北綜合長照機構,臺北市,中山區,臺北市中山區晴光里新生北路三段56巷17號1樓,121.5269241,25.0657196,B,喘息服務,2599-6681,service@kfcare.com.tw,郭銘仁,20230427 09:43:47
社團法人中華仁親社區關懷協會(士林好厝邊),臺北市,士林區,臺北市士林區義信里基河路128號(士林靈糧堂),121.5231323,25.08867645,C,巷弄長照站,0228-803-408,Ericlin7028@gmail.com,劉群茂,20210407 13:36:12
吉翔護理之家,臺北市,大同區,臺北市大同區甘州街55號4、7、8樓,121.5128784,25.0599556,B,喘息服務,02 25520553,gishean@yahoo.com.tw,羅春月,20221229 20:56:50
台北市文山區景人社區發展協會,臺北市,文山區,臺北市文山區景仁里景福街5號1樓,121.539238,24.99934769,C,巷弄長照站,02-2931-5839,rita12112003@yahoo.com.tw,李天柱,20210409 15:17:11
臺北市私立同德老人長期照顧中心(養護型),臺北市,北投區,臺北市北投區榮華里榮華里004鄰明德路306巷1-7樓,121.5223007,25.11523628,B,喘息服務,02-28281328,a31831661@gmail.com,李佩芡,20230202 16:40:44
臺北市南港區仁福里辦公處,臺北市,南港區,臺北市南港區仁福里福德街443號1樓,121.5906296,25.04000282,C,巷弄長照站,0919-619-949,wu430420@yahoo.com.tw,吳肇輝,20210412 14:46:18
臺北市立聯合醫院附設仁愛護理之家,臺北市,大安區,臺北市大安區仁愛路四段10號南棟4樓,121.5453033,25.03754044,B,日間照顧服務,"02-27093600 分機1520, 1521",b0409@tpech.gov.tw,林秀春,20210305 13:49:46
社團法人台灣喜樂家族協會附設臺北市私立冠冕居家長照機構,臺北市,士林區,臺北市士林區雙溪街140號1樓,121.5243759,25.10041046,B,喘息服務,02-2832-0533,crown.homelife@gmail.com,林黃寶彩,20230421 09:30:11
社團法人台灣喜樂家族協會附設臺北市私立冠冕居家長照機構,臺北市,士林區,臺北市士林區雙溪街140號1樓,121.5243759,25.10041046,B,居家服務,02-2832-0533,crown.homelife@gmail.com,林黃寶彩,20230310 17:18:27
詠馨長照社團法人附設台北市私立詠馨住宿長照機構,臺北市,北投區,臺北市北投區林泉里011鄰幽雅路19號1-4樓,121.5141449,25.13666725,B,喘息服務,02-2890-8050,a28901520@gmail.com,蔡政松,20230202 16:48:02
臺北市樂齡發展協會(中山區朱園里),臺北市,中山區,臺北市中山區朱園里松江路45巷43號1樓,121.5343933,25.04802895,C,巷弄長照站,02-25083440,kgy3071688@yah00.com.tw,孫合興,20210412 16:11:19
私立愛吾愛居家長照機構,臺北市,萬華區,臺北市萬華區大理街171號2樓201室,121.4963226,25.0341568,B,居家服務,02-23087286,n01d.iwoi@gmail.com,許惠容,20190729 14:19:41
臺北市立聯合醫院居家式服務類長期照顧服務機構,臺北市,大同區,臺北市大同區玉泉里鄭州路145號,121.5093231,25.05097008,B,居家服務,28353456-6380,B5646@tpech.gov.tw,蕭勝煌,20220104 18:46:27
臺北市大安區新民炤社區發展協會,臺北市,大安區,臺北市大安區民炤里建國南路1段286巷35號1樓,121.5357742,25.03618431,C,巷弄長照站,0961-351-658,lan7239@yahoo.com.tw,陳勤功,20221229 23:04:37
臺北市北投區吉慶社區發展協會,臺北市,北投區,臺北市北投區吉慶里致遠二路61巷2-2號,121.5116348,25.11497498,C,巷弄長照站,02-2828-2002,tsung34@yahoo.com.tw,陳?絹,20210412 10:29:23
財團法人私立台北醫學大學附設醫院附設居家護理所,臺北市,信義區,臺北市信義區莊敬路330號5樓,121.5631104,25.02704048,B,營養餐飲服務,02-27372181#3938,tmchchn@h.tmu.edu.tw,陳麗絹,20221230 20:13:26
臺北醫學大學附設醫院,臺北市,信義區,臺北市信義區吳興街252號,121.5631104,25.02704048,B,營養餐飲服務,02-27372181#3938,tmchchn@h.tmu.edu.tw,施俊明,20221230 20:13:26
臺北市信義區松友社區發展協會,臺北市,信義區,臺北市信義區松友里信義路6段76巷2弄22號1樓,121.5761337,25.03441238,C,巷弄長照站,02-23466669,songyou6669@gmail.com,張海秋,20210412 14:30:27
臺北市私立老爺居家長照機構,臺北市,大安區,臺北市大安區安和路2段92號B1(A11室),121.5502472,25.02877235,B,喘息服務,0988-125-527,grandba9453@gmail.com,薛智遠,20230202 16:54:17
東和居家有限公司附設臺北市私立東和居家長照機構,臺北市,松山區,臺北市松山區南京東路四段170號4樓之1,121.5568161,25.05136871,B,居家服務,02-6605-0630,rubie1218@yahoo.com.tw,林溦,20230206 10:45:26
臺北市私立仁群老人長期照顧中心(養護型),臺北市,中山區,臺北市中山區民族東路512巷14號1-2樓、16號2樓,121.5419006,25.067379,B,喘息服務,02-25013369,rcl73627418@gmail.com,劉昱森,20221229 22:18:26
社團法人臺灣樂福國際慈善福利協會(臺北市),臺北市,中山區,臺北市中山區民生東路1段70巷15號1樓,121.5317383,25.06780243,B,到宅沐浴車服務,0984-112-366,ghsc842366@gmail.com,張淞源,20221020 11:34:24
福田居家有限公司私立福田居家長照機構,臺北市,信義區,臺北市信義區松光里忠孝東路5段492巷2號2樓,121.5783005,25.04051209,B,喘息服務,02-27270065,futain@futaincare.com.tw,林永峰,20220302 09:51:01
臺北市立關渡醫院-委託臺北榮民總醫院經營附設護理之家,臺北市,北投區,臺北市北投區知行路225巷12號6、12樓,121.4661255,25.12031364,B,喘息服務,02-28587161,btkbtk@gandau.gov.tw,葉曉蒨,20201203 17:38:50
 啟宗心理諮商所,臺北市,大安區,臺北市大安區東豐街7號5樓之2,121.5441437,25.03615952,B,專業照護服務,2325-4066,openmindcenter1050820@gmail.com,林世莉,20221230 20:43:41
喜安健康長期照顧有限公司附設臺北市私立仁安居家式長期照顧服務機構,臺北市,信義區,臺北市信義區新仁里忠孝東路4段553巷46弄8號2樓,121.5632172,25.04413795,B,居家服務,027-620-999,sajat0999@gmail.com,張德謙,20230209 15:42:04
臺北市政府衛生局附設臺北市東明住宿長照機構 (委託財團法人台北市私立愛愛院經營管理),臺北市,南港區,臺北市南港區東明里南港路二段60巷17號2樓,121.6044617,25.05466652,B,喘息服務,02-26519898,nd25@aiai.org.tw,施武靖,20221229 22:47:47
社團法人台灣愛鄰社區服務協會(大安區),臺北市,大安區,臺北市大安區龍門里和平東路二段24號11樓,121.5364761,25.02557564,C,巷弄長照站,02-23692674,peter.chu@breadoflife.taipe,莊碧明,20210407 16:00:11
辰逸有限公司附設臺北市私立辰逸居家長照機構,臺北市,中山區,臺北市中山區中央里南京東路2段137號14樓(109室),121.5351105,25.05221558,B,居家服務,02-7755-3620,cypmc00@gmail.com,王超凡,20221122 16:33:23
頤園護理之家,臺北市,士林區,臺北市士林區重慶北路4段138、140、142號1-4樓,121.512619,25.08384895,B,喘息服務,2811-9666,eyuan28119666@gmail.com,耿瑛鎂,20210112 23:04:25
財團法人台北市中山基督長老教會,臺北市,中山區,臺北市中山區正得里林森北路62號,120.5696303,24.2190924,C,巷弄長照站,0225518480#119,lichin681027@gmail.com,郭崇仁,20210408 16:16:13
施達實業有限公司附設臺北市私立施達社區長照機構,臺北市,士林區,臺北市士林區德行東路109巷104號2樓,121.5288544,25.11095619,B,日間照顧服務,028-381-313,starstory1313@gmail.com,施婉苓,20230617 16:14:00
幸福物理治療所,臺北市,萬華區,臺北市萬華區雙園里西園路二段13巷12號,121.49823,25.03173256,B,專業照護服務,(02)23020306,kilaerhazard@gmail.com,李駿鴻,20221229 22:18:53
臺北市私立好運居家長照機構,臺北市,內湖區,臺北市內湖區葫洲里民權東路6段266號,121.6047592,25.07164955,B,居家服務,02-2631-0670,haoyun26310670@gmail.com,汪新儀,20211230 18:16:13
臺北市永昌長青會,臺北市,中正區,臺北市中正區永昌里寧波西街181巷24號,121.5100784,25.02655411,B,營養餐飲服務,02-23071068,tyc.ch@msa.hinet.net,林萬出,20210129 18:15:49
臺北市南港區中研新村社區發展協會,臺北市,南港區,臺北市南港區中研里研究院路2段70巷47弄4號1樓,121.6130066,25.04579926,C,巷弄長照站,0986-028-209,holywa168@gmail.com,林志隆,20210412 14:46:33
臺北市私立全家老人長期照顧中心(養護型),臺北市,北投區,臺北市北投區永和里007鄰行義路96巷1號1~2樓,121.5288544,25.12668037,B,喘息服務,02-28761692,cj61245@yahoo.com.tw,陳非,20220328 16:40:00
財團法人天下為公社會福利慈善事業基金會,臺北市,士林區,臺北市士林區承德路4段306號9樓,121.518631,25.08965492,A,個案管理服務,02-28881056,kcw@mail.oit.edu.tw,胡世賢,20230208 09:00:10
圓石實業股份有限公司附設臺北市私立內湖圓石社區長照機構,臺北市,內湖區,臺北市內湖區民權東路6段180巷6號8樓,121.5926514,25.06819534,B,日間照顧服務,02-2790-2090,contact@roundstone.com.tw,侯克瀛,20220401 11:04:32
愛志股份有限公司附設臺北市私立愛志居家長照機構,臺北市,南港區,臺北市南港區東新里重陽路120號3樓309室,121.5994797,25.05654907,A,個案管理服務,02-27882211,service@earth-want.com.tw,森山典明,20230425 17:08:37
臺北榮民總醫院附設遊詣居社區式長期照顧服務機構,臺北市,北投區,臺北市北投區永欣里石牌路二段322號1樓,121.5203857,25.1192112,B,日間照顧服務,02-28712121,d2_uage@vghtpe.gov.tw,陳威明,20220209 10:05:48
臺北市私立永欣居家長照機構,臺北市,北投區,臺北市北投區豐年里中央北路二段371號1樓,121.4874573,25.13823318,B,喘息服務,2891-6364,yongxin6364@gmail.com,陳柏帆,20221230 20:00:15
財團法人天主教失智老人社會福利基金會附設臺北市私立聖若瑟失智老人養護中心,臺北市,萬華區,臺北市萬華區保德里德昌街125巷11號,121.496933,25.02363968,B,小規模多機能服務,02-23046716#108,s8910009@ms61.hinet.net,鍾安住,20221229 21:30:47
臺北市立關渡醫院-委託臺北榮民總醫院經營附設居家護理,臺北市,北投區,臺北市北投區知行路225巷12號,121.4663544,25.12018776,B,喘息服務,2858-7000 #7809,sychang36@gandau.gov.tw,陳亮恭,20230202 17:11:16
長安健照事業股份有限公司附設臺北市私立長安健照事業居家長照機構,臺北市,中正區,臺北市中正區梅花里忠孝東路1段35號10樓D室,121.5255356,25.04448891,B,居家服務,02-25810519,changancare@gmail.com,戴志庭,20220905 10:24:10
財團法人台灣基督傳道會復生教會,臺北市,南港區,臺北市南港區舊莊里南深路21巷18號,121.6219482,25.03786659,C,巷弄長照站,0933-871-543,songlshu@gmail.com,張建文,20210412 14:56:11
臺北市私立麗康居家長照機構,臺北市,大同區,臺北市大同區大有里安西街43之2號3樓之3,121.5100708,25.0602684,B,居家服務,02-25532379,lily641130@gmail.com,吳麗鳳,20220425 11:44:23
臺北市立聯合醫院附設仁愛居家護理所,臺北市,大安區,臺北市大安區仁愛路4段10號,121.5453033,25.03754044,B,專業照護服務,02-27093600#1227,B5215@tpech.gov.tw,林欣文,20230706 14:37:10
社團法人台北市家庭照顧者關懷協會附設臺北市私立家協居家式服務類長期照顧服務機構,臺北市,大安區,臺北市大安區黎孝里和平東路三段232號,121.5546951,25.02204895,B,居家服務,02-27398737#17,service@carer.org.tw,李孟芬,20211223 16:01:49
社團法人中華民國士林靈糧堂社會福利協會,臺北市,士林區,臺北市士林區延平北路五段83巷28弄11號1樓,121.5091858,25.08159065,A,個案管理服務,02-28110515,homeservice@slsc.org.tw,劉群茂,20230208 09:02:28
社團法人中華民國士林靈糧堂社會福利協會,臺北市,士林區,臺北市士林區延平北路五段83巷28弄11號1樓,121.5091858,25.08159065,A,個案管理服務,02-28110515,homeservice@slsc.org.tw,劉群茂,20230208 09:08:43
跑居家物理治療所,臺北市,士林區,臺北市士林區葫東里重慶北路四段248號,121.5113983,25.08662033,B,專業照護服務,0907-091302,a770222boy@gmail.com,張沅輔,20220126 15:30:50
臺北市政府社會局委託中華民國紅十字會台灣省分會經營管理臺北市中正社區長照機構,臺北市,中正區,臺北市中正區建國里貴陽街一段60號3樓,121.5090408,25.03892517,B,日間照顧服務,02-23831958,rct03702883@gmail.com,董光式,20210315 14:06:13
社團法人臺北市心藝社會關懷協會,臺北市,信義區,臺北市信義區黎忠里和平東路三段391巷16號,121.558136,25.02024841,C,巷弄長照站,,wind59450@gmail.com,陳貴芝,20210412 14:41:31
愛志股份有限公司附設臺北市私立愛志居家長照機構,臺北市,南港區,臺北市南港區東新里重陽路120號3樓309室,121.5994797,25.05654907,B,居家服務,02-27882211,service@earth-want.com.tw,森山典明,20220207 15:59:34
台灣旺齡協會,臺北市,中正區,臺北市中正區頂東里羅斯福路3段84巷13號1樓,121.526062,25.02136803,C,巷弄長照站,0934-064-264,wonderfulgreen2016@gmail.com,張世睿,20221229 22:23:43
臺北市文山區華興里辦公處,臺北市,文山區,臺北市文山區華興里木柵路一段264號,121.554512,24.98799515,C,巷弄長照站,0905-991-580,huaxing0607@gmail.com,陳峙穎,20210409 15:19:32
財團法人中華民國佛教慈濟慈善事業基金會松山聯絡處,臺北市,松山區,臺北市松山區吉祥里南京東路五段188號16樓,121.5637436,25.05121231,C,巷弄長照站,0937-903-855,sayyes103@gmail.com,釋證嚴,20210412 11:22:53
內湖區寶湖里辦公處,臺北市,內湖區,臺北市內湖區寶湖里民權東路六段208號,121.5966949,25.06763649,C,巷弄長照站,0931-302823,bl-yuhsin@mail.taipei.gov.tw,邱顯松,20210408 18:07:47
臺北市政府社會局委託中華民國紅心字會經營管理臺北市興隆社區長照機構,臺北市,文山區,臺北市文山區明義里興隆路四段105巷47號,121.5631256,24.98828125,B,營養餐飲服務,02-29367119,ankangtw@gmail.com,劉緒倫,20230222 16:36:03
臺北市私立安歆居家式服務類長期照顧服務機構,臺北市,中山區,臺北市中山區興亞里松江路50號3樓,121.5326614,25.04817963,B,居家服務,02-25372586,crcanhsin@gmail.com,余建華,20220318 14:15:59
財團法人臺北市松年長春社會福利基金會,臺北市,松山區,臺北市松山區慈祐里饒河街105號,121.5739746,25.0505619,C,巷弄長照站,02-25851434,pine003@twdc.org.tw,王淑惠,20210412 14:05:04
凱風長照股份有限公司附設臺北市私立凱風大直社區長照機構,臺北市,中山區,臺北市中山區樂群三路56號5樓之2,121.5528336,25.08247375,B,喘息服務,02-8501-1716,dc002@kfcare.com.tw,郭銘仁,20221229 22:29:00
臺北市中山區晴光里辦公處,臺北市,中山區,臺北市中山區晴光里雙城街18巷20號,121.5230026,25.06538582,C,巷弄長照站,0981-201-026,janny0918@gmail.com,林姿吟,20210408 16:27:22
樂昱有限公司附設臺北市私立樂昱居家長照機構,臺北市,北投區,臺北市北投區文林里文林北路262號2樓,121.5109787,25.11374664,B,居家服務,028-225-423,roc.ceda@gmail.com,鄭宇明,20220207 16:15:19
社團法人中華民國士林靈糧堂社會福利協會受託經營管理本市北投老人服務中心,臺北市,北投區,臺北市北投區奇岩里三合街1段119號6樓,121.5039291,25.12655258,B,營養餐飲服務,(02)2893-0572,beitouqy.sc@slsc.org.tw,劉群茂,20210820 11:04:43
臺北榮民總醫院附設居家護理所,臺北市,北投區,臺北市北投區石牌路二段201號,121.551709,24.9787366,B,專業照護服務,02-28712121#82517,huangms@vghtpe.gov.tw,黃美淑,20230302 10:01:35
臺北市私立安歆松江社區長照機構,臺北市,中山區,臺北市中山區中央里松江路50號3樓,121.5326614,25.04817963,B,日間照顧服務,02-25371116,yaru42@gmail.com,張維庭,20220318 15:44:01
臺北市私立安歆松江社區長照機構,臺北市,中山區,臺北市中山區中央里松江路50號3樓,121.5326614,25.04817963,B,日間照顧服務,02-25371116,yaru42@gmail.com,張維庭,20220207 14:38:56
台北市內湖永續發展協會,臺北市,內湖區,臺北市內湖區金龍里金龍路 67 巷 7 號,121.5929794,25.08576393,C,巷弄長照站,02-27908099,tnhsda@gmail.com,鄭允強,20210408 17:47:48
臺北市政府社會局委託財團法人台北市立心慈善基金會經營管理臺北市萬華龍山社區長照機構,臺北市,萬華區,臺北市萬華區青山里梧州街36號3樓之1,121.4974899,25.03737259,B,日間照顧服務,02-23361881,longshanold@gmail.com,洪金桐,20230103 14:19:39
耀生長期照顧服務股份有限公司附設臺北市私立耀生居家長照機構,臺北市,中正區,臺北市中正區幸市里忠孝東路2段130號11樓之8,121.5317993,25.04239845,B,居家服務,02-23932500,wayne@leaplife.com.tw,黃偉嘉,20221230 14:22:05
聖約翰婦產科診所,臺北市,萬華區,臺北市萬華區東園街175號1樓,121.4973526,25.02416801,B,居家失能個案家庭醫師照護服務,2309-8502,fancy6659@yahoo.com.tw,范成瑜,20221230 21:46:08
臺北市私立安家居家長照機構,臺北市,文山區,臺北市文山區景行里景文街42號3樓302室,121.5412292,24.99171638,B,居家服務,029-333-468,Anchia468@gmail.com,吳米加,20230714 15:14:13
北醫大管理顧問股份有限公司附設私立杏芳居家長照機構,臺北市,文山區,臺北市文山區萬美街一段25號地下之1(17室),121.5692673,25.00225067,B,居家服務,02-29350230#12,careplus.wf@gmail.com,李飛鵬,20220104 19:05:24
臺北市私立喜宇居家長照機構,臺北市,松山區,臺北市松山區慈祐里臺北市松山區八德路四段678號6樓之1,121.5754166,25.04985046,B,居家服務,0966-200-297,tsai_you@yahoo.com.tw,劉敬喜,20201201 17:09:46
臺北市私立吃吃社區長照機構,臺北市,內湖區,臺北市內湖區金瑞里台北市內湖區內湖路三段280號1樓,121.585495,25.08898544,B,日間照顧服務,0926-085-427,jay3761000@gmail.com,黃節,20220211 17:41:55
財團法人宜蘭縣私立力麗社會福利慈善事業基金會附設臺北市私立力麗居家式服務類長期照顧服務機構,臺北市,中正區,臺北市中正區南福里和平西路一段107、109號,121.5174332,25.02708435,B,居家服務,02-23938326,liyvonne@leadingage.com.tw,郭銓慶,20220207 16:02:40
益巨股份有限公司附設臺北市私立崇仁社區長照機構,臺北市,萬華區,臺北市萬華區青年路152巷28號1樓,121.5012207,25.02062416,B,喘息服務,023-090-193,dc.chongren@rghealth.com.tw,陳威男,20230601 10:25:10
社團法人臺北市物理治療師公會,臺北市,松山區,臺北市松山區新益里八德路二段374號,121.5460815,25.04787827,B,專業照護服務,02-87732464,taipeipt0305@gmail.com,林素雲,20210113 00:28:36
社團法人台灣多元社會福利協會私立多福居家長照機構,臺北市,北投區,臺北市北投區溫泉里溫泉路68之10號,121.5048065,25.13516617,B,居家服務,02-28927001,dofuhs@gmail.com,林政緯,20220315 16:50:13
臺北市大安區古莊社區發展協會,臺北市,大安區,臺北市大安區古莊里6鄰羅斯福路2段81巷16弄1-2號2樓,121.5245743,25.02554131,C,巷弄長照站,0963-164-461,gu.zhuang@yahoo.com.tw,吳宗雄,20210407 14:54:55
社團法人中華民國士林靈糧堂社會福利協會附設臺北市私立安馨居家式服務類長期照顧服務機構,臺北市,士林區,臺北市士林區富光里延平北路五段83巷28弄11號,121.5091858,25.08159065,B,喘息服務,02-28110515,homeservice@slsc.org.tw,劉群茂,20221230 20:02:41
安健維康物理治療所,臺北市,松山區,臺北市松山區新東里南京東路四段183號,121.5564957,25.05183411,B,專業照護服務(CC01),02-27177600,ogeypt@gmail.com,黃博靖,20230802 17:19:14
暉宇有限公司附設臺北市私立星雲祥家社區長照機構,臺北市,內湖區,臺北市內湖區清白里星雲街161巷3號3樓,121.5966034,25.08118629,B,日間照顧服務,(02)2790-0898,Huiyu20201208@gmail.com,楊雋宇,20220526 15:57:00
財團法人伊甸社會福利基金會附設臺北市私立台北居家式服務類長期照顧服務機構,臺北市,北投區,臺北市北投區裕民里裕民六路120號,121.5176468,25.11453438,B,到宅沐浴車服務,02-28210320#103,eden5580@eden.org.tw,羅紀?,20220207 16:13:43
(新北)社團法人中華慈雲慈善利生推廣協會,臺北市,士林區,臺北市士林區平菁街95巷47之2號,121.5819702,25.13575745,B,喘息服務,02-86851138,fayu991010@gmail.com,陳永涸,20230406 09:32:45
辰逸有限公司附設臺北市私立辰逸居家長照機構,臺北市,中山區,臺北市中山區中央里南京東路2段137號14樓(109室),121.5351105,25.05221558,B,喘息服務,02-7755-3620,cypmc00@gmail.com,王超凡,20230512 09:21:04
臺北市私立大千之家社區式服務類長期照顧機構(家庭托顧),臺北市,北投區,臺北市北投區中庸里雙全街48巷5號,121.5006714,25.13801575,B,家庭托顧服務,0929-314-190,naro@ms66.url.com.tw,李元傑,20230207 14:56:11
台北市士林區天和社區發展協會,臺北市,士林區,臺北市士林區天山里中山北路7段154巷6號4樓(天母區民活動中心),121.5329437,25.12344742,C,巷弄長照站,02-28772369,eva889263@yahoo.com.tw,何辰熙,20210407 11:22:23
臺北醫學大學附設醫院,臺北市,信義區,臺北市信義區吳興街252號,121.5631104,25.02704048,A,個案管理服務,02-27372181#3938,tmchchn@h.tmu.edu.tw,施俊明,20230208 09:12:09
凱風長照股份有限公司附設臺北市私立凱風大直社區長照機構,臺北市,中山區,臺北市中山區樂群三路56號5樓之2,121.5528336,25.08247375,B,日間照顧服務,02-8501-1716,dc002@kfcare.com.tw,郭銘仁,20220420 11:59:00
台北市萬華區馬場町社區發展協會,臺北市,萬華區,臺北市萬華區騰雲里國興路1巷2-4號(辦公處活動中心),121.5088043,25.02423286,C,巷弄長照站,0223-096-837,longate2893@yahoo.com.tw,吳文雀,20210412 15:11:12
財團法人一粒麥子社會福利慈善事業基金會附設臺北市私立有福居家長照機構,臺北市,萬華區,臺北市萬華區萬大路237巷13弄5號1樓,121.5009613,25.02676964,B,居家服務,023-320-669,w110172@wheat.org.tw,呂信雄,20211230 15:03:35
傳家寶國際青銀教育有限公司私立傳家寶居家長照機構,臺北市,大同區,臺北市大同區民權里民權西路136號13樓之11,121.5164108,25.06274986,B,居家服務,02-2557-0968,service@cjb.com.tw,趙文瑜,20220104 16:00:34
臺北市松山區安平社區發展協會,臺北市,松山區,臺北市松山區安平里寶清街42號2樓,121.5675964,25.05315781,C,巷弄長照站,0986-038-688,fredwa88@gmail.com,林沂漀,20210412 11:53:20
禾悅物理治療所,臺北市,松山區,臺北市松山區光復北路8號2樓,121.557663,25.04861259,B,專業照護服務,2578-3923,heyuept@gmail.com,陳欽得,20220222 09:44:42
財團法人台北市林坤地仁濟文教基金會,臺北市,松山區,臺北市松山區美仁里八德路3段25號藝文推廣處二樓電化教室,121.5520172,25.04835129,C,巷弄長照站,02-2751-5790,tkyang03@gmail.com,楊杜清香,20210412 13:47:41
臺北市私立祝福居家長照機構,臺北市,中正區,臺北市中正區水源里羅斯福路4段68號7樓之10（6810-E室）,121.5342712,25.01450348,B,專業照護服務,02-29321396,nikey303@gmail.com,鄭如杏,20230519 17:38:49
臺北市私立崇順老人養護所,臺北市,北投區,臺北市北投區關渡里013鄰知行路52巷1號、54號1、2號,121.4674683,25.11816025,B,喘息服務,02-28581979,chongshun28581979@yahoo.com.tw,鍾秋月,20221230 20:00:54
亞捷汽車租賃股份有限公司,臺北市,士林區,臺北市士林區中正路499號1樓,121.5182648,25.09184647,B,交通接送服務,(02)2882-2277,yj2020@csgroup-bus.com.tw,呂奇龍,20221024 16:41:10
內湖區湖興里辦公處,臺北市,內湖區,臺北市內湖區湖興里成功路二段320巷19號3樓,121.5899506,25.06773376,C,巷弄長照站,02-27914586,mor6168@gmail.com,蔡穎峰,20210408 18:05:22
臺北市私立愛家居家長照機構,臺北市,中山區,臺北市中山區新庄里新生北路3段87巷23號,121.5288925,25.06745148,B,居家服務,02-25966934,tzning1975@gmail.com,黃姿寧,20211230 16:00:13
財團法人台北市立心慈善基金會,臺北市,萬華區,臺北市萬華區桂林路242巷4號4樓之2?,121.4952469,25.03788567,A,個案管理服務,02-23361500#14,lishinc42@gmail.com,洪金桐,20230208 09:04:11
臺北市立聯合醫院(中興院區),臺北市,大同區,臺北市大同區玉泉里鄭州路145號,121.5093231,25.05097008,B,專業照護服務,02-25523234#3253,B2141@tpech.gov.tw,蕭勝煌,20221230 12:14:51
台北市文山區景慶社區發展協會,臺北市,文山區,臺北市文山區景慶里景福街126號,121.5359573,24.99581528,C,巷弄長照站,02-25183311分機310,a313747@gmail.com,馬紹俊,20210409 15:21:07
玨心為爾股份有限公司附設臺北市私立六十三社區長照機構,臺北市,大安區,臺北市大安區仁慈里信義路4段63號3樓,121.545517,25.03377342,B,日間照顧服務,2325-0630,ella0728kao@gmail.com,曹守宇,20220510 17:13:09
財團法人天主教失智老人社會福利基金會附設臺北市私立聖若瑟失智老人養護中心,臺北市,萬華區,臺北市萬華區保德里德昌街125巷11號,121.496933,25.02363968,B,日間照顧服務,02-23046716#108,s8910009@ms61.hinet.net,鍾安住,20220322 11:11:43
臺北市私立意善園社區長照機構,臺北市,北投區,臺北市北投區行義路124巷3號1樓,121.5292282,25.12890244,B,喘息服務,02-28772666,daycareliving@gmail.com,林玟葉,20230907 11:56:18
台北市朝陽服飾材料街區發展協會,臺北市,大同區,臺北市大同區朝陽里重慶北路2段46巷6號,121.5137863,25.05527496,C,巷弄長照站,02-25523101,kuowei206@hotmail.com.tw,呂國維,20210407 14:47:49
財團法人台北市私立愛愛院,臺北市,萬華區,臺北市萬華區大理街175巷27號,121.4955292,25.03455925,A,個案管理服務,02-23060493,csp1@aiai.org.tw,施武靖,20230425 16:55:21
樂昱有限公司附設臺北市私立樂昱居家長照機構,臺北市,北投區,臺北市北投區文林里文林北路262號2樓,121.5109787,25.11374664,B,喘息服務,028-225-423,roc.ceda@gmail.com,鄭宇明,20221229 22:31:32
臺北市南港舊莊社區發展協會,臺北市,南港區,臺北市南港區舊莊里舊莊街1段91巷11號(舊莊區民活動中心),121.6195221,25.0413208,C,巷弄長照站,0931-518686,e0800633688@gmail.com,李麗時,20210412 14:55:57
凱風長照股份有限公司附設臺北市私立凱風新生北綜合長照機構,臺北市,中山區,臺北市中山區晴光里新生北路三段56巷17號1樓,121.5269241,25.0657196,B,居家服務,2599-6681,service@kfcare.com.tw,郭銘仁,20230308 18:13:41
凱風長照股份有限公司附設臺北市私立凱風新生北綜合長照機構,臺北市,中山區,臺北市中山區晴光里新生北路三段56巷17號1樓,121.5269241,25.0657196,B,日間照顧服務,2599-6681,service@kfcare.com.tw,郭銘仁,20221108 13:33:00
財團法人天主教失智老人社會福利基金會受託經營管理本市萬華老人服務中心,臺北市,萬華區,臺北市萬華區西寧南路4號A棟3樓,121.5070419,25.04793167,B,營養餐飲服務,2361-0666,who.cfad@gmail.com,鍾安住,20230512 17:12:30
臺北榮民總醫院,臺北市,北投區,臺北市北投區永欣里石牌路二段201號,121.5203857,25.1192112,B,專業照護服務,0228-712-121,huangms@vghtpe.gov.tw,陳威明,20221230 20:45:54
C+-財團法人台北市中華基督教浸信會慈光堂,臺北市,士林區,臺北市士林區翠山里中社路一段43巷3號,121.5602036,25.10877419,B,喘息服務,02-28412290,shoujen2318@gmail.com,柴漢熙,20230202 17:05:22
台灣基督長老教會馬偕醫療財團法人附設臺北市私立大同昌吉社區長照機構,臺北市,大同區,臺北市大同區蓬萊里昌吉街52號9至10樓,121.5163422,25.06581497,B,日間照顧服務,02-2598-8710,yufang.3243@mmh.org.tw,蕭聰穎,20230221 11:36:15
財團法人臺北市松年長春社會福利基金會大橋教會,臺北市,大同區,臺北市大同區景星里迪化街2段65號,121.5095901,25.06492615,C,巷弄長照站,02-25851434,pine003@twdc.org.tw,王淑惠,20210407 14:48:59
臺北市信義區中行里辦公處,臺北市,信義區,臺北市信義區中行里福德街268巷32號,121.5857544,25.03989029,C,巷弄長照站,02-2727-4777,zhongxing@zx.attw.idv.tw,林美君,20210412 14:16:45
瑞兆居服股份有限公司附設臺北市私立瑞兆居家長照機構,臺北市,中山區,臺北市中山區中庄里民生東路2段119號3樓之3,121.5317764,25.0580883,B,居家服務,02-2537-3968,s90137ya@yahoo.com.tw,應德煇,20220126 15:43:41
臺北市政府社會局委託中華民國紅心字會經營管理臺北市達仁社區長照機構,臺北市,信義區,臺北市信義區大道路116號4樓之5,121.5828857,25.03861618,B,小規模多機能服務,8787-0300,xinyitw@yahoo.com.tw,劉緒倫,20230822 14:50:12
臺北榮民總醫院附設遊詣居社區式長期照顧服務機構,臺北市,北投區,臺北市北投區永欣里石牌路二段322號1樓,121.5203857,25.1192112,B,日間照顧服務,02-28712121,d2_uage@vghtpe.gov.tw,陳威明,20190729 11:00:13
臺北市私立慧光老人養護所,臺北市,大同區,臺北市大同區星明里寧夏路32 號5樓,121.5151443,25.05595398,B,喘息服務,025-582-275,Good.wu0731@msa.hinet.net,康玉燕,20221229 22:21:24
臺北市大龍峒長青協會,臺北市,大同區,臺北市大同區保安里重慶北路3段313巷25號1樓~2樓,121.5148926,25.07417679,C,巷弄長照站,02-25910582,jackalnogg@gmail.com,張斌脈,20210407 14:18:48
財團法人利伯他茲教育基金會(木柵復活堂),臺北市,文山區,臺北市文山區木新里永安街1號,121.5702515,24.98745918,C,巷弄長照站,02-2939-4359,ssd@cthyh.org.tw,羅慧兒,20230107 13:00:45
適悅物理治療所,臺北市,中山區,臺北市中山區龍江路114巷1號,121.5401917,25.05319595,B,專業照護服務,,j3677296@gmail.com,丁俊文,20221229 22:43:25
臺北市私立安家居家長照機構,臺北市,文山區,臺北市文山區景行里景文街42號3樓302室,121.5412292,24.99171638,B,喘息服務,029-333-468,Anchia468@gmail.com,吳米加,20221229 22:28:27
稻香居家護理所(委託臺北榮民總醫院經營管理),臺北市,北投區,臺北市北投區稻香路81號,121.4892883,25.14091301,B,專業照護服務,02-2895-6015,ccli2@vghtpe.gov.tw,李淑娟,20230502 09:20:36
清山交通股份有限公司,臺北市,松山區,臺北市松山區三民路113巷12號6樓,121.5624313,25.05805969,B,交通接送服務,0930-848-338,laughflower@gmail.com,林青駿,20210628 12:36:06
(新北)好爸爸無障礙爬梯機接送有限公司,臺北市,南港區,臺北市南港區向陽路122號,121.5953217,25.0547142,B,交通接送服務,02-26516333,good88taxi@gmail.com,李銘權,20220208 15:36:09
財團法人老五老基金會附設臺北市私立老五老居家式服務類長期照顧服務機構,臺北市,北投區,臺北市北投區吉慶里石牌路1段14號3樓,121.5131073,25.11036682,A,個案管理服務,02-28929702,bt@ofo.org.tw,陳麗欣,20230731 15:44:52
財團法人台北市私立永年社會福利慈善基金會,臺北市,松山區,臺北市松山區復勢里光復北路80巷1號1樓,120.2095704,23.7207971,C,巷弄長照站,02-2578-6677#2232,socialwork@pojengh.com.tw,王建哲,20210412 13:51:26
樂福健康事業有限公司附設臺北市私立樂福居家長照機構,臺北市,大同區,臺北市大同區永樂里西寧北路81號5樓之2,121.5088577,25.05611038,B,居家服務,0225-598-079,lovefu0514@gmail.com,吳海銘,20220221 14:44:25
臺北市大安區民炤里辦公處,臺北市,大安區,臺北市大安區民炤里信義路3段31巷5號1樓,121.5346146,25.03414726,C,巷弄長照站,02-27008406,c20181124@gmail.com,周暉泰,20210407 14:56:17
社團法人台灣長期照顧教育訓練協會,臺北市,北投區,臺北市北投區磺港路263號,121.5032501,25.12360764,B,交通接送服務,02-28981259,tltceta@gmail.com,倪玲娜,20230628 10:57:14
愛迪樂居家職能治療所,臺北市,南港區,臺北市南港區福德街373巷5號15樓,121.5912399,25.04034233,B,專業照護服務,,adlers0615@gmail.com,鍾孟修,20221230 18:51:22
喜安健康長期照顧有限公司附設臺北市私立仁安居家式長期照顧服務機構,臺北市,信義區,臺北市信義區新仁里忠孝東路4段553巷46弄8號2樓,121.5632172,25.04413795,B,喘息服務,027-620-999,sajat0999@gmail.com,張德謙,20230209 15:43:10
圓石實業股份有限公司附設臺北市私立大同圓石社區長照機構,臺北市,大同區,臺北市大同區永樂里延平北路2段96號3樓,121.511261,25.05659676,B,喘息服務,025-583-800,winniehou.tw@gmail.com,侯克瀛,20221229 21:36:50
財團法人伊甸社會福利基金會附設臺北市私立台北居家式服務類長期照顧服務機構,臺北市,北投區,臺北市北投區裕民里裕民六路120號,121.5176468,25.11453438,B,居家服務,02-28210320#103,eden5580@eden.org.tw,羅紀?,20220207 16:13:43
財團法人台北市中華基督教衛理公會衛理堂,臺北市,大安區,臺北市大安區民輝里新生南路1段113號,121.5330582,25.03969383,C,巷弄長照站,02-2771-2017#141,joshua87427@gmail.com,歐陽讓,20210407 15:18:25
臺北市私立可馨居家長照機構,臺北市,大安區,臺北市大安區建倫里忠孝東路4段162號12樓之3,121.5502853,25.04128456,B,喘息服務,0932-908-325,kexinhome051@gmail.com,高銘麟,20230718 11:00:04
尚好物理治療所,臺北市,士林區,臺北市士林區重慶北路四段250號3樓,121.5113602,25.08666611,B,專業照護服務,2816-4533#325,gn01710202@gmail.com,周祺鈞,20220126 15:24:58
社團法人台灣厝邊有愛關懷協會（敦化）,臺北市,松山區,臺北市松山區民有里敦化北路238巷7-9號,121.5487213,25.06035614,C,巷弄長照站,02-3635546,lo1119@ms53.hinet.net,鄭忠仁,20210412 11:25:30
私立愛吾愛居家長照機構,臺北市,萬華區,臺北市萬華區大理街171號2樓201室,121.4963226,25.0341568,B,喘息服務,02-23087286,n01d.iwoi@gmail.com,許惠容,20221229 21:23:07
財團法人伊甸社會福利基金會(松山區八德路),臺北市,松山區,臺北市松山區復勢里八德路三段155巷4弄35號1樓,121.555603,25.04892349,C,巷弄長照站,25702560分機23,eden7964@eden.org.tw,成亮,20210412 13:54:08
台北市北投青溪協會,臺北市,北投區,臺北市北投區中庸里珠海路2號,121.5012436,25.13754082,C,巷弄長照站,台北市北投區中庸里珠海路2號,skyfu218@gmail.com,陳宗陽,20210409 17:18:05
臺北市大安區安東社區發展協會,臺北市,大安區,臺北市大安區誠安里安東街31之1號,121.5426559,25.04425049,C,巷弄長照站,027-715-532,a5532.a5532@msa.hinet.net,李有福,20221230 20:42:50
台灣居護股份有限公司附設臺北市私立聯承居家長照機構,臺北市,大安區,臺北市大安區義村里忠孝東路3段136號11樓1102辦公室,121.5377884,25.041502,B,喘息服務,082-588-088,thnbuurtzorg@gmail.com,汪秋蓉,20230202 16:35:32
生通股份有限公司,臺北市,中山區,臺北市中山區民權東路一段55號,121.5248871,25.06290627,B,交通接送服務,02-25997667,doreen@wcarsharing.com,陳金棍,20230202 11:02:49
松德長照事業有限公司附設臺北市私立松德居家長照機構,臺北市,大同區,臺北市大同區永樂里西寧北路112號2樓之4,121.5088577,25.05611038,B,喘息服務,02-25557985,songde2021@gmail.com,黃松共,20221229 21:23:58
耆康實業有限公司附設臺北市私立小太陽居家長照機構,臺北市,松山區,臺北市松山區自強里三民路35巷9號2樓,121.5624695,25.05532074,B,專業照護服務,027-420-058,tw.softlife@gmail.com,嚴成茂,20221230 18:30:07
財團法人福智慈善基金會(天母據點),臺北市,士林區,臺北市士林區蘭興里中山北路六段243號1F,121.5251617,25.10922432,C,巷弄長照站,02-28382503 #12,jasmine.chang33@gmail.com,賴錫源,20210407 14:09:49
禾悅物理治療所,臺北市,松山區,臺北市松山區光復北路8號2樓,121.557663,25.04861259,B,專業照護服務(CC01),2578-3923,heyuept@gmail.com,陳欽得,20230802 17:19:14
臺北市北投區振華社區發展協會,臺北市,北投區,臺北市北投區振華里裕民一路40巷37號1樓,121.5177536,25.11520576,C,巷弄長照站,02-2823-6110,fashing188@yahoo.com.tw,郭崇儀,20210412 11:05:13
社團法人中華民國士林靈糧堂社會福利協會附設臺北市私立西湖社區長照機構,臺北市,內湖區,臺北市內湖區西湖里內湖路一段285號6樓,121.5664978,25.08241653,B,營養餐飲服務,02-26561700,xihudaycare@slsc.org.tw,劉群茂,20201230 19:26:38
臺北市政府社會局委託財團法人臺北市喜樂家族社會福利基金會經營管理大龍峒身障社區長照機構（日間照顧）,臺北市,大同區,臺北市大同區老師里重慶北路3段320號3、4樓,121.5135193,25.07513237,B,喘息服務,02-25922581,joy2020da@gmail.com,陳建信,20221230 19:04:16
朗朗語言治療所,臺北市,中正區,臺北市中正區忠孝西路一段45號11樓之4,121.5179367,25.04628181,B,專業照護服務,0935-919-971,pj@ms37.url.com.tw,許珮蓁,20220314 14:58:34
旺得福居家物理治療所,臺北市,中山區,臺北市中山區民權西路20號10樓之11,121.5532761,25.02911949,B,專業照護服務(CC01),02-28113890,spring85331@hotmail.com,沈春儀,20230802 17:19:14
財團法人台北市松年長春社會福利基金會(開元),臺北市,文山區,"臺北市文山區木新里開元街25,27號",121.5690613,24.98909378,C,巷弄長照站,02-2500-0206,"pine004@twdc.org,tw",王淑惠,20210408 18:19:37
美樺股份有限公司附設私立美美居家長照機構,臺北市,中正區,臺北市中正區黎明里重慶南路1段121號5樓之2,121.5133743,25.04222488,B,居家服務,02-23700021,meihua10903@gmail.com,穆秀芬,20220207 16:00:50
三軍總醫院社區式長照服務機構,臺北市,中正區,臺北市中正區汀洲路3段40號,121.5298843,25.01644516,B,日間照顧服務,87923311*15659,tsghday@mail.ndmctsgh.edu.tw,洪乙仁,20220208 10:55:17
臺北市私立喜宇居家長照機構,臺北市,松山區,臺北市松山區慈祐里臺北市松山區八德路四段678號6樓之1,121.5754166,25.04985046,B,居家服務,0966-200-297,tsai_you@yahoo.com.tw,劉敬喜,20211230 14:54:40
臺北市內湖區安泰里社區發展協會,臺北市,內湖區,臺北市內湖區安泰里安泰街65巷5號,121.6171494,25.07497406,C,巷弄長照站,,antai.assn@gmail.com,鐘虹期,20210408 17:42:00
太豐交通有限公司,臺北市,文山區,臺北市文山區景福街196號,121.5378494,24.99431992,B,交通接送服務,02-29182234,Raymon-cl@hotmail.com,林勝華,20220321 15:01:50
臺北市政府社會局委託社團法人中華民國士林靈糧堂社會福利協會經營管理臺北市士林社區式服務類長期照顧服務機構,臺北市,士林區,臺北市士林區三玉里忠誠路二段53巷7號6樓,121.5322876,25.11143684,B,小規模多機能服務,02-28381571,sldaycare@slsc.org.tw,劉群茂,20221230 14:57:35
可馨居家護理所,臺北市,大安區,臺北市大安區忠孝東路四段162號9樓之五室,121.5502853,25.04128456,B,專業照護服務,2239-8785,newtype78412@yahoo.com.tw,余儒,20210112 11:43:44
臺北市政府社會局委託財團法人中華民國唐氏症基金會經營管理景新身障社區長照機構（日間照顧）,臺北市,文山區,臺北市文山區景後街151號4樓,121.5419159,24.99000168,B,日間照顧服務,02-29355560,jingxindaycare@gmail.com,林正俠,20221116 14:32:45
北醫大管理顧問股份有限公司附設私立杏芳居家長照機構,臺北市,文山區,臺北市文山區萬美街一段25號地下之1(17室),121.5692673,25.00225067,A,個案管理服務,02-29350230#12,careplus.wf@gmail.com,李飛鵬,20230731 19:59:35
財團法人獎卿護理展望基金會大台北居家護理所,臺北市,大安區,臺北市大安區龍坡里和平東路一段216號,121.5318604,25.02602959,B,專業照護服務,02-23646040#17,ccfhcn@yahoo.com.tw,王金蓮,20221230 15:21:42
中化銀髮事業股份有限公司附設臺北市私立中化銀髮居家式服務類長期照顧服務機構,臺北市,士林區,臺北市士林區舊佳里中山北路5段699巷1號1樓,121.5269547,25.09767342,B,居家服務,02-27970880#208,rainbow@ccpc.com.tw,王謝怡貞,20211223 16:14:21
中華民國紅十字會台灣省分會附設臺北市私立紅十字居家式服務類長期照顧服務機構,臺北市,大安區,臺北市大安區龍坡里新生南路三段20號,121.5344238,25.02418327,A,個案管理服務,02-23637794,rct@seed.net.tw,董光世,20230208 09:01:08
新光醫療財團法人附設新光居家護理所,臺北市,士林區,臺北市士林區福佳里文昌路95號,121.5209808,25.09628105,B,專業照護服務,02-28332211#2600,R000264@ms.skh.org.tw,張芬娥,20220210 15:28:26
寶珠職能治療所,臺北市,大安區,臺北市大安區140巷17號2樓,121.5532761,25.02911949,B,專業照護服務(CC01),02-27329012,eagle72130steven@gmail.com,陳奕丞,20230802 17:19:14
台北市新生活社會福利協進會,臺北市,士林區,臺北市士林區富洲里延平北路九段122號,121.4733124,25.10644531,C,巷弄長照站,0937-094-689,office@tpenewlife.org,張淑貞,20210407 11:58:56
財團法人中華民國台灣基督教信義會內湖教會,臺北市,內湖區,臺北市內湖區港都里港墘路100巷2號1樓,121.5772171,25.08023071,C,巷弄長照站,02-27993958,lipkao@gmail.com,陳至敏,20210408 17:46:46
財團法人台北市中華基督教信義會(復興堂),臺北市,信義區,臺北市信義區中興里信義路4段375號10樓之2,121.5577316,25.03328323,C,巷弄長照站,02-27200440,fushing.fushing@gmail.com,吳大明,20210412 14:21:00
振興醫療財團法人振興醫院,臺北市,北投區,臺北市北投區振興街４５號,121.445801,25.010906,B,專業照護服務,0228-264-400,無,魏崢,20230202 17:18:18
士林區芝山岩社區發展協會,臺北市,士林區,臺北市士林區名山里雨聲街68號(芝山岩區民活動中心),121.5287552,25.1036129,C,巷弄長照站,0911-328-596,yueh2158@pchome.com.tw,廖岳,20210407 11:46:19
適群診所,臺北市,大安區,臺北市大安區四維路198巷32號,121.5458679,25.02661896,B,居家失能個案家庭醫師照護服務,02-27063700,mollylin2886@gmail.com,蔡函衿,20221230 22:05:53
健樂福生活事業股份有限公司,臺北市,大安區,臺北市大安區民炤里仁愛路三段30號,121.5366974,25.03761292,B,輔具及居家無障礙環境服務,02-77462328,無,楊恆碩,20190417 00:00:00
 啟宗心理諮商所,臺北市,大安區,臺北市大安區東豐街7號5樓之2,121.5441437,25.03615952,B,專業照護服務,2325-4066,openmindcenter1050820@gmail.com,林世莉,20220318 11:35:55
社團法人中華基督教合一宣教協會,臺北市,大安區,臺北市大安區義村里忠孝東路三段136號13樓,121.537796,25.04150391,C,巷弄長照站,02-87720775,divine201056@gmail.com,黃貴鳳,20210407 15:43:58
社團法人台灣多元社會福利協會私立多福居家長照機構,臺北市,北投區,臺北市北投區溫泉里溫泉路68之10號,121.5048065,25.13516617,B,喘息服務,02-28927001,dofuhs@gmail.com,林政緯,20230104 18:55:04
社團法人台北市家庭照顧者關懷協會附設臺北市私立家協居家式服務類長期照顧服務機構,臺北市,大安區,臺北市大安區黎孝里和平東路三段232號,121.5546951,25.02204895,B,喘息服務,02-27398737#17,service@carer.org.tw,李孟芬,20221230 20:41:21
台北市廣西同鄉會,臺北市,中正區,臺北市中正區梅花里忠孝東路1段35號7樓,121.5255356,25.04448891,C,巷弄長照站,02-23210375,kwangsi.main@gmail.com,謝志鵬,20210408 17:04:03
社團法人中華民國士林靈糧堂社會福利協會附設臺北市私立內湖社區長照機構,臺北市,內湖區,臺北市內湖區樂康里康樂街136巷15弄1、3、5號,121.6186066,25.07205772,B,日間照顧服務,02-26307538,neihudaycare@slsc.org.tw,劉群茂,20220322 09:20:02
臺北市私立倚青園老人長期照顧中心(養護型),臺北市,北投區,臺北市北投區永明里義理街63巷4弄7、11之1~3號1樓,121.5152893,25.1176033,B,喘息服務,02-28283533,jadelin103@gmail.com,郭梅玉,20221230 20:33:08
財團法人台灣聖公會牧愛堂,臺北市,士林區,臺北市士林區後港里後港里中正路511號,121.5174561,25.09136009,C,巷弄長照站,02-28816317,swmail86@gmail.com,張員榮,20221229 22:51:03
社團法人台灣厝邊有愛關懷協會台北和平據點,臺北市,大安區,臺北市大安區龍安里和平東路一段183巷9號,121.5330963,25.02742767,C,巷弄長照站,00-23636356,lo1119@ms53.hinet.net,鄭忠仁,20210407 15:55:54
嘉陞健康事業股份有限公司附設臺北市私立嘉陞居家長照機構,臺北市,大同區,臺北市大同區民權西路136號15樓之3,121.5123138,25.06451035,B,居家服務,0921-148107,goodcare0001@gmail.com,黃海同,20230426 18:14:20
財團法人台灣省私立健順養護中心(松山老人服務暨日間照顧中心),臺北市,松山區,臺北市松山區鵬程里健康路317號1樓,121.5666122,25.05446815,C,巷弄長照站,02-2768-5636,sselder105@gmail.com,黃禎祥,20210412 14:09:05
臺北市政府社會局委託天主教耕莘醫療財團法人永和耕莘醫院經營管理臺北市至善老人安養護中心,臺北市,士林區,臺北市士林區永福里001鄰仰德大道2段2巷50號,121.543251,25.10190964,B,喘息服務,028-832-666,zhi.shan@msa.hinet.net,趙嘉倫,20221230 11:57:51
安民家庭醫學科診所,臺北市,大安區,臺北市大安區大安路一段65號2樓之1,121.5462799,25.04253578,B,居家失能個案家庭醫師照護服務,2721-8556,am.clinic@msa.hinet.net,林安民,20210113 00:40:20
同仁醫療財團法人萬華醫院,臺北市,萬華區,臺北市萬華區騰雲里中華路2段606巷6號,121.509819,25.02399826,B,專業照護服務,02-23059292*603,ffhikaru@gmail.com,蕭竹生,20201203 09:23:44
瑞兆居服股份有限公司附設臺北市私立瑞兆居家長照機構,臺北市,中山區,臺北市中山區中庄里民生東路2段119號3樓之3,121.5317764,25.0580883,B,居家服務,02-2537-3968,s90137ya@yahoo.com.tw,應德煇,20211230 16:10:38
長安健照事業股份有限公司附設臺北市私立長安健照事業居家長照機構,臺北市,中正區,臺北市中正區梅花里忠孝東路1段35號10樓D室,121.5255356,25.04448891,B,喘息服務,02-25810519,changancare@gmail.com,戴志庭,20221229 22:16:16
(臺北市政府交通接送)接受派案帳號,臺北市,信義區,臺北市信義區市府路1號北區2樓,121.5637817,25.03752327,B,交通接送服務,27208889轉1670,AHAA_41775@mail.taipei.gov.tw,社會局,20220609 17:11:00
愛馨居服有限公司附設臺北市私立愛馨居家長照機構,臺北市,松山區,臺北市松山區新聚里南京東路5段230號2樓之1,121.5259171,25.04397964,B,喘息服務,02-23415924,anshintakecare@gmail.com,傅翰強,20221229 23:15:32
全福物理治療所,臺北市,大安區,臺北市大安區忠孝東路三段10巷3號7樓,121.533577,25.04129219,B,專業照護服務,0909-179-279,s09179279@gmail.com,徐振瑋,20210112 11:44:14
臺北市政府社會局委託財團法人台灣省私立健順養護中心經營管理臺北市中山社區式長期照顧服務機構,臺北市,中山區,臺北市中山區新生北路二段101巷2號,121.5284271,25.05731773,B,日間照顧服務,02-25420006,elder0006@gmail.com,黃禎祥,20220207 14:35:58
財團法人台北市台北中華基督教會(公理堂),臺北市,中山區,臺北市中山區康樂里中山北路2段45巷39號,121.5250244,25.05446434,C,巷弄長照站,02-25118021,tccc.ppt@gmail.com,吳學輝,20210408 16:29:30
永鑫物理治療所,臺北市,南港區,臺北市南港區八德路四段885號3樓,121.580513,25.05086327,B,專業照護服務(CC01),2396-2222,pthao30@gmail.com,張清豪,20230802 17:19:14
愛迪樂居家職能治療所,臺北市,南港區,臺北市南港區福德街373巷5號15樓,121.5912399,25.04034233,B,專業照護服務(CC01),,adlers0615@gmail.com,鍾孟修,20230802 17:19:14
臺北市天母全人關懷協會,臺北市,士林區,臺北市士林區天玉里中山北路7段81巷7樓B2,121.5302658,25.12182045,C,巷弄長照站,02-2874-6222#118,lovingcaretianmu0101@gmail.com,曾鼎發,20210407 11:41:28
臺北市大同區國慶社區發展協會,臺北市,大同區,臺北市大同區國慶里重慶北路3段136巷18號,121.5129318,25.0676651,C,巷弄長照站,0225-940-089,he.fong25940089@gmail.com,黃淑琪,20210407 14:40:09
臺北市信義區安康里辦公處,臺北市,信義區,臺北市信義區安康里虎林街232巷58號,121.5759048,25.03590584,C,巷弄長照站,02-27273989,wan.yuheng@gmail.com,萬宇恆,20210412 14:28:07
一翔交通股份有限公司,臺北市,中正區,臺北市中正區博愛路222號5樓,120.9772495,24.7651098,B,交通接送服務,023-120-985,share.car24@gmail.com,李樂伯,20220429 10:27:17
社團法人臺北市中山區大直社區發展協會(大直一),臺北市,內湖區,臺北市內湖區寶湖里民權東路六段208號,121.5966949,25.06763649,C,巷弄長照站,0931-302823,bl-yuhsin@mail.taipei.gov.tw,宋羅蘭,20210408 16:09:29
臺北市南港區仁福社區發展協會,臺北市,南港區,臺北市南港區仁福里福德街373巷61號1樓,121.5921402,25.03946877,C,巷弄長照站,0972-910-919,daisybobounun76@gmail.com,江俊賢,20210412 14:45:44
財團法人成長文教基金會,臺北市,大安區,臺北市大安區仁慈里東豐街1號2樓,121.5439224,25.0361805,C,巷弄長照站,02-27000657,pc19840808@gmail.com,吳靜吉,20210407 14:53:35
臺北市永昌長青會,臺北市,中正區,臺北市中正區永昌里寧波西街181巷24號,121.5100784,25.02655411,C,巷弄長照站,02-23071068,tyc.ch@msa.hinet.net,林萬出,20210408 16:49:58
台北市南港區南港社區發展協會,臺北市,南港區,臺北市南港區南港里新民街64號2樓,121.6115265,25.05592537,C,巷弄長照站,0928-231-500,20140401@mail.taipei.gov.tw,李志錦,20210412 14:50:47
元愷有限公司附設臺北市私立安愷居家長照機構,臺北市,中山區,臺北市中山區恆安里農安街32號8樓之3之4,121.5266724,25.06481361,B,居家服務,2522-1993,taco062169@gmail.com,蔡秉峰,20220221 16:52:42
好康居家呼吸照護所,臺北市,中正區,臺北市中正區砂子杭州南路一段23號,121.5264969,25.04236412,B,專業照護服務,02-23910529,hokahnrt@gmail.com,楊玲玲,20220210 15:31:16
小驢駒小客車租賃有限公司(臺北市),臺北市,南港區,臺北市南港區南港路三段93號3樓,121.5877457,25.05285835,B,交通接送服務,0910-918631,ss46005176@gmail.com,葉書含,20210104 16:16:03
康捷居家長照有限公司附設臺北市私立康捷居家式服務類長期照顧服務機構,臺北市,大同區,臺北市大同區民權西路225巷6號1樓,121.510025,25.06882858,B,喘息服務,0225-995-980,kangchieh20200909@gmail.com,黃明聖,20230202 13:59:50
圓石實業股份有限公司附設臺北市私立大同圓石社區長照機構,臺北市,大同區,臺北市大同區永樂里延平北路2段96號3樓,121.511261,25.05659676,B,日間照顧服務,025-583-800,winniehou.tw@gmail.com,侯克瀛,20220613 16:33:11
社團法人台灣長善社群發展協會,臺北市,中山區,臺北市中山區民權東路一段55號10樓,121.5248871,25.06290627,B,交通接送服務,02-77230798,tgcd827@gmail.com,陳金棍,20230627 17:09:50
好朋友居家職能治療所,臺北市,中山區,臺北市中山區撫順街25號9樓之4,121.5203171,25.06358337,B,專業照護服務,02-89136000,hami610@gmail.com,陳偉修,20221229 22:19:03
臺北市中正區新永昌社區發展協會,臺北市,中正區,臺北市中正區永昌里汀州路1段242巷17號,121.5098419,25.02709389,C,巷弄長照站,0966-452-161,hcn630@gmail.com,許巧妮,20210408 16:49:35
安理健康事業股份有限公司附設臺北市私立安理居家長照機構,臺北市,中正區,臺北市中正區光復里重慶南路1段10號8樓之15(111室),121.5131378,25.0465889,B,喘息服務,0932-339-650,shih1112002@yahoo.com.tw,史辰雄,20220321 14:04:37
新竹縣-社團法人臺灣58金融仕家協會,臺北市,中山區,臺北市中山區民族東路168之1號1樓,121.5296631,25.06816483,B,營養餐飲服務,02-23112758,windliongodlin@gmail.com,林仁豐,20221229 10:06:01
臺北市快樂松年社,臺北市,中山區,臺北市中山區新生里民權東路2段46號3樓之2,121.5300827,25.06234741,C,巷弄長照站,0920-220-422,cynthia422@yahoo.com.tw,羅聯昇,20210408 16:30:30
臺北市信義區挹翠社區發展協會,臺北市,信義區,臺北市信義區六合里紫雲街23號1樓,120.5392334,22.5434577,C,巷弄長照站,02-27228636,ghda970525@gmail.com,甘添貴,20210412 14:27:02
圓石實業股份有限公司附設臺北市私立大同圓石社區長照機構,臺北市,大同區,臺北市大同區永樂里延平北路2段96號3樓,121.511261,25.05659676,B,喘息服務,025-583-800,winniehou.tw@gmail.com,侯克瀛,20220613 16:33:56
耀生長期照顧服務股份有限公司附設臺北市私立耀生居家長照機構,臺北市,中正區,臺北市中正區幸市里忠孝東路2段130號11樓之8,121.5317993,25.04239845,B,喘息服務,02-23932500,wayne@leaplife.com.tw,黃偉嘉,20221230 14:34:33
臺北榮民總醫院附設遊詣居社區式長期照顧服務機構,臺北市,北投區,臺北市北投區永欣里石牌路二段322號1樓,121.5203857,25.1192112,B,日間照顧服務,02-28712121,d2_uage@vghtpe.gov.tw,陳威明,20210202 12:37:42
沃恩有限公司附設臺北市私立耆樂居家長照機構,臺北市,內湖區,臺北市內湖區湖元里成功路2段171號1樓,121.5907059,25.06614876,B,居家服務,02-27946676,w27946676@gmail.com,林顯寬,20230714 17:36:11
財團法人台北市私立愛愛院,臺北市,萬華區,臺北市萬華區大理街175巷27號,121.4955292,25.03455925,B,喘息服務,02-23060493,csp1@aiai.org.tw,施武靖,20220321 15:38:10
臺北市私立雲朵社區長照機構,臺北市,中正區,臺北市中正區幸福里杭州南路1段63號4樓之1,121.5268021,25.0434742,B,日間照顧服務,02-23911898,pink121634@gmail.com,方明,20210202 15:40:35
臺北市私立雲朵社區長照機構,臺北市,中正區,臺北市中正區幸福里杭州南路1段63號4樓之1,121.5268021,25.0434742,B,日間照顧服務,02-23911898,pink121634@gmail.com,方明,20230207 17:16:37
私立好幫守居家長照機構,臺北市,士林區,臺北市士林區葫蘆里延平北路5段225號4樓之2,121.5098038,25.08423424,B,喘息服務,028-112-766,ucareliving@gmail.com,林玟葉,20210112 13:45:21
智慧長照有限公司附設臺北市私立愛關懷居家長照機構,臺北市,信義區,臺北市信義區忠孝東路5段1號2樓207室,121.5412292,24.99171638,B,居家服務,7729-7769,e2frank2020@gmail.com,王純鍵,20230322 10:48:57
臺北市私立榮祥老人長期照顧中心(養護型),臺北市,北投區,臺北市北投區文林里019鄰文林北路166巷5弄2號1~2樓、4號1樓,121.5162582,25.10715485,B,喘息服務,02-28213709,rogn_shying@yahoo.com.tw,蔡汶儒,20221230 20:37:46
社團法人台灣比較刑法學會附設臺北市私立誠實居家長照機構,臺北市,中正區,臺北市中正區黎明里重慶南路1段57號9樓之8,121.5133514,25.04467011,B,居家服務,02-77515512,tsocclserver@gmail.com,李金定,20220526 14:30:32
有限責任臺北市樂見在照顧服務勞動合作社附設私立樂見在居家長照機構,臺北市,松山區,臺北市松山區中崙里松山區八德路二段447號7樓,121.5052032,25.12405777,B,居家服務,02-2303-0369,Lcancarer@gmail.com,倪玲娜,20211230 14:58:32
臺北市私立暖心居家長照機構,臺北市,松山區,臺北市松山區吉祥里光復北路95號3樓311室,121.5580521,25.05081367,B,居家服務,02-77515315,alto902242@gmail.com,方琇慧,20201203 16:17:47
台北市基督教道生長老會唭哩岸全人關懷協會,臺北市,北投區,臺北市北投區尊賢里尊賢街264巷1號,121.5071793,25.11745834,C,巷弄長照站,,fortisjohnson@gmail.com,蘇清志,20210412 11:04:39
財團法人天主教失智老人社會福利基金會附設臺北市私立聖若瑟失智老人養護中心,臺北市,萬華區,臺北市萬華區保德里德昌街125巷11號,121.496933,25.02363968,B,喘息服務,02-23046716#108,s8910009@ms61.hinet.net,鍾安住,20221229 21:29:38
臺北市立關渡醫院-委託臺北榮民總醫院經營,臺北市,北投區,臺北市北投區知行路225巷12號,121.4661255,25.12031364,A,個案管理服務,02-28587000,yhpan@gandau.gov.tw,陳亮恭,20230208 09:03:38
臺北市私立老爺居家長照機構,臺北市,大安區,臺北市大安區安和路2段92號B1(A11室),121.5502472,25.02877235,B,居家服務,0988-125-527,grandba9453@gmail.com,薛智遠,20211223 16:12:47
永心醫療用品有限公司,臺北市,士林區,臺北市士林區福佳里文昌路52號1樓,121.5214767,25.09580231,B,輔具及居家無障礙環境服務,02-88661112,yuchihealth@gmail.com,陳明志,20230620 10:55:01
石牌鄭身心醫學診所,臺北市,北投區,臺北市北投區石牌路一段69號,121.5110779,25.11356544,B,居家失能個案家庭醫師照護服務,02-2822-5423,fbi1127@yahoo.com.tw,鄭宇明,20221230 21:42:07
元愷有限公司附設臺北市私立安愷居家長照機構,臺北市,中山區,臺北市中山區恆安里農安街32號8樓之3之4,121.5266724,25.06481361,B,喘息服務,2522-1993,taco062169@gmail.com,蔡秉峰,20220221 16:53:29
財團法人私立台北醫學大學附設醫院附設居家護理所,臺北市,信義區,臺北市信義區莊敬路330號5樓,121.5631104,25.02704048,B,專業照護服務,02-27372181#3938,tmchchn@h.tmu.edu.tw,陳麗絹,20221230 20:13:26
社團法人中華民國士林靈糧堂社會福利協會附設臺北市私立內湖社區長照機構,臺北市,內湖區,臺北市內湖區樂康里康樂街136巷15弄1、3、5號,121.6186066,25.07205772,B,小規模多機能服務,02-26307538,neihudaycare@slsc.org.tw,劉群茂,20221230 15:30:57
社團法人中華民國士林靈糧堂社會福利協會附設臺北市私立內湖社區長照機構,臺北市,內湖區,臺北市內湖區樂康里康樂街136巷15弄1、3、5號,121.6186066,25.07205772,B,喘息服務,02-26307538,neihudaycare@slsc.org.tw,劉群茂,20220322 09:20:37
財團法人伽耶山基金會,臺北市,中正區,臺北市中正區文北里濟南路二段36號2樓、3樓、4樓,121.5296021,25.04060936,C,巷弄長照站,02-2394-6800#403,twlate2014@gmail.com,陳夏珠  ,20210408 16:42:46
益巨股份有限公司附設臺北市私立崇仁社區長照機構,臺北市,萬華區,臺北市萬華區青年路152巷28號1樓,121.5012207,25.02062416,B,日間照顧服務,023-090-193,dc.chongren@rghealth.com.tw,陳威男,20220602 10:29:42
中華民國紅心字會(興隆老人社會關懷照顧據點),臺北市,文山區,臺北市文山區明義里明義里興隆路4段105巷47號,121.5631638,24.98799133,C,巷弄長照站,02-29367119,ankangtw@gmail.com,劉緒倫,20221229 23:09:31
有限責任臺灣第二照顧服務勞動合作社附設臺北市私立二顧居家長照機構,臺北市,中正區,臺北市中正區羅斯福路一段102號8樓,121.508812,25.05327988,B,喘息服務,02-25527608,tpservice@secondcare.org.tw,伍崑崙,20221229 20:59:40
社團法人中華民國香柏樹長者社區關懷協會,臺北市,內湖區,臺北市內湖區東湖里康樂街110巷16弄20號5樓,121.6183853,25.07037354,B,營養餐飲服務,(02)6325560,nhsc.knjc@gmail.com,黃哲人,20210316 11:51:39
台北市信義區三犁里辦公處,臺北市,信義區,臺北市信義區三犁里信義路5段150巷14弄6號1樓,121.5694275,25.02841187,C,巷弄長照站,0911-822-428,sing.keego@gmail.com,翁信利,20210412 14:15:27
臺北市北投區我愛石牌社區發展協會,臺北市,北投區,臺北市北投區石牌里建民路116巷13 號,121.5178757,25.10984802,C,巷弄長照站,0928-228-369,lv228369@me.com,吳明益,20210412 10:25:49
家禾認知社區關懷協會,臺北市,文山區,臺北市文山區政大里政大1街3號1樓,121.5842896,24.98599434,C,巷弄長照站,02-2234-2467,scchaochao@gmail.com,周存林,20210409 15:16:48
愛馨居服有限公司附設臺北市私立愛馨居家長照機構,臺北市,松山區,臺北市松山區新聚里南京東路5段230號2樓之1,121.5259171,25.04397964,B,居家服務,02-23415924,anshintakecare@gmail.com,傅翰強,20230418 09:51:54
臺北市私立寬安居家長照機構,臺北市,萬華區,臺北市萬華區雙園里莒光路328號6樓,121.4974976,25.03124809,B,喘息服務,02-2308-1977,newlife6832@gmail.com,林菡雅,20221219 14:20:09
天行健診所,臺北市,萬華區,臺北市萬華區寶興街121、125、127號,121.4950714,25.02463531,B,居家失能個案家庭醫師照護服務,2332-0688,sky9623@gmail.com,陳行健,20221230 21:46:56
社團法人中國家庭教育協進會附設臺北市私立敬老居家式服務類長期照顧服務機構,臺北市,中山區,臺北市中山區中山里松江路131之12號6樓,121.5332489,25.05424881,B,居家服務,02-25090266,chinesehomeservice@yahoo.com.tw,吳逸秋,20211230 15:57:48
好爸爸無障礙爬梯機接送有限公司,臺北市,南港區,臺北市南港區向陽路122號,121.4533312,25.0154695,B,交通接送服務,028-957-559,wakahoowang@gmail.com,李銘權,20220429 10:33:03
財團法人基督教救世軍,臺北市,內湖區,臺北市內湖區西湖里內湖路一段285巷63弄7號,121.5672379,25.08407211,C,巷弄長照站,02-27990098,chiehtsi@hotmail.com,李光秋,20210408 17:42:15
臺北市私立老爺居家長照機構,臺北市,大安區,臺北市大安區安和路2段92號B1(A11室),121.5502472,25.02877235,B,居家服務,0988-125-527,grandba9453@gmail.com,薛智遠,20230202 16:54:17
力麗長青長照社團法人附設台北市私立長青居家長照機構,臺北市,萬華區,臺北市萬華區雙園里臺北市萬華區環河南路二段278之1號1樓,121.4979706,25.03227997,B,喘息服務,02-2308-2996,nw7193@leagreen.com.tw,郭濟安,20221229 21:37:58
旺得福居家物理治療所,臺北市,中山區,臺北市中山區民權西路20號10樓之11,121.5532761,25.02911949,B,專業照護服務,02-28113890,spring85331@hotmail.com,沈春儀,20221229 22:47:28
財團法人恆安社會福利慈善事業基金會,臺北市,大安區,臺北市大安區群賢里和平東路二段295號12樓,121.5421219,25.02499199,A,個案管理服務,02-23331955,hanganhomecare@gmail.com,胡世賢,20230626 15:02:15
臺北市士林區德行里里辦公處,臺北市,士林區,臺北市士林區德行里德行西路30號1樓,121.5234833,25.10547066,C,巷弄長照站,0939-931-903,majasmine519@gmail.com,張?美,20210407 14:11:15
愛志股份有限公司附設臺北市私立愛志居家長照機構,臺北市,南港區,臺北市南港區東新里重陽路120號3樓309室,121.5994797,25.05654907,B,到宅沐浴車服務,02-27882211,service@earth-want.com.tw,森山典明,20220210 15:36:28
臺北市政府社會局委託社團法人中華民國士林靈糧堂社會福利協會經營管理臺北市瑞光社區長照機構,臺北市,內湖區,臺北市內湖區湖元里瑞光路162號2樓之1,121.5792618,25.07343483,B,小規模多機能服務,0226-575-677,neihurg.dc@slsc.org.tw,劉群茂,20220112 15:14:59
好康居家呼吸照護所,臺北市,中正區,臺北市中正區砂子杭州南路一段23號,121.5264969,25.04236412,B,專業照護服務,02-23910529,hokahnrt@gmail.com,楊玲玲,20221229 21:40:16
中華民國紅十字會附設私立博愛居家長照機構,臺北市,萬華區,臺北市萬華區菜園里康定路62號11樓,121.5023117,25.04244232,B,喘息服務,023-310-500,lily1015@redcross.org.tw,王清峰,20221230 15:22:23
臺北市私立蒙福之家社區長照機構,臺北市,北投區,臺北市北投區建民里新民路71巷2弄8號,121.5123138,25.14108658,B,家庭托顧服務,02-28975715,sarah200908@gmail.com,宋益芬,20220211 10:19:52
臺北市政府社會局委託財團法人台灣省私立健順養護中心經營管理臺北市復華社區長照機構,臺北市,中山區,臺北市中山區遼寧街185巷11號2-3樓,121.5427628,25.05342484,B,日間照顧服務,02-27171393,fuhua1060810@gmail.com,黃禎祥,20210201 20:31:31
社團法人台灣厝邊有愛關懷協會(台北公?),臺北市,文山區,臺北市文山區萬年里汀州路四段85巷2號,121.5375748,25.00740814,C,巷弄長照站,02-23635546,lo1119@ms53.hinet.net,鄭忠仁,20210409 15:29:21
粱耳鼻喉科診所,臺北市,士林區,臺北市士林區社正路12-1號,121.5093002,25.08855057,B,居家失能個案家庭醫師照護服務,02-2816-8456,kimbo@doctorvoice.org,楊境森,20221230 21:48:30
福田居家有限公司私立福田居家長照機構,臺北市,信義區,臺北市信義區松光里忠孝東路5段492巷2號2樓,121.5783005,25.04051209,B,喘息服務,02-27270065,futain@futaincare.com.tw,林永峰,20230202 16:56:10
臺北市士林區福中里辦公處,臺北市,士林區,臺北市士林區福中里福港街151號10樓9樓,121.5180511,25.08741951,C,巷弄長照站,0228-838-207,hsiulien0317@gmail.com,王德利,20210407 13:59:04
保豐堂藥品儀器有限公司,臺北市,萬華區,臺北市萬華區長沙街二段115號1樓,121.50354,25.04052925,B,輔具及居家無障礙環境服務,02-23831569,pooh9_999@yahoo.com.tw,王一逸,20230911 18:58:00
旺得福居家物理治療所,臺北市,中山區,臺北市中山區民權西路20號10樓之11,121.5532761,25.02911949,B,專業照護服務,02-28113890,spring85331@hotmail.com,沈春儀,20220210 15:10:00
私立好幫守居家長照機構,臺北市,士林區,臺北市士林區葫蘆里延平北路5段225號4樓之2,121.5098038,25.08423424,B,喘息服務,028-112-766,ucareliving@gmail.com,林玟葉,20220126 15:46:00
私立好幫守居家長照機構,臺北市,士林區,臺北市士林區葫蘆里延平北路5段225號4樓之2,121.5098038,25.08423424,B,居家服務,028-112-766,ucareliving@gmail.com,林玟葉,20211230 11:11:35
臺北市政府社會局委託財團法人台北市立心慈善基金會經營管理臺北市萬華龍山社區長照機構,臺北市,萬華區,臺北市萬華區青山里梧州街36號3樓之1,121.4974899,25.03737259,B,營養餐飲服務,02-23361881,longshanold@gmail.com,洪金桐,20230325 16:57:36
臺北市私立前瞻居家長照機構,臺北市,文山區,臺北市文山區興昌里辛亥路4段21巷10號9樓,121.5590286,25.00873756,B,居家服務,02-8931-2545,h89312545@gmail.com,楊邦媛,20220104 19:12:50
台北市大同區大有里辦公處,臺北市,大同區,臺北市大同區大有里民樂街179號1樓,121.5105972,25.05951118,C,巷弄長照站,02-25577229,aliceaa8899@gmail.com,許美智,20210407 14:14:21
財團法人台灣老人急重症基金會(聚盛據點),臺北市,中山區,臺北市中山區聚盛里民生東路一段42號7樓之3,121.5418777,25.08140183,C,巷弄長照站,02-25224388,tfgecc@tfgecc.tw,蔡正河,20210408 16:11:54
臺北市私立老爺居家長照機構,臺北市,大安區,臺北市大安區安和路2段92號B1(A11室),121.5502472,25.02877235,B,喘息服務,0988-125-527,grandba9453@gmail.com,薛智遠,20221230 14:45:32
社團法人中華民國士林靈糧堂社會福利協會附設臺北市私立內湖社區長照機構,臺北市,內湖區,臺北市內湖區樂康里康樂街136巷15弄1、3、5號,121.6186066,25.07205772,B,喘息服務,02-26307538,neihudaycare@slsc.org.tw,劉群茂,20221230 15:32:09
社團法人中華民國士林靈糧堂社會福利協會附設臺北市私立內湖社區長照機構,臺北市,內湖區,臺北市內湖區樂康里康樂街136巷15弄1、3、5號,121.6186066,25.07205772,B,小規模多機能服務,02-26307538,neihudaycare@slsc.org.tw,劉群茂,20220322 09:20:11
可苡營養諮詢中心,臺北市,士林區,臺北市士林區文林路714巷7號1樓,121.5210876,25.10269356,B,專業照護服務,0916-882-252,koiinutrition@gmail.com,黃苡菱,20221230 15:19:41
臺北市私立可馨居家長照機構,臺北市,大安區,臺北市大安區建倫里忠孝東路4段162號12樓之3,121.5502853,25.04128456,B,居家服務,0932-908-325,kexinhome051@gmail.com,高銘麟,20221230 20:39:45
臺北市大安區光明里辦公處,臺北市,大安區,臺北市大安區光明里信義路2段86巷26號,121.5257874,25.03379822,C,巷弄長照站,0928-924384,q23914185@gmail.com,張惠銓,20210407 15:21:16
臺北市萬華區保德社區發展協會,臺北市,萬華區,臺北市萬華區保德里東園街140巷10號,121.4970093,25.02331162,C,巷弄長照站,02-2332-3337,Baode.cou@msa.hinet.net,黃剛毅,20210412 15:00:30
生通股份有限公司,臺北市,中山區,臺北市中山區民權東路一段55號,121.5248871,25.06290627,B,交通接送服務,02-25997667,doreen@wcarsharing.com,陳金棍,20230307 09:21:21
樂福健康事業有限公司附設臺北市私立樂福居家長照機構,臺北市,大同區,臺北市大同區永樂里西寧北路81號5樓之2,121.5088577,25.05611038,B,喘息服務,0225-598-079,lovefu0514@gmail.com,吳海銘,20221229 22:08:34
世界潘氏宗親總會,臺北市,松山區,臺北市松山區東光里南京東路5段29號3樓,121.5581589,25.05173492,C,巷弄長照站,02-27678497,sc.chen562877@yahoo.com.tw,潘維大,20210412 11:55:04
元愷有限公司附設臺北市私立安愷居家長照機構,臺北市,中山區,臺北市中山區恆安里農安街32號8樓之3之4,121.5266724,25.06481361,B,喘息服務,2522-1993,taco062169@gmail.com,蔡秉峰,20221229 23:15:52
臺北市私立高德老人長期照顧中心(養護型),臺北市,北投區,臺北市北投區清江里磺港路156號,121.5029678,25.12871361,B,喘息服務,02-28982418,nkd28982418@gmail.com,鄭人豪,20221216 10:07:15
大安居家語言治療所,臺北市,大安區,臺北市大安區信義路三段147巷15弄5號7樓,121.5423813,25.03516388,B,專業照護服務,2700-0737,yangkehyou@yahoo.com.tw,楊克尤,20221230 20:05:33
臺北市私立可馨居家長照機構,臺北市,大安區,臺北市大安區建倫里忠孝東路4段162號12樓之3,121.5502853,25.04128456,B,居家服務,0932-908-325,kexinhome051@gmail.com,高銘麟,20211230 11:17:30
台北市石牌全人關懷協會,臺北市,北投區,臺北市北投區榮華里明德路283號,121.5222092,25.11500931,C,巷弄長照站,02-28262602*11,candykaofeeling@gmail.com,許曉元,20210412 11:13:47
C+ 社團法人台北市向日葵慈善協會,臺北市,松山區,臺北市松山區東勢里南京東路4段133巷7弄9號1樓,121.5554276,25.05258751,B,喘息服務,8770-6501 #17,respite.sf@gmail.com,陳四輝,20230206 10:44:13
臺北市立聯合醫院(林森中醫院區),臺北市,中山區,臺北市中山區健民林森北路530號,121.5254745,25.06346321,B,專業照護服務,02-25916681#1320,A4430@tpech.gov.tw,蕭勝煌,20190417 00:00:00
社團法人台灣比較刑法學會附設臺北市私立誠實居家長照機構,臺北市,中正區,臺北市中正區黎明里重慶南路1段57號9樓之8,121.5133514,25.04467011,B,喘息服務,02-77515512,tsocclserver@gmail.com,李金定,20221229 20:50:00
臺北市私立祝福居家長照機構,臺北市,中正區,臺北市中正區水源里羅斯福路4段68號7樓之10（6810-E室）,121.5342712,25.01450348,B,居家服務,02-29321396,nikey303@gmail.com,鄭如杏,20221130 15:18:15
社團法人台灣愛鄰社區服務協會(大安區),臺北市,大安區,臺北市大安區龍門里和平東路二段24號11樓,121.5364761,25.02557564,B,營養餐飲服務,02-23692674,peter.chu@breadoflife.taipe,莊碧明,20190807 11:27:07
臺北市全人探索協會,臺北市,南港區,臺北市南港區玉成里八德路4段768-1號4-6樓,121.5799637,25.05030441,C,巷弄長照站,0932-322-435,x9exlo@gmail.com,黃聰智,20210412 14:48:15
台北市劍橋有愛全人關懷協會,臺北市,士林區,臺北市士林區百齡里福港街244巷3號1樓,121.5172119,25.08429718,C,巷弄長照站,02-28820977,joan.chen1@yahoo.com.tw,呂智宏,20210407 11:48:30
臺北市長立健康樂活協會,臺北市,大安區,臺北市大安區龍陣里瑞安街75號3樓,121.5410919,25.02824211,C,巷弄長照站,027-014-636,yuchuyin@yahoo.com.tw,王自立,20210407 16:03:41
臺北市內湖區紫雲社區發展協會,臺北市,內湖區,臺北市內湖區紫雲里康寧路一段190號,121.594986,25.07865715,C,巷弄長照站,2791-3337,gbzihyun@gmail.com,夏亦芳,20210408 18:06:01
社團法人中華基督教加倍愛全人關懷協會,臺北市,南港區,臺北市南港區中南里忠孝東路七段625巷16號,121.6155167,25.05368042,C,巷弄長照站,0905-818-922,doublemile8820@gmail.com,張吳映佳,20210412 14:44:50
常樂企業有限公司,臺北市,中山區,臺北市中山區民生東路一段51號6樓之1,121.5262451,25.05819702,B,交通接送服務,02-2523-8456,changlecare@gmail.com,王受益,20221003 08:45:55
中華民國紅十字會總會,臺北市,萬華區,臺北市萬華區糖?里艋舺大道303號1、4樓,121.4964905,25.03317451,C,巷弄長照站,2362-8232#409,savi@redcross.org.tw,王清峰,20210412 15:11:44
金永國際租賃有限公司,臺北市,中山區,臺北市中山區長春路172號8樓之11,121.5338516,25.05469131,B,交通接送服務,02-29749738,e121051940@yahoo.com.tw,方姵人,20220207 10:36:22
財團法人以琳基督徒中心,臺北市,南港區,臺北市南港區合成里中坡北路92號2樓,121.5804825,25.04793549,C,巷弄長照站,02-26511002#14,elimcetr@seed.net.tw,郭春花,20210412 14:49:17
臺北市中正區新營里辦公處,臺北市,中正區,臺北市中正區新營里寧波東街16巷4號1樓,121.5207138,25.03230858,C,巷弄長照站,02-23214028,sophia.ja18@gmail.com,何國榮,20210408 17:27:30
鈺沁居家護理所,臺北市,中正區,臺北市中正區中華路一段59號3樓之6,121.5085297,25.04133415,B,專業照護服務,2857-8811,stellatin@hotmail.com,吳宜庭,20190821 14:59:45
悠適復健科診所,臺北市,松山區,臺北市松山區光復北路11弄65號,121.5580063,25.04863548,B,專業照護服務,0920-095-460,g39110004@gmail.com,陳正倫,20200311 18:00:06
愛志股份有限公司附設臺北市私立愛志居家長照機構,臺北市,南港區,臺北市南港區東新里重陽路120號3樓309室,121.5994797,25.05654907,B,喘息服務,02-27882211,service@earth-want.com.tw,森山典明,20221230 18:20:30
孝恩居家職能治療所,臺北市,萬華區,臺北市萬華區興德里富民路145巷15弄11號,121.4998245,25.01853561,B,專業照護服務,0968-999365,mengjen88@gmail.com,魏孟振,20190417 00:00:00
中華萌愛關懷協會,臺北市,大同區,臺北市大同區蓬萊里承德路3段60號B1,121.5181046,25.06533051,C,巷弄長照站,02-25931138,stephen530413@gmail.com,盧瑩?,20210407 14:48:23
社團法人台灣認知功能促進協會附設臺北市私立敬智學苑社區長照機構,臺北市,內湖區,臺北市內湖區石潭里新明路22號2樓,121.5907898,25.06095123,B,喘息服務,2790-0907,Info.tcea@tcea-taiwan.com,甄瑞興,20230605 09:48:12
財團法人天下為公社會福利慈善事業基金會,臺北市,士林區,臺北市士林區承德路4段306號9樓,121.518631,25.08965492,A,個案管理服務,02-28881056,kcw@mail.oit.edu.tw,胡世賢,20230425 17:16:37
中華民國雙囍老人義務教育推廣協會,臺北市,萬華區,臺北市萬華區壽德里萬大路411號2樓,121.4990616,25.02156258,C,巷弄長照站,02-2331-7158#18,luckyold1020915@gmail.com,張碧雲,20210412 15:04:18
台灣基督長老教會馬偕醫療財團法人附設臺北市私立大同昌吉社區長照機構,臺北市,大同區,臺北市大同區蓬萊里昌吉街52號9至10樓,121.5163422,25.06581497,B,日間照顧服務,02-2598-8710,yufang.3243@mmh.org.tw,蕭聰穎,20230221 11:35:39
臺北市私立義行老人長期照顧中心(養護型),臺北市,北投區,臺北市北投區永和里001鄰石牌路2段357巷1號4~6樓,121.5248642,25.12366104,B,喘息服務,0228-722-221,201andy@gmail.com,林萬知,20230202 16:41:51
台北市愛羊全人關懷協會,臺北市,中正區,臺北市中正區龍光里和平西路二段17號2樓,121.5137329,25.02833176,C,巷弄長照站,0937-888594,keng2727@yahoo.com.tw,葉姿伶,20210408 17:32:48
社團法人台灣厝邊有愛關懷協會(中坡教會),臺北市,信義區,臺北市信義區中坡里大道路127-1號,121.5835953,25.0391674,C,巷弄長照站,02-23635546,lo1119@ms53.hinet.net,鄭忠仁,20210412 14:21:56
澴山藥局,臺北市,內湖區,臺北市內湖區環山路一段4號,121.5653915,25.08288193,B,專業照護服務,8797-8793,gisele2717@gmail.com,葉芃宜,20230202 17:17:51
臺北市私立意善園社區長照機構,臺北市,北投區,臺北市北投區行義路124巷3號1樓,121.5292282,25.12890244,B,日間照顧服務,02-28772666,daycareliving@gmail.com,林玟葉,20230824 14:54:35
臺北市私立上上老人養護所,臺北市,大安區,臺北市大安區仁慈里009鄰復興南路1段279巷14、16號1樓,121.5446472,25.03550339,B,喘息服務,027-032-223,shangshang58@yahoo.com.tw,李惠珍,20221230 14:55:53
安健維康物理治療所,臺北市,松山區,臺北市松山區新東里南京東路四段183號,121.5564957,25.05183411,B,專業照護服務,02-27177600,ogeypt@gmail.com,黃博靖,20220224 16:34:47
臺北市政府社會局委託財團法人台北市立心慈善基金會經營管理臺北市萬華龍山社區長照機構,臺北市,萬華區,臺北市萬華區青山里梧州街36號3樓之1,121.4974899,25.03737259,B,日間照顧服務,02-23361881,longshanold@gmail.com,洪金桐,20220331 14:30:19
財團法人雙福社會福利慈善事業基金會(蒙恩),臺北市,松山區,臺北市松山區復勢里光復北路112號8樓,121.5577087,25.05070877,C,巷弄長照站,02-2392-2993分機12,asiapd@gmail.com,吳英賓,20210412 13:52:23
嘉恩健康事業有限公司附設臺北市私立嘉安居家式長照機構,臺北市,內湖區,臺北市內湖區內湖路2段353號2樓,121.592041,25.08350754,B,居家服務,02-77137966,jn.healthcareltd2023@gmail.com,林仁德,20230829 16:07:58
臺北市私立老爺居家長照機構,臺北市,大安區,臺北市大安區安和路2段92號B1(A11室),121.5502472,25.02877235,B,居家服務,0988-125-527,grandba9453@gmail.com,薛智遠,20221230 14:45:32
臺北市政府社會局委託財團法人中華民國唐氏症基金會經營管理景新身障社區長照機構（日間照顧）,臺北市,文山區,臺北市文山區景後街151號4樓,121.5419159,24.99000168,B,喘息服務,02-29355560,jingxindaycare@gmail.com,林正俠,20230202 14:34:16
幸福物理治療所,臺北市,萬華區,臺北市萬華區雙園里西園路二段13巷12號,121.49823,25.03173256,B,專業照護服務(CC01),(02)23020306,kilaerhazard@gmail.com,李駿鴻,20230802 17:19:14
樂福健康事業有限公司附設臺北市私立樂福居家長照機構,臺北市,大同區,臺北市大同區永樂里西寧北路81號5樓之2,121.5088577,25.05611038,A,個案管理服務,0225-598-079,lovefu0514@gmail.com,吳海銘,20230425 17:04:30
樂福健康事業有限公司附設臺北市私立樂福居家長照機構,臺北市,大同區,臺北市大同區永樂里西寧北路81號5樓之2,121.5088577,25.05611038,A,個案管理服務,0225-598-079,lovefu0514@gmail.com,吳海銘,20230425 17:04:50
(基隆)金旺租賃有限公司,臺北市,松山區,臺北市松山區南京東路四段197號7樓,121.5569611,25.05175781,B,交通接送服務,0958-381985,aswishcares@gmail.com,盧逸穎,20221229 20:21:18
社團法人中華民國我願意全人關懷協會,臺北市,南港區,臺北市南港區萬福里東新街64巷7、11、13號,121.5855103,25.04717827,C,巷弄長照站,0920-131-347,jp70916@gmail.com,廖棣瓏,20210412 14:51:15
臺北市政府社會局委託財團法人台北市立心慈善基金會經營管理臺北市萬華龍山社區長照機構,臺北市,萬華區,臺北市萬華區青山里梧州街36號3樓之1,121.4974899,25.03737259,B,喘息服務,02-23361881,longshanold@gmail.com,洪金桐,20220331 14:31:43
鑫承居家有限公司附設臺北市私立鑫承居家長照機構,臺北市,松山區,臺北市松山區吉祥里光復北路95號5樓516室,121.5580521,25.05081367,B,居家服務,0980-392-917,shincheng11002@gmail.com,詹弘業,20220922 14:28:45
財團法人台灣聖公會牧愛堂,臺北市,士林區,臺北市士林區後港里後港里中正路511號,121.5174561,25.09136009,B,營養餐飲服務,02-28816317,swmail86@gmail.com,張員榮,20210128 19:54:44
臺北市私立康壯老人長期照顧中心(養護型),臺北市,松山區,臺北市松山區吉祥里八德路四段203號.205號,121.5638504,25.04898071,B,喘息服務,02-27686697,yao4343@yahoo.com.tw,李碧欗,20221229 22:32:00
樂昱有限公司附設臺北市私立樂昱居家長照機構,臺北市,北投區,臺北市北投區文林里文林北路262號2樓,121.5109787,25.11374664,B,居家服務,028-225-423,roc.ceda@gmail.com,鄭宇明,20220302 10:19:48
財團法人臺北市松年長春社會福利基金會私立松年長春居家長照機構,臺北市,中山區,臺北市中山區行仁里龍江路318巷5、7號1樓及5號地下室,121.5407028,25.06481743,B,喘息服務,02-25000261,pinema@twdc.org.tw,王淑惠,20221229 23:14:56
愛志股份有限公司附設臺北市私立愛志居家長照機構,臺北市,南港區,臺北市南港區東新里重陽路120號3樓309室,121.5994797,25.05654907,B,到宅沐浴車服務,02-27882211,service@earth-want.com.tw,森山典明,20220207 15:59:34
社團法人中華民國紅心字會附設臺北市私立紅心居家式服務類長期照顧服務機構,臺北市,中正區,臺北市中正區黎明里重慶南路一段43號3樓之2,121.5133896,25.04495621,B,居家服務,02-23700267,drolysun@gmail.com,劉緒倫,20220207 16:03:52
有限責任臺北市樂見在照顧服務勞動合作社附設私立樂見在居家長照機構,臺北市,松山區,臺北市松山區中崙里松山區八德路二段447號7樓,121.5052032,25.12405777,B,喘息服務,02-2303-0369,Lcancarer@gmail.com,倪玲娜,20220322 09:26:47
政昇藥局,臺北市,松山區,臺北市松山區南京東路五段356號13及14樓,121.5696945,25.05106354,B,專業照護服務,2756-2756,chliu@ihealth.com.tw,陳文志,20190821 09:28:24
適康復健科診所,臺北市,內湖區,臺北市內湖區文德路141號,121.5843048,25.07871628,B,專業照護服務,0920-095-460,g39110004@gmail.com,陳建宏,20190823 11:58:53
臺北市私立雲朵社區長照機構,臺北市,中正區,臺北市中正區幸福里杭州南路1段63號4樓之1,121.5268021,25.0434742,B,日間照顧服務,02-23911898,pink121634@gmail.com,方明,20220208 12:45:03
有限責任臺北市育坊社區照護勞動合作社私立育坊居家長照機構,臺北市,北投區,臺北市北投區中庸里大同街299號,121.4992371,25.1398201,B,居家服務,02-28957520,yfcare.coop@gmail.com,錢素明,20220207 15:39:52
適健復健診所,臺北市,大安區,臺北市大安區建倫里忠孝東路四段166號,121.5505676,25.04114532,B,專業照護服務,02-87717039,scrc.service@gmail.com,陳昭蓉,20221230 20:09:10
社團法人臺北市向日葵慈善協會,臺北市,松山區,臺北市松山區東勢里南京東路四段133巷7弄7號,121.5554123,25.05254555,B,喘息服務,02-87700650,bnwdh12a@gmail.com,蔡秀琴,20221229 23:13:01
臺北市立聯合醫院附設陽明護理之家,臺北市,士林區,臺北市士林區雨聲街105號7樓,121.5315628,25.10519409,B,日間照顧服務,02-28353456 分機6862,B1138@tpech.gov.tw,黃淑萍,20220609 16:54:08
台北市君賀人本關懷協會,臺北市,信義區,臺北市信義區中行里福德街221巷15號（?公國中）,121.5853271,25.03706741,C,巷弄長照站,02-2327-8616,bio.mag@msa.hinet.net,林露菁,20210412 14:17:48
臺北市松山區中正里辦公處,臺北市,松山區,臺北市松山區中正里長安東路二段229號12樓,121.5458527,25.0483799,C,巷弄長照站,0937-031518,ruru19841224@gmail.com,洪樸陽,20210412 11:19:23
三軍總醫院社區式長照服務機構,臺北市,中正區,臺北市中正區汀洲路3段40號,121.5298843,25.01644516,B,日間照顧服務,87923311*15659,tsghday@mail.ndmctsgh.edu.tw,洪乙仁,20210423 16:49:49
臺北市中正區永寬社區發展協會,臺北市,中正區,臺北市中正區永昌里寧波西街181巷8號,121.5104446,25.02661133,C,巷弄長照站,02-23014838,4838abc@gmail.com,黃美月,20210408 16:44:46
圓石實業股份有限公司附設臺北市私立大同圓石社區長照機構,臺北市,大同區,臺北市大同區永樂里延平北路2段96號3樓,121.511261,25.05659676,B,小規模多機能服務,025-583-800,winniehou.tw@gmail.com,侯克瀛,20220523 14:29:47
陳珀勳診所,臺北市,北投區,臺北市北投區明德路85號1樓,121.5187225,25.10892487,B,居家失能個案家庭醫師照護服務,02-2820-6263,pohshin@hotmail.com,陳珀勳,20221230 22:17:48
臺北市政府社會局委託財團法人台北市立心慈善基金會經營管理臺北市萬華龍山社區長照機構,臺北市,萬華區,臺北市萬華區青山里梧州街36號3樓之1,121.4974899,25.03737259,B,日間照顧服務,02-23361881,longshanold@gmail.com,洪金桐,20210305 14:32:02
財團法人台北市基督教台灣貴格會忠湖教會,臺北市,內湖區,臺北市內湖區湖元里民權東路6段56巷5弄8號1樓,121.5852966,25.06825829,C,巷弄長照站,02-27923347,loyal_lake@yahoo.com.tw,萬正宇,20210408 17:51:44
台灣居護股份有限公司附設臺北市私立聯承居家長照機構,臺北市,大安區,臺北市大安區義村里忠孝東路3段136號11樓1102辦公室,121.5377884,25.041502,B,居家服務,082-588-088,thnbuurtzorg@gmail.com,汪秋蓉,20230202 16:35:32
臺北市私立福樂居家長照機構,臺北市,大同區,臺北市大同區西寧北路78號8樓J室,121.5086899,25.05443001,B,喘息服務,02-2558168,flowerhomeservices@gmail.com,陳姿璇,20230217 14:03:15
臺北市私立貴族老人長期照顧中心(養護型),臺北市,北投區,臺北市北投區北投大業路452巷2號2-5f,121.4972916,25.13171959,B,喘息服務,02-28965555,noahsang@gmail.com,桑予群,20221230 20:45:00
博昌復健科診所,臺北市,萬華區,臺北市萬華區萬大路221號1樓,121.5006027,25.02674866,B,專業照護服務,2337-9196,moszkowski.tw@yahoo.com.tw,沈惠民,20200311 18:07:38
臺北市私立燿翔居家長照機構,臺北市,大安區,臺北市大安區信義路4段279號8樓（808室）,121.5547104,25.03334427,B,專業照護服務,2703-5276,yaohsiang.ltci@gmail.com,莊博文,20221230 20:14:10
凱風長照股份有限公司附設臺北市私立凱風民權社區長照機構,臺北市,中山區,臺北市中山區民權東路三段21號2樓之1及之2,121.5416946,25.06255722,B,喘息服務,02-2508-0810,dc001@kfcare.com.tw,郭銘仁,20221229 22:29:36
樂福健康事業有限公司附設臺北市私立樂福居家長照機構,臺北市,大同區,臺北市大同區永樂里西寧北路81號5樓之2,121.5088577,25.05611038,B,居家服務,0225-598-079,lovefu0514@gmail.com,吳海銘,20220215 09:55:59
康捷居家長照有限公司附設臺北市私立康捷居家式服務類長期照顧服務機構,臺北市,大同區,臺北市大同區民權西路225巷6號1樓,121.510025,25.06882858,B,居家服務,0225-995-980,kangchieh20200909@gmail.com,黃明聖,20220104 18:23:33
臺北市政府社會局委託財團法人臺北市喜樂家族社會福利基金會經營管理大龍峒身障社區長照機構（日間照顧）,臺北市,大同區,臺北市大同區老師里重慶北路3段320號3、4樓,121.5135193,25.07513237,B,日間照顧服務,02-25922581,joy2020da@gmail.com,陳建信,20220210 10:26:24
力麗長青長照社團法人附設台北市私立長青居家長照機構,臺北市,萬華區,臺北市萬華區雙園里臺北市萬華區環河南路二段278之1號1樓,121.4979706,25.03227997,B,居家服務,02-2308-2996,nw7193@leagreen.com.tw,郭濟安,20220531 15:08:18
臺北市私立文德老人長期照顧中心(養護型),臺北市,內湖區,臺北市內湖區紫陽里011鄰陽光街70-2、70-3、72、72-1號1樓,121.5862656,25.07644081,B,喘息服務,02-26581303,wendeolderman@gmail.com,江光輝,20221230 15:12:32
有限責任臺北市樂見在照顧服務勞動合作社附設私立樂見在居家長照機構,臺北市,松山區,臺北市松山區中崙里松山區八德路二段447號7樓,121.5052032,25.12405777,B,喘息服務,02-2303-0369,Lcancarer@gmail.com,倪玲娜,20221229 22:24:25
中華民國紅十字會附設私立博愛居家長照機構,臺北市,萬華區,臺北市萬華區菜園里康定路62號11樓,121.5023117,25.04244232,B,居家服務,023-310-500,lily1015@redcross.org.tw,王清峰,20211230 15:05:13
社團法人中華長照協會附設臺北市私立永樂居家長照機構,臺北市,文山區,臺北市文山區臺北市文山區羅斯福路六段134號2樓,121.5442276,24.99927902,B,喘息服務,02-2930-6919,chxclc001@gmail.com,金國良,20221229 22:53:17
財團法人私立台北醫學大學附設醫院附設居家護理所,臺北市,信義區,臺北市信義區莊敬路330號5樓,121.5631104,25.02704048,B,營養餐飲服務,02-27372181#3938,tmchchn@h.tmu.edu.tw,陳麗絹,20221230 20:13:26
財團法人味全文化教育基金會,臺北市,中山區,臺北市中山區中央里松江路125號4樓,121.5333023,25.05308533,C,巷弄長照站,0910-080-465,weichuan125@gmail.com,張景涵,20210408 16:15:11
臺北市萬華區青年社區發展協會,臺北市,萬華區,臺北市萬華區新和里中華路2段416巷9-3、9-4號(青年國宅),121.5043869,25.02678299,C,巷弄長照站,02-2303-1537,yichieh99@hotmail.com,莊惟仁,20210412 15:02:51
臺北市私立傑緣居家長照機構,臺北市,北投區,臺北市北投區中庸里大同街210號1樓,121.4992981,25.13851929,B,居家服務,0930-069-930,jyuancare11249@gmail.com,劉宇傑,20220225 17:09:48
樂福健康事業有限公司附設臺北市私立樂福居家長照機構,臺北市,大同區,臺北市大同區永樂里西寧北路81號5樓之2,121.5088577,25.05611038,B,喘息服務,0225-598-079,lovefu0514@gmail.com,吳海銘,20220221 14:45:02
適健復健診所,臺北市,大安區,臺北市大安區建倫里忠孝東路四段166號,121.5505676,25.04114532,B,居家失能個案家庭醫師照護服務,02-87717039,scrc.service@gmail.com,陳昭蓉,20210113 00:41:12
中華民國紅心字會(信義區),臺北市,信義區,臺北市信義區四維里虎林街74巷2號1樓,121.5133514,25.04495811,A,個案管理服務,02-27660227,xinyitw@yahoo.com.tw,劉緒倫,20230208 09:06:52
社團法人寧祈全人健康生命關懷協會附設臺北市私立寧祈居家長照機構,臺北市,中山區,臺北市中山區中山里民生東路1段42號12樓之14,121.524437,25.05792809,B,喘息服務,02-2521-3282,homeservice@ningchi.org,吳健樑,20221230 18:23:16
臺北市私立健全老人長期照顧中心(養護型),臺北市,大安區,臺北市大安區錦華里001鄰金山南路二段152號2-6樓,121.5261383,25.02876472,B,喘息服務,023-943-265,janquan106@gmail.com,游祥祺,20221230 15:25:01
財團法人基督教台灣神召會,臺北市,大安區,臺北市大安區昌隆里忠孝東路3段217巷5弄8號,121.5392685,25.04344368,C,巷弄長照站,02-27527186,taga197010@gmail.com,陳盛?,20210407 15:25:50
圓石實業股份有限公司附設臺北市私立內湖圓石社區長照機構,臺北市,內湖區,臺北市內湖區民權東路6段180巷6號8樓,121.5926514,25.06819534,B,喘息服務,02-2790-2090,contact@roundstone.com.tw,侯克瀛,20220401 11:05:02
圓石實業股份有限公司附設臺北市私立內湖圓石社區長照機構,臺北市,內湖區,臺北市內湖區民權東路6段180巷6號8樓,121.5926514,25.06819534,B,日間照顧服務,02-2790-2090,contact@roundstone.com.tw,侯克瀛,20220207 14:43:48
四季春健康管理顧問事業股份有限公司附設臺北市私立四季春社區長照機構,臺北市,大同區,臺北市大同區延平北路三段4號3樓、3樓之1,121.5110474,25.06343651,B,日間照顧服務,025-919-000,yuki82856762@gmail.com,羅慧文,20211227 15:00:17
臺北市私立安家居家長照機構,臺北市,文山區,臺北市文山區景行里景文街42號3樓302室,121.5412292,24.99171638,B,喘息服務,029-333-468,Anchia468@gmail.com,吳米加,20230714 15:15:00
安健維康物理治療所,臺北市,松山區,臺北市松山區新東里南京東路四段183號,121.5564957,25.05183411,B,專業照護服務,02-27177600,ogeypt@gmail.com,黃博靖,20221229 22:35:02
財團法人台北市北投文化基金會,臺北市,北投區,臺北市北投區林泉里中山路5-12號,121.5096054,25.13800621,C,巷弄長照站,02-28917453,smiler826@gmail.com,詹儒宗,20210412 10:51:21
臺北市私立義行老人長期照顧中心(養護型),臺北市,北投區,臺北市北投區永和里001鄰石牌路2段357巷1號4~6樓,121.5248642,25.12366104,B,喘息服務,0228-722-221,201andy@gmail.com,林萬知,20220328 16:46:29
有限責任臺北市樂見在照顧服務勞動合作社附設私立樂見在居家長照機構,臺北市,松山區,臺北市松山區中崙里松山區八德路二段447號7樓,121.5052032,25.12405777,B,居家服務,02-2303-0369,Lcancarer@gmail.com,倪玲娜,20220322 09:26:22
臺北市政府社會局委託中華民國紅心字會經營管理臺北市興隆社區長照機構,臺北市,文山區,臺北市文山區明義里興隆路四段105巷47號,121.5631256,24.98828125,B,喘息服務,02-29367119,ankangtw@gmail.com,劉緒倫,20220325 14:02:35
臺北市私立永欣居家長照機構,臺北市,北投區,臺北市北投區豐年里中央北路二段371號1樓,121.4874573,25.13823318,B,居家服務,2891-6364,yongxin6364@gmail.com,陳柏帆,20220622 10:57:35
社團法人寧祈全人健康生命關懷協會,臺北市,中山區,臺北市中山區中山里中山北路2段 59 巷 21 號2樓,121.5239182,25.05600739,C,巷弄長照站,(02)25433535#2770,ningchiorg@gmail.com,張德謙,20210408 16:13:12
財團法人台北市城東基督長老教會,臺北市,大安區,臺北市大安區建倫里安和路1段43號2樓及45號1樓,121.5510559,25.03861046,C,巷弄長照站,02-2771-1282,logoschentong@gmail.com,林萬賀,20210407 15:35:14
財團法人台北市立心慈善基金會,臺北市,萬華區,臺北市萬華區桂林路242巷4號4樓之2?,121.4952469,25.03788567,B,喘息服務,02-23361500#14,lishinc42@gmail.com,洪金桐,20221229 22:24:31
財團法人台北市私立愛愛院,臺北市,萬華區,臺北市萬華區大理街175巷27號,121.4955292,25.03455925,B,日間照顧服務,02-23060493,csp1@aiai.org.tw,施武靖,20230106 20:31:29
社團法人社區大學全國促進會,臺北市,萬華區,臺北市萬華區中華路2段364巷24弄地下室,121.4990213,25.1417699,B,喘息服務,02-6605-0919,napcucommunity@napcu.org.tw,蔡素貞,20221220 19:07:45
臺北市私立台大老人長期照顧中心(養護型),臺北市,松山區,臺北市松山區敦化里敦化南路一段7號,121.5492859,25.04690552,B,喘息服務,02-25792816,tai_da_168@yahoo.com.tw,鄭淑卿,20221229 22:51:42
臺北市私立安家居家長照機構,臺北市,文山區,臺北市文山區景行里景文街42號3樓302室,121.5412292,24.99171638,B,居家服務,029-333-468,Anchia468@gmail.com,吳米加,20220104 18:55:50
康寧醫療財團法人附設康寧居家護理所,臺北市,內湖區,臺北市內湖區成功路五段420巷26號2樓,121.6087799,25.07595253,B,專業照護服務,0226-345-500,88016@mail.knh.org.tw,李永真,20230103 19:35:05
臺北市私立愛家居家長照機構,臺北市,中山區,臺北市中山區新庄里新生北路3段87巷23號,121.5288925,25.06745148,B,喘息服務,02-25966934,tzning1975@gmail.com,黃姿寧,20221229 22:54:35
社團法人中華視障安養福利協會,臺北市,大同區,臺北市大同區隆和里伊寧街37號,121.5122299,25.06473732,C,巷弄長照站,02-2595-2872,eyelight08@gmail.com,張復源,20210407 14:48:08
臺北市政府社會局委託天主教耕莘醫療財團法人永和耕莘醫院經營管理臺北市大龍老人住宅(社照C),臺北市,大同區,臺北市大同區至聖里至聖里民族西路105號4樓、4樓-1,121.5173569,25.06872559,C,巷弄長照站,02-6617-8186#323,dalongea@gmail.com,鄒繼群,20221229 21:48:11
財團法人一粒麥子社會福利慈善事業基金會(中正國宅社區照顧關懷據點),臺北市,萬華區,臺北市萬華區新安里萬大路237巷13弄3號,121.5055847,25.02584076,C,巷弄長照站,02-2309-0660,liz@wheat.org.tw,呂信雄,20221229 22:15:25
樂昱有限公司附設臺北市私立樂昱居家長照機構,臺北市,北投區,臺北市北投區文林里文林北路262號2樓,121.5109787,25.11374664,B,喘息服務,028-225-423,roc.ceda@gmail.com,鄭宇明,20220302 10:20:25
京鶴實業有限公司附設臺北市私立悅康居家長照機構,臺北市,中正區,臺北市中正區黎明里許昌街42之1號7樓700室,121.5154343,25.0454483,B,居家服務,02-23709008,jinghemedical@gmail.com,林廣盛,20220207 16:11:31
C+-財團法人台北市中華基督教浸信會慈光堂,臺北市,士林區,臺北市士林區翠山里中社路一段43巷3號,121.5602036,25.10877419,C,巷弄長照站,02-28412290,shoujen2318@gmail.com,柴漢熙,20221230 20:25:18
臺北市政府社會局委託財團法人台北市立心慈善基金會經營管理臺北市大同社區長照機構,臺北市,大同區,臺北市大同區重慶里重慶北路三段347號3樓之1,121.5140762,25.07478333,B,日間照顧服務,02-25929008,datongold@gmail.com,洪金桐,20201202 10:49:55
臺北市政府社會局委託財團法人天主教白永恩神父社會福利基金會經營管理稻香身障社區長照機構（日間照顧）,臺北市,北投區,臺北市北投區稻香里稻香路81號3樓之1,121.4892883,25.14091301,B,日間照顧服務,2898-8308,beitou-daoxiang@beunen.org.tw,費克強,20230824 12:47:31
社團法人中華民國士林靈糧堂社會福利協會附設臺北市私立西湖社區長照機構,臺北市,內湖區,臺北市內湖區西湖里內湖路一段285號6樓,121.5664978,25.08241653,B,日間照顧服務,02-26561700,xihudaycare@slsc.org.tw,劉群茂,20220207 14:31:28
同仁院醫療財團法人附設居家護理所,臺北市,萬華區,臺北市萬華區騰雲里中華路2段606巷6號,121.509819,25.02399826,B,專業照護服務,02-23059292*603,taiwanslp@gmail.com,,20221230 19:14:20
臺北市私立祝福居家長照機構,臺北市,中正區,臺北市中正區水源里羅斯福路4段68號7樓之10（6810-E室）,121.5342712,25.01450348,B,喘息服務,02-29321396,nikey303@gmail.com,鄭如杏,20230519 17:38:13
社團法人中華民國士林靈糧堂社會福利協會附設臺北市私立安馨居家式服務類長期照顧服務機構,臺北市,士林區,臺北市士林區富光里延平北路五段83巷28弄11號,121.5091858,25.08159065,B,居家服務,02-28110515,homeservice@slsc.org.tw,劉群茂,20211230 11:12:47
臺北市立聯合醫院(仁愛院區),臺北市,大安區,臺北市大安區仁慈里仁愛路四段10號,121.5452271,25.03751183,B,專業照護服務,02-27093600#3113,A0019@tpech.gov.tw,蕭勝煌,20221230 12:16:00
脊立安居家物理治療所,臺北市,信義區,臺北市信義區永吉路491巷46號,121.5793533,25.045578,B,專業照護服務,0988-279500,w86521@gmail.com,蔡世元,20220406 08:56:07
康寧醫療財團法人康寧醫院,臺北市,內湖區,臺北市內湖區成功路五段４２０巷２６號,121.6087799,25.07595253,B,專業照護服務,026-345-500,knh2061@mail.knh.org.tw,尹長生,20221230 20:33:45
財團法人天下為公社會福利慈善事業基金會,臺北市,士林區,臺北市士林區承德路4段306號9樓,121.518631,25.08965492,A,個案管理服務,02-28881056,kcw@mail.oit.edu.tw,胡世賢,20230208 09:11:36
澴山藥局,臺北市,內湖區,臺北市內湖區環山路一段4號,121.5653915,25.08288193,B,專業照護服務,8797-8793,gisele2717@gmail.com,葉芃宜,20220302 10:12:42
中華民國老人福利協進會,臺北市,信義區,臺北市信義區嘉興里信安街78號2樓,121.5572205,25.02602005,C,巷弄長照站,02-27382357,catychou_3067@yahoo.com.tw,高火生,20210412 14:34:47
同仁院醫療財團法人萬華醫院附設居家護理所,臺北市,萬華區,臺北市萬華區中華路2段606巷6號,121.5098267,25.02404976,B,專業照護服務,2305-9292 #603,wanhwahc88@yahoo.com.tw,蕭竹生,20221221 13:53:32
宏光物理治療所,臺北市,信義區,臺北市信義區虎林街38號,121.5763702,25.04776001,B,專業照護服務,2765-1220,greatlight.ptc@gmail.com,方志宏,20221230 20:09:48
三軍總醫院北投分院附設民眾診療服務處,臺北市,北投區,臺北市北投區新民路６０號 中和街二五○號,121.4986181,24.9947168,B,專業照護服務,0228-959-808,無,楊立光,20200513 22:43:42
嘉恩健康事業有限公司附設臺北市私立嘉安居家式長照機構,臺北市,內湖區,臺北市內湖區內湖路2段353號2樓,121.592041,25.08350754,B,居家服務,02-77137966,jn.healthcareltd2023@gmail.com,林仁德,20230829 15:48:29
臺北市文山區順興里辦公處,臺北市,文山區,臺北市文山區順興里興隆路4段165巷50號1樓,121.5640335,24.98427391,C,巷弄長照站,0972-246-029,bs-pstchsien@mail.tapei.gov.tw,楊培釧,20210409 15:30:25
寶安健康有限公司附設臺北市私立鑫安居家長照機構,臺北市,文山區,臺北市文山區興隆路三段206巷10弄1號,121.5578918,24.9965229,B,居家服務,02-2230-3056,baoan206101@gmail.com,廖麗如,20230510 12:02:53
澄歆居家護理所,臺北市,文山區,臺北市文山區台北市景文街1號11樓之7,121.5414124,24.993536,B,專業照護服務,02-89351193,shcnc0928@gmail.com,周玉妹,20190821 15:25:04
臺北市私立仁泰老人長期照顧中心(養護型),臺北市,中正區,臺北市中正區三愛里001鄰連雲街3號1、3樓、3之4號及三愛里001鄰新生南路1段124之3號5樓,121.5323105,25.03764534,B,喘息服務,02-33931662,biggardenbiggarden@yahoo.com.tw,林郁翔,20221229 22:06:46
臺北市私立暖心居家長照機構,臺北市,松山區,臺北市松山區吉祥里光復北路95號3樓311室,121.5580521,25.05081367,B,居家服務,02-77515315,alto902242@gmail.com,方琇慧,20211125 11:42:00
臺北市光鹽關懷發展協會,臺北市,松山區,臺北市松山區東勢里南京東路4段107號12樓,121.5546646,25.05187416,C,巷弄長照站,27123242#14,julien77@cathaylife.com.tw,魯怡君,20210412 12:01:37
臺北市士林區葫東里辦公處,臺北市,士林區,臺北市士林區葫東里中正路589號1樓,121.5107269,25.08664894,C,巷弄長照站,0933-716-265,daisykuo@hotmail.com,郭淑玲,20210407 13:37:17
財團法人恆安社會福利慈善事業基金會附設臺北市私立恆安居家式服務類長期照顧服務機構,臺北市,大安區,臺北市大安區群賢里和平東路二段295號12樓,121.544693,25.02499199,B,營養餐飲服務,02-2333-1955,hanganhomecare@gmail.com,胡世賢,20211223 15:07:11
新康居家職能治療所,臺北市,士林區,臺北市士林區葫東里重慶北路四段248號,121.5113983,25.08662033,B,專業照護服務,02-28164533#312,newhealthot@gmail.com,洪于婷,20220315 10:04:58
佳顧股份有限公司附設臺北市私立佳顧居家長照機構,臺北市,中山區,臺北市中山區集英里中山北路2段102號11樓,121.5227127,25.06007195,B,居家服務,02-2511-2595,drmake888@gmail.com,孫蓁如,20211230 15:59:51
有限責任臺灣第二照顧服務勞動合作社附設臺北市私立二顧居家長照機構,臺北市,中正區,臺北市中正區羅斯福路一段102號8樓,121.508812,25.05327988,B,喘息服務,02-25527608,tpservice@secondcare.org.tw,伍崑崙,20220318 15:03:33
社團法人台北市士林全人關懷協會,臺北市,士林區,臺北市士林區福德里文林路421巷30號2樓&中正路335巷9號,121.5232315,25.09421158,C,巷弄長照站,0953-469-293,kuoml67@yahoo.com.tw,許承道,20210407 14:05:28
大中華國際租賃有限公司,臺北市,南港區,臺北市南港區重陽路318號,121.6057587,25.05778122,B,交通接送服務,(02)2652-2665,greater.china.austin@gmail.com,鄭紹宏,20210720 13:42:48
臺北市內湖紳士協會,臺北市,內湖區,臺北市內湖區港墘里內湖路1段552號,121.5771942,25.07906342,C,巷弄長照站,0918-819089,sum3919@hotmail.com,連德盛,20210408 17:51:18
一心健康事業股份有限公司附設臺北市私立繫心居家長照機構,臺北市,松山區,臺北市松山區吉仁里延吉街11號4樓之1（A室）,121.553688,25.04672623,B,居家服務,0955-082-062,gentlecare.ltc@gmail.com,黃淑華,20211230 14:37:07
有限責任臺北市全國照服員勞動合作社附設臺北市私立全方位居家長照機構,臺北市,萬華區,臺北市萬華區青年路106巷9號,121.5021286,25.0226593,B,喘息服務,023-033-909,a88119480@gmail.com,李宗玟,20221229 22:25:03
脊姿維運動物理治療所,臺北市,中正區,臺北市中正區金山南路一段67巷10號1樓,121.5288849,25.0376339,B,專業照護服務,0905-531-135,justwellclinic@gmail.com,廖奕絜,20221230 19:10:34
財團法人臺北市松年長春社會福利基金會(景華),臺北市,文山區,臺北市文山區景華里景華街49巷1號,121.5427933,24.99528313,C,巷弄長照站,0225-000-261,pine003@twdc.org.tw,王淑惠,20210409 15:21:32
臺北市立聯合醫院(忠孝院區),臺北市,南港區,臺北市南港區中南里同德路87號,121.5861588,25.04660416,B,專業照護服務,02-27861288#8281,B0430@tpech.gov.tw,蕭勝煌,20221230 12:15:32
社團法人愛福家協會附設私立成功愛活樂園社區長照機構,臺北市,大安區,臺北市大安區群英里復興南路2段171巷26號及28號1樓,121.5449448,25.02751541,B,日間照顧服務,2700-3696,rd08@ilive.org.tw,涂林德媛,20220128 10:02:17
銀享全球股份有限公司附設臺北市私立銀享居家長照機構,臺北市,大安區,臺北市大安區仁慈里復興南路1段259號8樓之1(805室),121.5438766,25.03650093,B,居家服務,02-27009805,slghomecare@gmail.com,蔡昕伶,20211223 16:01:07
福田居家有限公司私立福田居家長照機構,臺北市,信義區,臺北市信義區松光里忠孝東路5段492巷2號2樓,121.5783005,25.04051209,B,居家服務,02-27270065,futain@futaincare.com.tw,林永峰,20220302 09:49:01
臺北市北投區硫磺谷社區發展協會,臺北市,北投區,臺北市北投區文化里文化三路4、5樓,121.4960098,25.13647842,C,巷弄長照站,0910-412-056,sulfulvale@gmail.com,洪正鈞,20210409 17:19:24
餘慶之家健康股份有限公司附設臺北市私立餘慶居家長照機構,臺北市,大同區,臺北市大同區永樂里塔城街39號10樓,121.5105057,25.05241585,B,居家服務,02-2558-1655,w26547183@gmail.com,郭濟安,20211230 16:11:52
景美醫院附設護理之家,臺北市,文山區,臺北市文山區萬慶街18號3、4樓,121.539772,24.99257088,B,喘息服務,02 29332962,abhnh.jmn@gmail.com,蘇芝慧,20221229 23:10:43
朗朗語言治療所,臺北市,中正區,臺北市中正區忠孝西路一段45號11樓之4,121.5179367,25.04628181,B,專業照護服務,0935-919-971,pj@ms37.url.com.tw,許珮蓁,20221229 22:07:45
臺北市中山區朱厝崙社區發展協會,臺北市,中山區,臺北市中山區朱崙里龍江路15號3樓,121.5404968,25.04743576,B,喘息服務,2781-5504,teak4747@yahoo.com.tw,高銘鴻,20230510 13:47:17
脊立安居家物理治療所,臺北市,信義區,臺北市信義區永吉路491巷46號,121.5793533,25.045578,B,專業照護服務(CC01),0988-279500,w86521@gmail.com,蔡世元,20230802 17:19:14
有限責任臺灣第二照顧服務勞動合作社附設臺北市私立二顧居家長照機構,臺北市,中正區,臺北市中正區羅斯福路一段102號8樓,121.508812,25.05327988,B,居家服務,02-25527608,tpservice@secondcare.org.tw,伍崑崙,20220318 15:02:20
財團法人台北市基督教台灣貴格會內湖慈光堂,臺北市,內湖區,臺北市內湖區瑞陽里文德路66巷49弄5號,121.5820465,25.07721519,C,巷弄長照站,02-27976651,blessed.nhfc@gmail.com,陳文禧,20210408 18:06:20
臺北市信義區西村里辦公處,臺北市,信義區,臺北市信義區西村里基隆路一段364巷22號,121.5592194,25.03506088,C,巷弄長照站,0939-585-853,vb-10394@mail.taipei.cov.tw,馬念慈,20210412 14:28:58
社團法人台灣認知功能促進協會附設臺北市私立敬智學苑社區長照機構,臺北市,內湖區,臺北市內湖區石潭里新明路22號2樓,121.5907898,25.06095123,B,日間照顧服務,2790-0907,Info.tcea@tcea-taiwan.com,甄瑞興,20230315 14:33:04
康齡安健物理治療所,臺北市,松山區,臺北市松山區復勢里八德路三段225號,121.5570526,25.04828835,B,專業照護服務,02-25783330,comeinpt@gmail.com,陳雅玲,20221229 22:23:11
財團法人台北市私立愛愛院,臺北市,萬華區,臺北市萬華區大理街175巷27號,121.4955292,25.03455925,B,喘息服務,02-23060493,csp1@aiai.org.tw,施武靖,20221229 21:45:37
圓石實業股份有限公司附設臺北市私立內湖圓石社區長照機構,臺北市,內湖區,臺北市內湖區民權東路6段180巷6號8樓,121.5926514,25.06819534,B,喘息服務,02-2790-2090,contact@roundstone.com.tw,侯克瀛,20221229 23:00:09
臺北市私立一心居家長照機構,臺北市,松山區,臺北市松山區吉仁里八德路3段186號6樓之1,121.556015,25.04775238,B,居家服務,025-781-018,xue.oneheart@gmail.com,黃淑華,20211230 14:40:10
臺北市私立全家老人長期照顧中心(養護型),臺北市,北投區,臺北市北投區永和里007鄰行義路96巷1號1~2樓,121.5288544,25.12668037,B,喘息服務,02-28761692,cj61245@yahoo.com.tw,陳非,20221230 19:58:46
C+-財團法人台北市中華基督教浸信會慈光堂,臺北市,士林區,臺北市士林區翠山里中社路一段43巷3號,121.5602036,25.10877419,B,營養餐飲服務,02-28412290,shoujen2318@gmail.com,柴漢熙,20210129 18:12:35
安安物理治療所,臺北市,士林區,臺北市士林區重慶北路四段136號1樓,121.5124817,25.08338928,B,專業照護服務,02-29161003,annysknt@gmail.com,簡淑霞,20230407 17:27:26
善食營養中心,臺北市,士林區,臺北市士林區承德路4段81號6樓之1,121.5211639,25.07883072,B,專業照護服務,02-28837300#1450,ncnc@enutrition.com.tw,張馨怡,20221230 20:28:25
臺北市松山區慈祐里辦公處,臺北市,松山區,臺北市松山區慈祐里八德路4段580號1樓,121.5717392,25.0497036,C,巷弄長照站,0938-889-576,casper255058@gmail.com,李祖民,20210412 14:10:27
臺北市私立安歆居家式服務類長期照顧服務機構,臺北市,中山區,臺北市中山區興亞里松江路50號3樓,121.5326614,25.04817963,B,喘息服務,02-25372586,crcanhsin@gmail.com,余建華,20221229 22:50:47
洪耳鼻喉科診所,臺北市,北投區,臺北市北投區中央南路一段43號,121.5014496,25.13220406,B,居家失能個案家庭醫師照護服務,0910-114-962,Hungtj66@ms31.hinet.net,洪德仁,20221230 21:54:31
廣和順科技股份有限公司附設私立家天使居家長照機構,臺北市,信義區,臺北市信義區中興里信義路4段401號8樓,121.5587234,25.03325844,B,居家服務,027-588-708,mikekong@ghsha.com,龔文凱,20221229 22:49:50
台北市萬華區新忠里辦公處,臺北市,萬華區,臺北市萬華區新忠里西藏路125巷7號1樓  (里民活動場所),121.5021515,25.02873993,C,巷弄長照站,02-23392806,aliceho@ymail.com,邱文龍,20210412 15:03:07
暉宇有限公司附設臺北市私立星雲祥家社區長照機構,臺北市,內湖區,臺北市內湖區清白里星雲街161巷3號3樓,121.5966034,25.08118629,B,喘息服務,(02)2790-0898,Huiyu20201208@gmail.com,楊雋宇,20230330 11:17:52
臺北市政府衛生局委託臺北榮民總醫院經營管理稻香社區長照機構,臺北市,北投區,臺北市北投區稻香路81號4樓,121.4892883,25.14091301,B,日間照顧服務,02-28958575,daoxiangfacility@gmail.com,陳威明,20230330 09:09:24
社團法人臺北市向日葵慈善協會,臺北市,松山區,臺北市松山區東勢里南京東路四段133巷7弄7號,121.5554123,25.05254555,C,巷弄長照站,02-87700650,bnwdh12a@gmail.com,蔡秀琴,20221229 23:10:13
常樂企業有限公司,臺北市,中山區,臺北市中山區民生東路一段51號6樓之1,121.5262451,25.05819702,B,交通接送服務,02-2523-8456,changlecare@gmail.com,王受益,20210720 10:36:24
生通股份有限公司,臺北市,中山區,臺北市中山區民權東路一段55號,121.5248871,25.06290627,B,交通接送服務,02-25997667,doreen@wcarsharing.com,陳金棍,20220322 09:06:17
財團法人台北市天母基督教會,臺北市,士林區,臺北市士林區天母里天玉街63.65號,121.5274658,25.11970901,C,巷弄長照站,02-28714742,yiinjih50@yahoo.com.tw,李俊年,20210407 11:39:05
辰信健康有限公司附設臺北市私立辰信居家長照機構,臺北市,大安區,臺北市大安區群英里四維路198巷30弄12號2樓,121.545845,25.02644348,B,居家服務,02-2558-0208,cxin@elitexs.com.tw,簡裕宗,20220225 10:29:52
包子居家護理所,臺北市,中山區,臺北市中山區通明新生北路三段82巷23號,121.5268097,25.06715393,B,專業照護服務,02-25931596,Bread1119@gmail.com,黃獻賢,20190417 00:00:00
財團法人私立廣恩老人養護中心附設臺北市私立松山健康社區長照機構,臺北市,松山區,臺北市松山區健康路225巷11號1樓,121.5622635,25.05453491,B,小規模多機能服務,027-568-777,gndc_ss@guannenn.org.tw,林偉峰,20220209 09:59:57
私立愛吾愛居家長照機構,臺北市,萬華區,臺北市萬華區大理街171號2樓201室,121.4963226,25.0341568,B,居家服務,02-23087286,n01d.iwoi@gmail.com,許惠容,20211119 13:43:57
新英格蘭診所,臺北市,中山區,臺北市中山區中山區松江路396號,121.499176,25.13114357,B,居家失能個案家庭醫師照護服務,02-2596-6008,pj@neclinic.com,黃柏榮,20230612 14:35:42
臺北市士林區福順里辦公處,臺北市,士林區,臺北市士林區福順里延平北路5段136巷24號,121.5114746,25.08218765,C,巷弄長照站,0958-830-605,bn_526@mail.taipei.gov.tw,林家卉,20210408 09:21:23
社團法人台北市歐伊寇斯OIKOS社區關懷協會,臺北市,大同區,臺北市大同區永樂里延平北路2段60巷2號1~2樓,121.5115051,25.05539322,C,巷弄長照站,02-23414322#603,coralpao945@gmail.com,寇張琪玫,20210407 14:15:02
臺北市私立福樂居家長照機構,臺北市,大同區,臺北市大同區西寧北路78號8樓J室,121.5086899,25.05443001,B,居家服務,02-2558168,flowerhomeservices@gmail.com,陳姿璇,20230217 14:03:15
臺北市私立福樂居家長照機構,臺北市,大同區,臺北市大同區西寧北路78號8樓J室,121.5086899,25.05443001,B,喘息服務,02-2558168,flowerhomeservices@gmail.com,陳姿璇,20220314 14:36:25
財團法人基督教中國佈道會,臺北市,內湖區,臺北市內湖區康寧里康寧路3段99巷39弄66號,121.6105423,25.07419586,C,巷弄長照站,02-26320867,wengjiaen@gmail.com,陳天鳴,20210408 17:47:23
臺北市立關渡醫院-委託臺北榮民總醫院經營附設居家護理,臺北市,北投區,臺北市北投區知行路225巷12號,121.4663544,25.12018776,B,專業照護服務,2858-7000 #7809,sychang36@gandau.gov.tw,陳亮恭,20230216 09:38:52
北醫大管理顧問股份有限公司附設私立杏芳居家長照機構,臺北市,文山區,臺北市文山區萬美街一段25號地下之1(17室),121.5692673,25.00225067,B,喘息服務,02-29350230#12,careplus.wf@gmail.com,李飛鵬,20221229 22:56:05
台灣居護股份有限公司附設臺北市私立聯承居家長照機構,臺北市,大安區,臺北市大安區義村里忠孝東路3段136號11樓1102辦公室,121.5377884,25.041502,B,居家服務,082-588-088,thnbuurtzorg@gmail.com,汪秋蓉,20221221 17:33:37
財團法人政慧發展社會福利慈善事業基金會,臺北市,中山區,臺北市中山區朱園里南京東路二段160號7樓,121.5344543,25.0517292,C,巷弄長照站,025-172-068,chenghui3017@gmail.com,曾瓊慧,20210408 16:21:25
臺北市私立暖心居家長照機構,臺北市,松山區,臺北市松山區吉祥里光復北路95號3樓311室,121.5580521,25.05081367,B,喘息服務,02-77515315,alto902242@gmail.com,方琇慧,20221229 22:55:43
大心居家職能治療所,臺北市,士林區,臺北市士林區天祿里中山北路六段754巷22之1號,121.5290527,25.1145649,A,個案管理服務,02-77518056,bigheartot@gmail.com,彭紹宇,20230208 09:10:21
生通股份有限公司,臺北市,中山區,臺北市中山區民權東路一段55號,121.5248871,25.06290627,B,交通接送服務,02-25997667,doreen@wcarsharing.com,陳金棍,20230602 14:59:51
幸福物理治療所,臺北市,萬華區,臺北市萬華區雙園里西園路二段13巷12號,121.49823,25.03173256,B,專業照護服務,(02)23020306,kilaerhazard@gmail.com,李駿鴻,20220210 15:27:13
